{"type": "FeatureCollection", "features": [{"type": "Feature", "properties": {"address": "Ruusulankatu 5", "city": "Helsinki", "rent": "€560–600", "room_types": "studio/1h", "year_built": 1962, "url": "https://ayyasunnot.fi/kustannuspaikka/ruusulankatu-5/", "n_units": 53}, "geometry": {"type": "Point", "coordinates": [24.925189, 60.181825]}}, {"type": "Feature", "properties": {"address": "Pohjavedenkatu 4", "city": "Helsinki", "rent": "€768–1360", "room_types": "3h, 4h, kaksio_oh_mh", "year_built": 1999, "url": "https://ayyasunnot.fi/kustannuspaikka/pohjavedenkatu-4/", "n_units": 11}, "geometry": {"type": "Point", "coordinates": [25.136772, 60.205633]}}, {"type": "Feature", "properties": {"address": "Haarniskatie 8", "city": "Helsinki", "rent": "€585–789", "room_types": "kaksio_oh_mh, studio/1h", "year_built": 2000, "url": "https://ayyasunnot.fi/kustannuspaikka/haarniskatie-8/", "n_units": 53}, "geometry": {"type": "Point", "coordinates": [25.098585, 60.216161]}}, {"type": "Feature", "properties": {"address": "Kääpiöidenpolku 4", "city": "Helsinki", "rent": "€585–789", "room_types": "kaksio_2mh, kaksio_oh_mh, studio/1h", "year_built": 2002, "url": "https://ayyasunnot.fi/kustannuspaikka/kaapioidenpolku-4/", "n_units": 66}, "geometry": {"type": "Point", "coordinates": [25.063734, 60.202727]}}, {"type": "Feature", "properties": {"address": "Rummunlyöjänkatu 1", "city": "Espoo", "rent": "€618–771", "room_types": "kaksio_oh_mh, studio/1h", "year_built": 2002, "url": "https://ayyasunnot.fi/kustannuspaikka/rummunlyojankatu-1/", "n_units": 46}, "geometry": {"type": "Point", "coordinates": [24.805494, 60.217943]}}, {"type": "Feature", "properties": {"address": "Vaasankatu 10", "city": "Helsinki", "rent": "€419–751", "room_types": "kaksio_2mh, studio/1h", "year_built": 1970, "url": "https://ayyasunnot.fi/kustannuspaikka/vaasankatu-10/", "n_units": 90}, "geometry": {"type": "Point", "coordinates": [24.957085, 60.188236]}}, {"type": "Feature", "properties": {"address": "Maapadontie 5", "city": "Helsinki", "rent": "€425–600", "room_types": "3h, kaksio_oh_mh", "year_built": 1971, "url": "https://ayyasunnot.fi/kustannuspaikka/maapadontie-5/", "n_units": 21}, "geometry": {"type": "Point", "coordinates": [24.946772, 60.231478]}}, {"type": "Feature", "properties": {"address": "Mäyrätie 1", "city": "Helsinki", "rent": "€669–1050", "room_types": "3h, kaksio_oh_mh, studio/1h", "year_built": 1955, "url": "https://ayyasunnot.fi/kustannuspaikka/mayratie-1/", "n_units": 24}, "geometry": {"type": "Point", "coordinates": [25.030562, 60.199347]}}, {"type": "Feature", "properties": {"address": "Kaj Franckin katu 4", "city": "Helsinki", "rent": "€500–706", "room_types": "kaksio_oh_mh, studio/1h", "year_built": 2005, "url": "https://ayyasunnot.fi/kustannuspaikka/kaj-franckin-katu-4/", "n_units": 111}, "geometry": {"type": "Point", "coordinates": [24.980292, 60.208486]}}, {"type": "Feature", "properties": {"address": "Arkadiankatu 28", "city": "Helsinki", "rent": "€535–646", "room_types": "studio/1h", "year_built": 2009, "url": "https://ayyasunnot.fi/kustannuspaikka/arkadiankatu-28/", "n_units": 62}, "geometry": {"type": "Point", "coordinates": [24.920976, 60.171339]}}, {"type": "Feature", "properties": {"address": "Otakaari 20", "city": "Espoo", "rent": "€324–774", "room_types": "3h, kaksio_oh_mh, studio/1h", "year_built": 1959, "url": "https://ayyasunnot.fi/kustannuspaikka/otakaari-20/", "n_units": 45}, "geometry": {"type": "Point", "coordinates": [24.833734, 60.186799]}}, {"type": "Feature", "properties": {"address": "Jämeräntaival 3", "city": "Espoo", "rent": "€327–825", "room_types": "solu_yksio, studio/1h", "year_built": 1952, "url": "https://ayyasunnot.fi/kustannuspaikka/jamerantaival-3/", "n_units": 105}, "geometry": {"type": "Point", "coordinates": [24.836496, 60.187365]}}, {"type": "Feature", "properties": {"address": "Jämeräntaival 5", "city": "Espoo", "rent": "€310–719", "room_types": "solu_kaksio, solu_yksio, studio/1h", "year_built": 1952, "url": "https://ayyasunnot.fi/kustannuspaikka/jamerantaival-5/", "n_units": 106}, "geometry": {"type": "Point", "coordinates": [24.837871, 60.18788]}}, {"type": "Feature", "properties": {"address": "Jämeräntaival 7", "city": "Espoo", "rent": "€327–704", "room_types": "kaksio_oh_mh, solu_kaksio, solu_yksio, studio/1h", "year_built": 1952, "url": "https://ayyasunnot.fi/kustannuspaikka/jamerantaival-7/", "n_units": 106}, "geometry": {"type": "Point", "coordinates": [24.838571, 60.188707]}}, {"type": "Feature", "properties": {"address": "Otakaari 18", "city": "Espoo", "rent": "€464–801", "room_types": "kaksio_2mh, kaksio_oh_mh, studio/1h", "year_built": 2004, "url": "https://ayyasunnot.fi/kustannuspaikka/otakaari-18/", "n_units": 90}, "geometry": {"type": "Point", "coordinates": [24.835336, 60.188246]}}, {"type": "Feature", "properties": {"address": "Servinkuja 1", "city": "Espoo", "rent": "€557–939", "room_types": "3h, 4h, kaksio_oh_mh", "year_built": 1966, "url": "https://ayyasunnot.fi/kustannuspaikka/servinkuja-1/", "n_units": 57}, "geometry": {"type": "Point", "coordinates": [24.835299, 60.19017]}}, {"type": "Feature", "properties": {"address": "Servin Maijan tie 6", "city": "Espoo", "rent": "€408–669", "room_types": "kaksio_2mh, kaksio_oh_mh, studio/1h", "year_built": 1967, "url": "https://ayyasunnot.fi/kustannuspaikka/servin-maijan-tie-6/", "n_units": 112}, "geometry": {"type": "Point", "coordinates": [24.836178, 60.190392]}}, {"type": "Feature", "properties": {"address": "Servin Maijan tie 10", "city": "Espoo", "rent": "€464–871", "room_types": "3h, kaksio_2mh, studio/1h", "year_built": 1969, "url": "https://ayyasunnot.fi/kustannuspaikka/servin-maijan-tie-10/", "n_units": 102}, "geometry": {"type": "Point", "coordinates": [24.836532, 60.191429]}}, {"type": "Feature", "properties": {"address": "Servin Maijan tie 12", "city": "Espoo", "rent": "€466–881", "room_types": "3h, kaksio_2mh, kaksio_oh_mh, studio/1h", "year_built": 1968, "url": "https://ayyasunnot.fi/kustannuspaikka/servin-maijan-tie-12/", "n_units": 146}, "geometry": {"type": "Point", "coordinates": [24.837479, 60.19091]}}, {"type": "Feature", "properties": {"address": "Otaranta 8", "city": "Espoo", "rent": "€411–1143", "room_types": "3h, 4h, kaksio_2mh, studio/1h", "year_built": 2005, "url": "https://ayyasunnot.fi/kustannuspaikka/otaranta-8/", "n_units": 110}, "geometry": {"type": "Point", "coordinates": [24.83573, 60.186519]}}, {"type": "Feature", "properties": {"address": "Rummunlyöjänkatu 3", "city": "Espoo", "rent": "€425–891", "room_types": "kaksio_oh_mh, solu_kaksio, solu_yksio, studio/1h", "year_built": 2002, "url": "https://ayyasunnot.fi/kustannuspaikka/rummunlyojankatu-3/", "n_units": 61}, "geometry": {"type": "Point", "coordinates": [24.806083, 60.217763]}}, {"type": "Feature", "properties": {"address": "Servin Maijan tie 1", "city": "Espoo", "rent": "€587–923", "room_types": "3h, kaksio_oh_mh", "year_built": 1960, "url": "https://ayyasunnot.fi/kustannuspaikka/servin-maijan-tie-1/", "n_units": 27}, "geometry": {"type": "Point", "coordinates": [24.835249, 60.18893]}}, {"type": "Feature", "properties": {"address": "Servinkuja 2", "city": "Espoo", "rent": "€424–1293", "room_types": "3h, 4h, kaksio_oh_mh, studio/1h", "year_built": 1963, "url": "https://ayyasunnot.fi/kustannuspaikka/servinkuja-2/", "n_units": 61}, "geometry": {"type": "Point", "coordinates": [24.833777, 60.190248]}}, {"type": "Feature", "properties": {"address": "Atlantinkatu 7", "city": "Helsinki", "rent": "€504–1214", "room_types": "kaksio_2mh, kaksio_oh_mh, studio/1h", "year_built": 2017, "url": "https://ayyasunnot.fi/kustannuspaikka/atlantinkatu-7/", "n_units": 122}, "geometry": {"type": "Point", "coordinates": [24.909888, 60.15579]}}, {"type": "Feature", "properties": {"address": "Miestentie 2", "city": "Espoo", "rent": "€495–993", "room_types": "kaksio_2mh, kaksio_oh_mh, studio/1h", "year_built": 2018, "url": "https://ayyasunnot.fi/kustannuspaikka/miestentie-2/", "n_units": 131}, "geometry": {"type": "Point", "coordinates": [24.826924, 60.179509]}}, {"type": "Feature", "properties": {"address": "Otakaari 15", "city": "Espoo", "rent": "€607–1139", "room_types": "3h, kaksio_oh_mh, studio/1h", "year_built": 2025, "url": "https://ayyasunnot.fi/kustannuspaikka/otakaari-15/", "n_units": 153}, "geometry": {"type": "Point", "coordinates": [24.833038, 60.187009]}}]}