{"type":"FeatureCollection","features":[{"type":"Feature","properties":{"address":"Akanapolku 2","min_rent":466,"max_rent":641,"url":"https://hoas.fi/en/housing/akanapolku-2/","condition":"Excellent","year_built":1979,"year_renovated":[1997,2020],"rent_breakdown":"单身 466–605｜两室 629–641","rent_source":"hoas.fi 2026-06"},"geometry":{"type":"Point","coordinates":[25.060174,60.29888]}},{"type":"Feature","properties":{"address":"Alberganesplanadi 2","min_rent":670,"max_rent":984,"url":"https://hoas.fi/en/housing/alberganesplanadi-2/","condition":"Good","year_built":1997,"year_renovated":[2021],"rent_breakdown":"单身 670–671｜两室 747–946｜三室 984","rent_source":"hoas.fi 2026-06"},"geometry":{"type":"Point","coordinates":[24.812513,60.216842]}},{"type":"Feature","properties":{"address":"Alempi Talonpojantie 4","min_rent":433,"max_rent":893,"url":"https://hoas.fi/en/housing/alempi-talonpojantie-4/","condition":"Good","year_built":2002,"year_renovated":null,"rent_breakdown":"单身 570–598｜两室 864–893","rent_source":"hoas.fi 2026-06"},"geometry":{"type":"Point","coordinates":[25.02231,60.227111]}},{"type":"Feature","properties":{"address":"Anna Sahlsténin katu 4","min_rent":568,"max_rent":773,"url":"https://hoas.fi/en/housing/anna-sahlstenin-katu-4/","condition":"Excellent","year_built":2022,"year_renovated":null,"rent_breakdown":"单身 568–681｜两室 753–773","rent_source":"hoas.fi 2026-06"},"geometry":{"type":"Point","coordinates":[24.827635,60.212521]}},{"type":"Feature","properties":{"address":"Arentikuja 1","min_rent":310,"max_rent":619,"url":"https://hoas.fi/en/housing/arentikuja-1/","condition":"Good","year_built":1978,"year_renovated":[2001,2018],"rent_breakdown":"单身 456–457｜两室 619｜三室 619","rent_source":"hoas.fi 2026-06"},"geometry":{"type":"Point","coordinates":[24.852907,60.244385]}},{"type":"Feature","properties":{"address":"Arielinkatu 2","min_rent":424,"max_rent":991,"url":"https://hoas.fi/en/housing/arielinkatu-2/","condition":"Good","year_built":2012,"year_renovated":null,"rent_breakdown":"单身 513–844｜两室 720–991","rent_source":"hoas.fi 2026-06"},"geometry":{"type":"Point","coordinates":[24.981363,60.18585]}},{"type":"Feature","properties":{"address":"Asiakkaankatu 6","min_rent":315,"max_rent":1024,"url":"https://hoas.fi/en/housing/asiakkaankatu-6/","condition":"Good","year_built":1977,"year_renovated":[1989,1990,1999,2010,2017],"rent_breakdown":"单身 459–469｜两室 706–727","rent_source":"hoas.fi 2026-06"},"geometry":{"type":"Point","coordinates":[25.078382,60.208589]}},{"type":"Feature","properties":{"address":"Atlantinkatu 5","min_rent":408,"max_rent":1226,"url":"https://hoas.fi/en/housing/atlantinkatu-5/","condition":"Excellent","year_built":2016,"year_renovated":null,"rent_breakdown":"单身 707–823｜三室 226","rent_source":"hoas.fi 2026-06"},"geometry":{"type":"Point","coordinates":[24.909661,60.15617]}},{"type":"Feature","properties":{"address":"Berliininkatu 5","min_rent":417,"max_rent":1218,"url":"https://hoas.fi/en/housing/berliininkatu-5/","condition":null,"year_built":2010,"year_renovated":null,"rent_breakdown":"单身 661–681｜两室 809–903｜三室 218","rent_source":"hoas.fi 2026-06"},"geometry":{"type":"Point","coordinates":[24.973981,60.203986]}},{"type":"Feature","properties":{"address":"Brysselinkatu 3","min_rent":399,"max_rent":1187,"url":"https://hoas.fi/en/housing/brysselinkatu-3/","condition":null,"year_built":2010,"year_renovated":null,"rent_breakdown":"单身 563–681｜两室 741–886｜三室 187","rent_source":"hoas.fi 2026-06"},"geometry":{"type":"Point","coordinates":[24.972158,60.202852]}},{"type":"Feature","properties":{"address":"Haahkakuja 5","min_rent":616,"max_rent":1052,"url":"https://hoas.fi/en/housing/haahkakuja-5/","condition":null,"year_built":1951,"year_renovated":[2007],"rent_breakdown":"单身 616–905","rent_source":"hoas.fi 2026-06"},"geometry":{"type":"Point","coordinates":[24.875848,60.157188]}},{"type":"Feature","properties":{"address":"Hakaniemenranta 12","min_rent":331,"max_rent":1132,"url":"https://hoas.fi/en/housing/hakaniemenranta-12/","condition":null,"year_built":1983,"year_renovated":[1996,2004],"rent_breakdown":"单身 479｜两室 731","rent_source":"hoas.fi 2026-06"},"geometry":{"type":"Point","coordinates":[24.958947,60.178774]}},{"type":"Feature","properties":{"address":"Harustie 7","min_rent":299,"max_rent":1211,"url":"https://hoas.fi/en/housing/harustie-7/","condition":"Good","year_built":1991,"year_renovated":[2015],"rent_breakdown":"单身 476–550｜两室 580–885｜三室 211","rent_source":"hoas.fi 2026-06"},"geometry":{"type":"Point","coordinates":[25.120076,60.203984]}},{"type":"Feature","properties":{"address":"Harustie 8","min_rent":313,"max_rent":833,"url":"https://hoas.fi/en/housing/harustie-8/","condition":"Good","year_built":1990,"year_renovated":[2016],"rent_breakdown":"两室 625–719｜三室 821–833","rent_source":"hoas.fi 2026-06"},"geometry":{"type":"Point","coordinates":[25.120716,60.203263]}},{"type":"Feature","properties":{"address":"Haukilahdenkuja 15","min_rent":490,"max_rent":969,"url":"https://hoas.fi/en/housing/haukilahdenkuja-15/","condition":null,"year_built":2014,"year_renovated":null,"rent_breakdown":"单身 617–622｜两室 818–969","rent_source":"hoas.fi 2026-06"},"geometry":{"type":"Point","coordinates":[24.971973,60.196105]}},{"type":"Feature","properties":{"address":"Helmikuja 6","min_rent":652,"max_rent":944,"url":"https://hoas.fi/en/housing/helmikuja-6/","condition":"Excellent","year_built":1994,"year_renovated":[2023],"rent_breakdown":"两室 652–870｜三室 894–944","rent_source":"hoas.fi 2026-06"},"geometry":{"type":"Point","coordinates":[24.858049,60.257333]}},{"type":"Feature","properties":{"address":"Hermannin rantatie 23","min_rent":648,"max_rent":1140,"url":"https://hoas.fi/en/housing/hermanninrantatie-23/","condition":"Excellent","year_built":2024,"year_renovated":null,"rent_breakdown":"单身 648–815","rent_source":"hoas.fi 2026-06"},"geometry":{"type":"Point","coordinates":[24.979342,60.190797]}},{"type":"Feature","properties":{"address":"Hietapellontie 11","min_rent":507,"max_rent":772,"url":"https://hoas.fi/en/housing/hietapellontie-11/","condition":null,"year_built":1996,"year_renovated":[2020],"rent_breakdown":"单身 507–527｜两室 633｜三室 771–772","rent_source":"hoas.fi 2026-06"},"geometry":{"type":"Point","coordinates":[25.013958,60.258739]}},{"type":"Feature","properties":{"address":"Hopeakaivoksentie 47, Koirasaarentie 39","min_rent":595,"max_rent":835,"url":"https://hoas.fi/en/housing/hopeakaivoksentie-47-koirasaarentie-39/","condition":"Excellent","year_built":2025,"year_renovated":null,"rent_breakdown":"单身 595–765｜两室 825–835","rent_source":"hoas.fi 2026-06"},"geometry":{"type":"Point","coordinates":[25.021341,60.17077]}},{"type":"Feature","properties":{"address":"Hopeatie 10","min_rent":310,"max_rent":907,"url":"https://hoas.fi/en/housing/hopeatie-10/","condition":null,"year_built":1979,"year_renovated":[1999,2019],"rent_breakdown":"单身 397–554｜两室 682｜三室 896–907","rent_source":"hoas.fi 2026-06"},"geometry":{"type":"Point","coordinates":[24.884968,60.229362]}},{"type":"Feature","properties":{"address":"Höyrykatu 1, Tulistimenkatu 1, Veturitie 22","min_rent":620,"max_rent":1005,"url":"https://hoas.fi/en/housing/hoyrykatu-1-tulistimenkatu-1-veturitie-22/","condition":"Excellent","year_built":2025,"year_renovated":null,"rent_breakdown":"单身 620–845","rent_source":"hoas.fi 2026-06"},"geometry":{"type":"Point","coordinates":[24.929879,60.200763]}},{"type":"Feature","properties":{"address":"Hyväntoivonkatu 6","min_rent":404,"max_rent":1314,"url":"https://hoas.fi/en/housing/hyvantoivonkatu-6/","condition":null,"year_built":2015,"year_renovated":null,"rent_breakdown":"单身 610–677｜两室 725–998｜三室 314","rent_source":"hoas.fi 2026-06"},"geometry":{"type":"Point","coordinates":[24.916299,60.155837]}},{"type":"Feature","properties":{"address":"Intiankatu 20 – 21","min_rent":411,"max_rent":1186,"url":"https://hoas.fi/en/housing/intiankatu-20-21/","condition":null,"year_built":2007,"year_renovated":null,"rent_breakdown":"单身 609–672｜两室 186","rent_source":"hoas.fi 2026-06"},"geometry":{"type":"Point","coordinates":[24.966005,60.208593]}},{"type":"Feature","properties":{"address":"Iskospolku 2","min_rent":546,"max_rent":898,"url":"https://hoas.fi/en/housing/iskospolku-2/","condition":"Excellent","year_built":2023,"year_renovated":null,"rent_breakdown":"单身 546–663｜两室 668–898｜三室 880","rent_source":"hoas.fi 2026-06"},"geometry":{"type":"Point","coordinates":[24.851387,60.262255]}},{"type":"Feature","properties":{"address":"Itämerenkatu 12","min_rent":428,"max_rent":1150,"url":"https://hoas.fi/en/housing/itamerenkatu-12/","condition":null,"year_built":1993,"year_renovated":null,"rent_breakdown":"三室 150","rent_source":"hoas.fi 2026-06"},"geometry":{"type":"Point","coordinates":[24.915678,60.163067]}},{"type":"Feature","properties":{"address":"Jämeräntaival 10","min_rent":658,"max_rent":787,"url":"https://hoas.fi/en/housing/jamerantaival-10/","condition":"Excellent","year_built":1971,"year_renovated":[1989,1990,2019,2020],"rent_breakdown":"两室 658–787","rent_source":"hoas.fi 2026-06"},"geometry":{"type":"Point","coordinates":[24.838847,60.190337]}},{"type":"Feature","properties":{"address":"Jämeräntaival 11","min_rent":296,"max_rent":679,"url":"https://hoas.fi/en/housing/jamerantaival-11/","condition":"Good","year_built":1972,"year_renovated":[1988,1994,2019],"rent_breakdown":"单身 436–466｜两室 673","rent_source":"hoas.fi 2026-06"},"geometry":{"type":"Point","coordinates":[24.839713,60.189302]}},{"type":"Feature","properties":{"address":"Jämeräntaival 9","min_rent":471,"max_rent":685,"url":"https://hoas.fi/en/housing/jamerantaival-9/","condition":"Good","year_built":1973,"year_renovated":[2007],"rent_breakdown":"单身 471–685","rent_source":"hoas.fi 2026-06"},"geometry":{"type":"Point","coordinates":[24.839692,60.188693]}},{"type":"Feature","properties":{"address":"Juhana-herttuan tie 3","min_rent":349,"max_rent":684,"url":"https://hoas.fi/en/housing/juhana-herttuan-tie-3/","condition":null,"year_built":1971,"year_renovated":[2006],"rent_breakdown":"单身 470–475｜两室 667","rent_source":"hoas.fi 2026-06"},"geometry":{"type":"Point","coordinates":[24.970218,60.217543]}},{"type":"Feature","properties":{"address":"Junailijankuja 5","min_rent":463,"max_rent":673,"url":"https://hoas.fi/en/housing/junailijankuja-5/","condition":null,"year_built":1974,"year_renovated":[1990,1999,2015],"rent_breakdown":"单身 463","rent_source":"hoas.fi 2026-06"},"geometry":{"type":"Point","coordinates":[24.937858,60.199113]}},{"type":"Feature","properties":{"address":"Juusintie 5","min_rent":350,"max_rent":1051,"url":"https://hoas.fi/en/housing/juusintie-5/","condition":null,"year_built":1992,"year_renovated":[2015],"rent_breakdown":"两室 515–682｜三室 1008","rent_source":"hoas.fi 2026-06"},"geometry":{"type":"Point","coordinates":[24.747835,60.218686]}},{"type":"Feature","properties":{"address":"Juustenintie 3","min_rent":279,"max_rent":982,"url":"https://hoas.fi/en/housing/juustenintie-3/","condition":null,"year_built":1981,"year_renovated":[2004],"rent_breakdown":"单身 407–578｜两室 566–736｜三室 813–982","rent_source":"hoas.fi 2026-06"},"geometry":{"type":"Point","coordinates":[24.868741,60.244956]}},{"type":"Feature","properties":{"address":"Kalevalantie 4","min_rent":610,"max_rent":895,"url":"https://hoas.fi/en/housing/kalevalantie-4/","condition":"Excellent","year_built":2025,"year_renovated":null,"rent_breakdown":"单身 610–730｜两室 785–895","rent_source":"hoas.fi 2026-06"},"geometry":{"type":"Point","coordinates":[24.809125,60.184609]}},{"type":"Feature","properties":{"address":"Karstulantie 8","min_rent":303,"max_rent":1108,"url":"https://hoas.fi/en/housing/karstulantie-8/","condition":null,"year_built":1987,"year_renovated":[2009],"rent_breakdown":"单身 652–706｜两室 653–939","rent_source":"hoas.fi 2026-06"},"geometry":{"type":"Point","coordinates":[24.951503,60.198736]}},{"type":"Feature","properties":{"address":"Kasperinkuja 13","min_rent":502,"max_rent":605,"url":"https://hoas.fi/en/housing/kasperinkuja-13/","condition":null,"year_built":1995,"year_renovated":[2018],"rent_breakdown":"两室 502–605","rent_source":"hoas.fi 2026-06"},"geometry":{"type":"Point","coordinates":[25.041393,60.170663]}},{"type":"Feature","properties":{"address":"Katajanokanranta 21","min_rent":946,"max_rent":1283,"url":"https://hoas.fi/en/housing/katajanokanranta-21/","condition":"Excellent","year_built":1982,"year_renovated":[2003,2021],"rent_breakdown":"三室 283","rent_source":"hoas.fi 2026-06"},"geometry":{"type":"Point","coordinates":[24.975652,60.168518]}},{"type":"Feature","properties":{"address":"Kettutie 19","min_rent":582,"max_rent":975,"url":"https://hoas.fi/en/housing/kettutie-19/","condition":"Excellent","year_built":2020,"year_renovated":null,"rent_breakdown":"单身 582–879｜两室 828–975","rent_source":"hoas.fi 2026-06"},"geometry":{"type":"Point","coordinates":[25.040007,60.207019]}},{"type":"Feature","properties":{"address":"Kilonkallio 10","min_rent":364,"max_rent":730,"url":"https://hoas.fi/en/housing/kilonkallio-10/","condition":null,"year_built":1976,"year_renovated":[1987,1997,1998],"rent_breakdown":"单身 422–423｜两室 494–547｜三室 662–730","rent_source":"hoas.fi 2026-06"},"geometry":{"type":"Point","coordinates":[24.780295,60.222287]}},{"type":"Feature","properties":{"address":"Kilonportti 1","min_rent":643,"max_rent":956,"url":"https://hoas.fi/en/housing/kilonportti-1/","condition":"Excellent","year_built":1999,"year_renovated":[2021],"rent_breakdown":"两室 643–915｜三室 935–956","rent_source":"hoas.fi 2026-06"},"geometry":{"type":"Point","coordinates":[24.783594,60.219215]}},{"type":"Feature","properties":{"address":"Kilonrinne 10","min_rent":208,"max_rent":702,"url":"https://hoas.fi/en/housing/kilonrinne-10/","condition":null,"year_built":1975,"year_renovated":[2000],"rent_breakdown":"单身 422–423｜两室 470–493｜三室 586–702","rent_source":"hoas.fi 2026-06"},"geometry":{"type":"Point","coordinates":[24.777811,60.220613]}},{"type":"Feature","properties":{"address":"Kilpolantie 16","min_rent":308,"max_rent":927,"url":"https://hoas.fi/en/housing/kilpolantie-16/","condition":null,"year_built":1989,"year_renovated":[2003,2014],"rent_breakdown":"两室 683–702｜三室 855–927","rent_source":"hoas.fi 2026-06"},"geometry":{"type":"Point","coordinates":[25.088636,60.240041]}},{"type":"Feature","properties":{"address":"Kimpitie 10","min_rent":460,"max_rent":893,"url":"https://hoas.fi/en/housing/kimpitie-10/","condition":null,"year_built":1986,"year_renovated":[2011],"rent_breakdown":"单身 460｜两室 719–739｜三室 893","rent_source":"hoas.fi 2026-06"},"geometry":{"type":"Point","coordinates":[24.889099,60.250181]}},{"type":"Feature","properties":{"address":"Kitarakuja 1","min_rent":258,"max_rent":793,"url":"https://hoas.fi/en/housing/kitarakuja-1/","condition":"Excellent","year_built":1978,"year_renovated":[2000,2019],"rent_breakdown":"单身 587–599｜两室 793","rent_source":"hoas.fi 2026-06"},"geometry":{"type":"Point","coordinates":[24.877067,60.238123]}},{"type":"Feature","properties":{"address":"Kitarakuja 3","min_rent":219,"max_rent":793,"url":"https://hoas.fi/en/housing/kitarakuja-3/","condition":"Good","year_built":1977,"year_renovated":[2001,2019],"rent_breakdown":"单身 457–599｜两室 684–793","rent_source":"hoas.fi 2026-06"},"geometry":{"type":"Point","coordinates":[24.877633,60.238748]}},{"type":"Feature","properties":{"address":"Klaneettitie 1","min_rent":276,"max_rent":849,"url":"https://hoas.fi/en/housing/klaneettitie-1/","condition":"Good","year_built":1974,"year_renovated":[1995,2014,2015],"rent_breakdown":"单身 416–482｜两室 594–602｜三室 848–849","rent_source":"hoas.fi 2026-06"},"geometry":{"type":"Point","coordinates":[24.878285,60.237373]}},{"type":"Feature","properties":{"address":"Kurkisuontie 12","min_rent":328,"max_rent":913,"url":"https://hoas.fi/en/housing/kurkisuontie-12/","condition":null,"year_built":1984,"year_renovated":[2008,2009],"rent_breakdown":"两室 570–658｜三室 838–913","rent_source":"hoas.fi 2026-06"},"geometry":{"type":"Point","coordinates":[25.072101,60.233029]}},{"type":"Feature","properties":{"address":"Kurkisuontie 9","min_rent":300,"max_rent":1064,"url":"https://hoas.fi/en/housing/kurkisuontie-9/","condition":null,"year_built":1991,"year_renovated":[2017],"rent_breakdown":"两室 686–744","rent_source":"hoas.fi 2026-06"},"geometry":{"type":"Point","coordinates":[25.063923,60.232976]}},{"type":"Feature","properties":{"address":"Kylänevantie 16","min_rent":292,"max_rent":984,"url":"https://hoas.fi/en/housing/kylanevantie-16/","condition":null,"year_built":1969,"year_renovated":[2009,2010],"rent_breakdown":"单身 583–619｜两室 555–633｜三室 969–984","rent_source":"hoas.fi 2026-06"},"geometry":{"type":"Point","coordinates":[24.89284,60.213055]}},{"type":"Feature","properties":{"address":"Kylmäojantie 4","min_rent":298,"max_rent":798,"url":"https://hoas.fi/en/housing/kylmaojantie-4/","condition":null,"year_built":1990,"year_renovated":[2017],"rent_breakdown":"单身 476–511｜两室 556–654｜三室 775–798","rent_source":"hoas.fi 2026-06"},"geometry":{"type":"Point","coordinates":[25.014859,60.321409]}},{"type":"Feature","properties":{"address":"Kyyhkysmäki 2","min_rent":641,"max_rent":881,"url":"https://hoas.fi/en/housing/kyyhkysmaki-2/","condition":"Good","year_built":1994,"year_renovated":[2017],"rent_breakdown":"单身 641–665｜两室 835–846｜三室 881","rent_source":"hoas.fi 2026-06"},"geometry":{"type":"Point","coordinates":[24.813314,60.228255]}},{"type":"Feature","properties":{"address":"Kyyhkysmäki 3","min_rent":734,"max_rent":882,"url":"https://hoas.fi/en/housing/kyyhkysmaki-3/","condition":"Good","year_built":1990,"year_renovated":[2017],"rent_breakdown":"两室 734–822｜三室 882","rent_source":"hoas.fi 2026-06"},"geometry":{"type":"Point","coordinates":[24.811911,60.229056]}},{"type":"Feature","properties":{"address":"Leppäsuonkatu 7","min_rent":692,"max_rent":1480,"url":"https://hoas.fi/en/housing/leppasuonkatu-7/","condition":"Excellent","year_built":1947,"year_renovated":[1998,2026],"rent_breakdown":"单身 159｜两室 403｜三室 480","rent_source":"hoas.fi 2026-06"},"geometry":{"type":"Point","coordinates":[24.923692,60.169371]}},{"type":"Feature","properties":{"address":"Leppäsuonkatu 9b","min_rent":473,"max_rent":957,"url":"https://hoas.fi/en/housing/leppasuonkatu-9/","condition":null,"year_built":1947,"year_renovated":[1999],"rent_breakdown":"单身 584–806｜两室 785–957","rent_source":"hoas.fi 2026-06"},"geometry":{"type":"Point","coordinates":[24.922843,60.169413]}},{"type":"Feature","properties":{"address":"Linnankuja 2","min_rent":631,"max_rent":1040,"url":"https://hoas.fi/en/housing/linnankuja-2/","condition":null,"year_built":null,"year_renovated":[2000],"rent_breakdown":"单身 666–994","rent_source":"hoas.fi 2026-06"},"geometry":{"type":"Point","coordinates":[24.970163,60.166035]}},{"type":"Feature","properties":{"address":"Linnoituksentie 10","min_rent":287,"max_rent":1064,"url":"https://hoas.fi/en/housing/linnoituksentie-10/","condition":null,"year_built":1993,"year_renovated":[2018],"rent_breakdown":"单身 680｜两室 586–710","rent_source":"hoas.fi 2026-06"},"geometry":{"type":"Point","coordinates":[25.072589,60.241985]}},{"type":"Feature","properties":{"address":"Lohkopellontie 1","min_rent":282,"max_rent":713,"url":"https://hoas.fi/en/housing/lohkopellontie-1/","condition":null,"year_built":1976,"year_renovated":[2004],"rent_breakdown":"两室 709–713","rent_source":"hoas.fi 2026-06"},"geometry":{"type":"Point","coordinates":[24.96624,60.224311]}},{"type":"Feature","properties":{"address":"Maakaari 1","min_rent":498,"max_rent":1098,"url":"https://hoas.fi/en/housing/maakaari-1/","condition":null,"year_built":1993,"year_renovated":[2023],"rent_breakdown":"单身 498–512｜两室 869–885","rent_source":"hoas.fi 2026-06"},"geometry":{"type":"Point","coordinates":[25.024643,60.229909]}},{"type":"Feature","properties":{"address":"Maakaari 6","min_rent":351,"max_rent":1028,"url":"https://hoas.fi/en/housing/maakaari-6/","condition":null,"year_built":1993,"year_renovated":[2017],"rent_breakdown":"两室 794–861","rent_source":"hoas.fi 2026-06"},"geometry":{"type":"Point","coordinates":[25.026148,60.229969]}},{"type":"Feature","properties":{"address":"Majurinkulma 2","min_rent":745,"max_rent":887,"url":"https://hoas.fi/en/housing/majurinkulma-2/","condition":"Excellent","year_built":2002,"year_renovated":[2024],"rent_breakdown":"两室 745–887｜三室 854","rent_source":"hoas.fi 2026-06"},"geometry":{"type":"Point","coordinates":[24.824593,60.211192]}},{"type":"Feature","properties":{"address":"Metsälinnunreitti 2","min_rent":222,"max_rent":938,"url":"https://hoas.fi/en/housing/metsalinnunreitti-2/","condition":null,"year_built":1976,"year_renovated":[1987,1990,1998],"rent_breakdown":"两室 448–490｜三室 754–938","rent_source":"hoas.fi 2026-06"},"geometry":{"type":"Point","coordinates":[24.820295,60.236934]}},{"type":"Feature","properties":{"address":"Miestentie 2","min_rent":452,"max_rent":866,"url":"https://hoas.fi/en/housing/miestentie-2/","condition":"Good","year_built":2019,"year_renovated":null,"rent_breakdown":"单身 604–805｜两室 752–866","rent_source":"hoas.fi 2026-06"},"geometry":{"type":"Point","coordinates":[24.826924,60.179509]}},{"type":"Feature","properties":{"address":"Muusantori 5","min_rent":299,"max_rent":964,"url":"https://hoas.fi/en/housing/muusantori-5/","condition":"Excellent","year_built":1993,"year_renovated":[2021],"rent_breakdown":"单身 614–628｜两室 569–808｜三室 932–964","rent_source":"hoas.fi 2026-06"},"geometry":{"type":"Point","coordinates":[24.855167,60.206956]}},{"type":"Feature","properties":{"address":"Myllymatkantie 7","min_rent":605,"max_rent":806,"url":"https://hoas.fi/en/housing/myllymatkantie-7/","condition":null,"year_built":2022,"year_renovated":null,"rent_breakdown":"单身 605–641｜两室 756–806","rent_source":"hoas.fi 2026-06"},"geometry":{"type":"Point","coordinates":[25.062747,60.224979]}},{"type":"Feature","properties":{"address":"Myrttitie 2","min_rent":601,"max_rent":1064,"url":"https://hoas.fi/en/housing/myrttitie-2/","condition":"Good","year_built":1992,"year_renovated":[2016],"rent_breakdown":"两室 601–836","rent_source":"hoas.fi 2026-06"},"geometry":{"type":"Point","coordinates":[24.996052,60.244299]}},{"type":"Feature","properties":{"address":"Opastinsilta 2","min_rent":354,"max_rent":879,"url":"https://hoas.fi/en/housing/opastinsilta-2/","condition":null,"year_built":1977,"year_renovated":[2005],"rent_breakdown":"两室 725–879｜三室 818–821","rent_source":"hoas.fi 2026-06"},"geometry":{"type":"Point","coordinates":[24.942959,60.199711]}},{"type":"Feature","properties":{"address":"Pallaksentie 4","min_rent":314,"max_rent":1125,"url":"https://hoas.fi/en/housing/pallaksentie-4/","condition":null,"year_built":1989,"year_renovated":[2011],"rent_breakdown":"两室 701–752","rent_source":"hoas.fi 2026-06"},"geometry":{"type":"Point","coordinates":[25.110219,60.238645]}},{"type":"Feature","properties":{"address":"Paraistentie 18","min_rent":639,"max_rent":1150,"url":"https://hoas.fi/en/housing/paraistentie-18/","condition":"Excellent","year_built":1985,"year_renovated":[2006,2025],"rent_breakdown":"单身 639–675｜两室 815–895｜三室 150","rent_source":"hoas.fi 2026-06"},"geometry":{"type":"Point","coordinates":[24.903512,60.203557]}},{"type":"Feature","properties":{"address":"Paraistentie 19","min_rent":611,"max_rent":1024,"url":"https://hoas.fi/en/housing/paraistentie-19/","condition":null,"year_built":1970,"year_renovated":[1997,2021],"rent_breakdown":"单身 611–820｜两室 662–983","rent_source":"hoas.fi 2026-06"},"geometry":{"type":"Point","coordinates":[24.903804,60.204019]}},{"type":"Feature","properties":{"address":"Pasilanraitio 10","min_rent":381,"max_rent":857,"url":"https://hoas.fi/en/housing/pasilanraitio-10/","condition":null,"year_built":1987,"year_renovated":[2008],"rent_breakdown":"两室 857","rent_source":"hoas.fi 2026-06"},"geometry":{"type":"Point","coordinates":[24.92527,60.200461]}},{"type":"Feature","properties":{"address":"Pasilanraitio 6","min_rent":311,"max_rent":1055,"url":"https://hoas.fi/en/housing/pasilanraitio-6/","condition":null,"year_built":1981,"year_renovated":[2003,2020],"rent_breakdown":"单身 499–672｜两室 761–772","rent_source":"hoas.fi 2026-06"},"geometry":{"type":"Point","coordinates":[24.926221,60.196976]}},{"type":"Feature","properties":{"address":"Pasteurinkatu 1","min_rent":411,"max_rent":1093,"url":"https://hoas.fi/en/housing/pasteurinkatu-1/","condition":null,"year_built":2010,"year_renovated":null,"rent_breakdown":"单身 618–697｜两室 803–984","rent_source":"hoas.fi 2026-06"},"geometry":{"type":"Point","coordinates":[25.014923,60.22472]}},{"type":"Feature","properties":{"address":"Pekankatu 5","min_rent":279,"max_rent":1179,"url":"https://hoas.fi/en/housing/pekankatu-5/","condition":null,"year_built":1986,"year_renovated":[1999,2009],"rent_breakdown":"单身 416–473｜两室 556–620｜三室 179","rent_source":"hoas.fi 2026-06"},"geometry":{"type":"Point","coordinates":[25.013835,60.250959]}},{"type":"Feature","properties":{"address":"Peltokyläntie 3","min_rent":235,"max_rent":816,"url":"https://hoas.fi/en/housing/peltokylantie-3/","condition":null,"year_built":1983,"year_renovated":[1999,2004],"rent_breakdown":"两室 593–718｜三室 698–816","rent_source":"hoas.fi 2026-06"},"geometry":{"type":"Point","coordinates":[24.983414,60.267233]}},{"type":"Feature","properties":{"address":"Peltomyyränkuja 2","min_rent":263,"max_rent":848,"url":"https://hoas.fi/en/housing/peltomyyrankuja-2/","condition":null,"year_built":1987,"year_renovated":[2010],"rent_breakdown":"两室 661–671｜三室 733–848","rent_source":"hoas.fi 2026-06"},"geometry":{"type":"Point","coordinates":[25.081174,60.352443]}},{"type":"Feature","properties":{"address":"Pietari Kalmin katu 1","min_rent":445,"max_rent":976,"url":"https://hoas.fi/en/housing/pietari-kalmin-katu-1/","condition":"Excellent","year_built":2018,"year_renovated":null,"rent_breakdown":"单身 684–951｜两室 825–976","rent_source":"hoas.fi 2026-06"},"geometry":{"type":"Point","coordinates":[24.965257,60.205406]}},{"type":"Feature","properties":{"address":"Pitäjänmäentie 13","min_rent":342,"max_rent":956,"url":"https://hoas.fi/en/housing/pitajanmaentie-13/","condition":"Good","year_built":1993,"year_renovated":null,"rent_breakdown":"两室 792–876｜三室 763–956","rent_source":"hoas.fi 2026-06"},"geometry":{"type":"Point","coordinates":[24.862172,60.223925]}},{"type":"Feature","properties":{"address":"Pohjoinen Rautatiekatu 29","min_rent":700,"max_rent":1437,"url":"https://hoas.fi/en/housing/pohjoinen-rautatiekatu-29/","condition":"Excellent","year_built":2000,"year_renovated":[2019],"rent_breakdown":"两室 437","rent_source":"hoas.fi 2026-06"},"geometry":{"type":"Point","coordinates":[24.924214,60.168835]}},{"type":"Feature","properties":{"address":"Pronssitie 4","min_rent":379,"max_rent":1093,"url":"https://hoas.fi/en/housing/pronssitie-4/","condition":null,"year_built":1977,"year_renovated":[1997,2016],"rent_breakdown":"两室 632–813","rent_source":"hoas.fi 2026-06"},"geometry":{"type":"Point","coordinates":[24.88362,60.231259]}},{"type":"Feature","properties":{"address":"Raappavuorentie 3","min_rent":429,"max_rent":856,"url":"https://hoas.fi/en/housing/raappavuorentie-3/","condition":"Excellent","year_built":2018,"year_renovated":null,"rent_breakdown":"单身 597–707｜两室 820–856","rent_source":"hoas.fi 2026-06"},"geometry":{"type":"Point","coordinates":[24.843912,60.259628]}},{"type":"Feature","properties":{"address":"Rälssintie 16","min_rent":299,"max_rent":1113,"url":"https://hoas.fi/en/housing/ralssintie-16/","condition":null,"year_built":1989,"year_renovated":[2013],"rent_breakdown":"两室 715–763","rent_source":"hoas.fi 2026-06"},"geometry":{"type":"Point","coordinates":[24.990023,60.241178]}},{"type":"Feature","properties":{"address":"Rasinkatu 13, 15","min_rent":339,"max_rent":683,"url":"https://hoas.fi/en/housing/rasinkatu-13-15/","condition":null,"year_built":1974,"year_renovated":[1996],"rent_breakdown":"两室 477–569｜三室 616–683","rent_source":"hoas.fi 2026-06"},"geometry":{"type":"Point","coordinates":[25.065946,60.323532]}},{"type":"Feature","properties":{"address":"Rasinkatu 20","min_rent":232,"max_rent":767,"url":"https://hoas.fi/en/housing/rasinkatu-20/","condition":null,"year_built":1978,"year_renovated":[1995,2002],"rent_breakdown":"单身 470–487｜两室 448–626｜三室 564–767","rent_source":"hoas.fi 2026-06"},"geometry":{"type":"Point","coordinates":[25.066166,60.324542]}},{"type":"Feature","properties":{"address":"Rasinkatu 4, 7, 10","min_rent":248,"max_rent":875,"url":"https://hoas.fi/en/housing/rasinkatu-4-7-10/","condition":null,"year_built":1973,"year_renovated":[1981,1996,2002],"rent_breakdown":"两室 489–507｜三室 594–875","rent_source":"hoas.fi 2026-06"},"geometry":{"type":"Point","coordinates":[25.064452,60.32228]}},{"type":"Feature","properties":{"address":"Rekipellontie 15","min_rent":null,"max_rent":null,"url":"https://hoas.fi/en/housing/rekipellontie-15/","condition":null,"year_built":1992,"year_renovated":null},"geometry":{"type":"Point","coordinates":[25.092464,60.23889]}},{"type":"Feature","properties":{"address":"Retkeilijänkatu 11","min_rent":534,"max_rent":876,"url":"https://hoas.fi/en/housing/retkeilijankatu-11/","condition":null,"year_built":2020,"year_renovated":null,"rent_breakdown":"单身 534–876","rent_source":"hoas.fi 2026-06"},"geometry":{"type":"Point","coordinates":[25.125056,60.20513]}},{"type":"Feature","properties":{"address":"Rörstrandinkatu 3","min_rent":649,"max_rent":1046,"url":"https://hoas.fi/en/housing/rorstrandinkatu-3/","condition":null,"year_built":2002,"year_renovated":[2024],"rent_breakdown":"单身 649–741","rent_source":"hoas.fi 2026-06"},"geometry":{"type":"Point","coordinates":[24.978066,60.205866]}},{"type":"Feature","properties":{"address":"Satomäentie 1","min_rent":334,"max_rent":664,"url":"https://hoas.fi/en/housing/satomaentie-1/","condition":null,"year_built":1978,"year_renovated":[1995,1999,2000],"rent_breakdown":"两室 430–473｜三室 602–664","rent_source":"hoas.fi 2026-06"},"geometry":{"type":"Point","coordinates":[25.064426,60.299923]}},{"type":"Feature","properties":{"address":"Seljapolku 7","min_rent":618,"max_rent":819,"url":"https://hoas.fi/en/housing/seljapolku-7/","condition":null,"year_built":1985,"year_renovated":[2006],"rent_breakdown":"两室 618–622｜三室 778–819","rent_source":"hoas.fi 2026-06"},"geometry":{"type":"Point","coordinates":[25.055174,60.321584]}},{"type":"Feature","properties":{"address":"Santakuja 3, Selkämerenkatu 6","min_rent":442,"max_rent":1011,"url":"https://hoas.fi/en/housing/selkamerenkatu-6-santakuja-3/","condition":null,"year_built":1993,"year_renovated":null},"geometry":{"type":"Point","coordinates":[24.916996,60.162329]}},{"type":"Feature","properties":{"address":"Serkustentie 1, Sisarustentie 2","min_rent":697,"max_rent":921,"url":"https://hoas.fi/en/housing/serkustentie-1-sisarustentie-2/","condition":null,"year_built":1987,"year_renovated":[1997,2012],"rent_breakdown":"两室 697–741｜三室 802–921","rent_source":"hoas.fi 2026-06"},"geometry":{"type":"Point","coordinates":[24.898295,60.254393]}},{"type":"Feature","properties":{"address":"Servin Maijan Tie 3","min_rent":364,"max_rent":1024,"url":"https://hoas.fi/en/housing/servin-maijan-tie-3/","condition":"Good","year_built":1988,"year_renovated":[2013]},"geometry":{"type":"Point","coordinates":[24.835884,60.18949]}},{"type":"Feature","properties":{"address":"Servinkuja 5","min_rent":401,"max_rent":799,"url":"https://hoas.fi/en/housing/servinkuja-5/","condition":null,"year_built":2002,"year_renovated":null,"rent_breakdown":"单身 581–657｜两室 799","rent_source":"hoas.fi 2026-06"},"geometry":{"type":"Point","coordinates":[24.833388,60.191144]}},{"type":"Feature","properties":{"address":"Servinkuja 6","min_rent":342,"max_rent":845,"url":"https://hoas.fi/en/housing/servinkuja-6/","condition":null,"year_built":1970,"year_renovated":[2008],"rent_breakdown":"单身 544–567｜两室 693–709｜三室 839–845","rent_source":"hoas.fi 2026-06"},"geometry":{"type":"Point","coordinates":[24.832778,60.190713]}},{"type":"Feature","properties":{"address":"Siamintie 3","min_rent":815,"max_rent":1089,"url":"https://hoas.fi/en/housing/siamintie-3/","condition":null,"year_built":1999,"year_renovated":null,"rent_breakdown":"单身 815–833","rent_source":"hoas.fi 2026-06"},"geometry":{"type":"Point","coordinates":[24.971749,60.209977]}},{"type":"Feature","properties":{"address":"Silmupolku 1","min_rent":701,"max_rent":973,"url":"https://hoas.fi/en/housing/silmupolku-1/","condition":"Excellent","year_built":1998,"year_renovated":[2025],"rent_breakdown":"两室 701–758｜三室 968–973","rent_source":"hoas.fi 2026-06"},"geometry":{"type":"Point","coordinates":[24.867262,60.21776]}},{"type":"Feature","properties":{"address":"Siltakylänkuja 1, Siltakylänkuja 3, Siltapellonkuja 2","min_rent":267,"max_rent":771,"url":"https://hoas.fi/en/housing/siltakylankuja-1-3-siltapellonkuja-2/","condition":null,"year_built":1981,"year_renovated":[1999,2002,2015],"rent_breakdown":"两室 652–736｜三室 771","rent_source":"hoas.fi 2026-06"},"geometry":{"type":"Point","coordinates":[24.984278,60.269534]}},{"type":"Feature","properties":{"address":"Tähkäkuja 5","min_rent":343,"max_rent":692,"url":"https://hoas.fi/en/housing/tahkakuja-5/","condition":null,"year_built":1976,"year_renovated":[1995,2007],"rent_breakdown":"两室 504｜三室 692","rent_source":"hoas.fi 2026-06"},"geometry":{"type":"Point","coordinates":[25.063517,60.299838]}},{"type":"Feature","properties":{"address":"Talonpojantie 10","min_rent":478,"max_rent":959,"url":"https://hoas.fi/en/housing/talonpojantie-10/","condition":null,"year_built":2018,"year_renovated":null,"rent_breakdown":"单身 655–784｜两室 959","rent_source":"hoas.fi 2026-06"},"geometry":{"type":"Point","coordinates":[25.025673,60.228726]}},{"type":"Feature","properties":{"address":"Talonpojantie 5","min_rent":272,"max_rent":756,"url":"https://hoas.fi/en/housing/talonpojantie-5/","condition":null,"year_built":1975,"year_renovated":[1992,2013],"rent_breakdown":"两室 729–756","rent_source":"hoas.fi 2026-06"},"geometry":{"type":"Point","coordinates":[25.023023,60.229521]}},{"type":"Feature","properties":{"address":"Tilanhoitajankaari 11","min_rent":552,"max_rent":950,"url":"https://hoas.fi/en/housing/tilanhoitajankaari-11/","condition":null,"year_built":2000,"year_renovated":null,"rent_breakdown":"单身 552–621｜两室 795–895｜三室 950","rent_source":"hoas.fi 2026-06"},"geometry":{"type":"Point","coordinates":[25.028946,60.230014]}},{"type":"Feature","properties":{"address":"Tilanhoitajankaari 6","min_rent":562,"max_rent":988,"url":"https://hoas.fi/en/housing/tilanhoitajankaari-6/","condition":null,"year_built":2004,"year_renovated":null,"rent_breakdown":"单身 562–592｜两室 593–893｜三室 933–988","rent_source":"hoas.fi 2026-06"},"geometry":{"type":"Point","coordinates":[25.032104,60.232208]}},{"type":"Feature","properties":{"address":"Timpurinkuja 1","min_rent":325,"max_rent":1045,"url":"https://hoas.fi/en/housing/timpurinkuja-1/","condition":"Good","year_built":1986,"year_renovated":[2012],"rent_breakdown":"单身 568｜两室 740–868","rent_source":"hoas.fi 2026-06"},"geometry":{"type":"Point","coordinates":[24.814151,60.222858]}},{"type":"Feature","properties":{"address":"Tukkitie 18","min_rent":655,"max_rent":865,"url":"https://hoas.fi/en/housing/tukkitie-18/","condition":null,"rent_breakdown":"两室 655｜三室 853–865","rent_source":"hoas.fi 2026-06"},"geometry":{"type":"Point","coordinates":[25.073296,60.271977]}},{"type":"Feature","properties":{"address":"Työpajankatu 4","min_rent":683,"max_rent":978,"url":"https://hoas.fi/en/housing/tyopajankatu-4/","condition":"Excellent","year_built":2022,"year_renovated":null,"rent_breakdown":"单身 683–762｜两室 956–978","rent_source":"hoas.fi 2026-06"},"geometry":{"type":"Point","coordinates":[24.97467,60.188961]}},{"type":"Feature","properties":{"address":"Väinö Auerin Katu 1, 3","min_rent":331,"max_rent":967,"url":"https://hoas.fi/en/housing/vaino-auerin-katu-1-3/","condition":null,"rent_breakdown":"单身 449–619｜两室 731–750｜三室 966–967","rent_source":"hoas.fi 2026-06"},"geometry":{"type":"Point","coordinates":[24.96665,60.209181]}},{"type":"Feature","properties":{"address":"Väinö Auerin Katu 13","min_rent":594,"max_rent":966,"url":"https://hoas.fi/en/housing/vaino-auerin-katu-13/","condition":null,"rent_breakdown":"单身 594–720｜两室 655–933｜三室 950–966","rent_source":"hoas.fi 2026-06"},"geometry":{"type":"Point","coordinates":[24.960997,60.205227]}},{"type":"Feature","properties":{"address":"Välimerenkatu 5","min_rent":458,"max_rent":1331,"url":"https://hoas.fi/en/housing/valimerenkatu-5/","condition":"Good","rent_breakdown":"单身 618–817｜两室 172｜三室 331","rent_source":"hoas.fi 2026-06"},"geometry":{"type":"Point","coordinates":[24.918948,60.160244]}},{"type":"Feature","properties":{"address":"Vanha talvitie 23","min_rent":684,"max_rent":1213,"url":"https://hoas.fi/en/housing/vanhatalvitie-23/","condition":"Excellent","year_built":2024,"year_renovated":null,"rent_breakdown":"单身 684–870｜三室 213","rent_source":"hoas.fi 2026-06"},"geometry":{"type":"Point","coordinates":[24.97925,60.192358]}},{"type":"Feature","properties":{"address":"Vaskivuorentie 22","min_rent":294,"max_rent":907,"url":"https://hoas.fi/en/housing/vaskivuorentie-22/","condition":null,"year_built":1980,"year_renovated":[1999],"rent_breakdown":"两室 629｜三室 907","rent_source":"hoas.fi 2026-06"},"geometry":{"type":"Point","coordinates":[24.846269,60.263225]}},{"type":"Feature","properties":{"address":"Vehkapolku 10","min_rent":566,"max_rent":930,"url":"https://hoas.fi/en/housing/vehkapolku-10/","condition":null,"rent_breakdown":"单身 566–700｜两室 810–840｜三室 888–930","rent_source":"hoas.fi 2026-06"},"geometry":{"type":"Point","coordinates":[25.040128,60.292277]}},{"type":"Feature","properties":{"address":"Viljelijäntie 4-6","min_rent":308,"max_rent":619,"url":"https://hoas.fi/en/housing/viljelijantie-4-6/","condition":"Good","rent_breakdown":"单身 477｜两室 619｜三室 603–619","rent_source":"hoas.fi 2026-06"},"geometry":{"type":"Point","coordinates":[24.85665,60.24334]}},{"type":"Feature","properties":{"address":"Viljo Sohkasen Katu 3","min_rent":275,"max_rent":872,"url":"https://hoas.fi/en/housing/viljo-sohkasen-katu-3/","condition":null,"rent_breakdown":"两室 584｜三室 781–872","rent_source":"hoas.fi 2026-06"},"geometry":{"type":"Point","coordinates":[25.051169,60.297745]}},{"type":"Feature","properties":{"address":"Von Daehnin Katu 14","min_rent":311,"max_rent":1138,"url":"https://hoas.fi/en/housing/von-daehnin-katu-14/","condition":null,"year_built":2009,"year_renovated":null,"rent_breakdown":"单身 648–697","rent_source":"hoas.fi 2026-06"},"geometry":{"type":"Point","coordinates":[25.043674,60.230615]}},{"type":"Feature","properties":{"address":"Yläkiventie 4","min_rent":604,"max_rent":844,"url":"https://hoas.fi/en/housing/ylakiventie-4/","condition":"Excellent","rent_breakdown":"单身 604–626｜两室 813–844","rent_source":"hoas.fi 2026-06"},"geometry":{"type":"Point","coordinates":[25.073718,60.222377]}},{"type":"Feature","properties":{"address":"Yläkiventie 7","min_rent":605,"max_rent":835,"url":"https://hoas.fi/en/housing/ylakiventie-7/","condition":"Excellent","rent_breakdown":"单身 605–627｜两室 812–835","rent_source":"hoas.fi 2026-06"},"geometry":{"type":"Point","coordinates":[25.072498,60.222351]}},{"type":"Feature","properties":{"address":"Yläkiventie 9","min_rent":592,"max_rent":802,"url":"https://hoas.fi/en/housing/ylakiventie-9/","condition":"Excellent","rent_breakdown":"单身 592–640｜两室 780–802","rent_source":"hoas.fi 2026-06"},"geometry":{"type":"Point","coordinates":[25.070501,60.221983]}}]}