{"type": "FeatureCollection", "features": [{"type": "Feature", "properties": {"zone": "A", "source": "HSL maksuvyöhykkeet (open data)"}, "geometry": {"type": "Polygon", "coordinates": [[[24.84848, 60.20799], [24.87043, 60.21129], [24.87953, 60.20939], [24.881, 60.20985], [24.88157, 60.21089], [24.88216, 60.21098], [24.8834, 60.21147], [24.88429, 60.2115], [24.88539, 60.21135], [24.88654, 60.21123], [24.88746, 60.21144], [24.88827, 60.21165], [24.88854, 60.21229], [24.88889, 60.21242], [24.88858, 60.2127], [24.88896, 60.21477], [24.89145, 60.21637], [24.89282, 60.21703], [24.89396, 60.21774], [24.896, 60.21914], [24.89643, 60.21925], [24.89639, 60.21974], [24.89635, 60.22003], [24.89693, 60.22052], [24.89863, 60.22293], [24.89979, 60.22358], [24.8991, 60.22389], [24.89969, 60.22431], [24.90032, 60.22465], [24.90085, 60.22447], [24.90108, 60.22543], [24.90234, 60.22581], [24.90521, 60.22619], [24.90573, 60.22621], [24.90572, 60.22634], [24.90935, 60.22699], [24.91574, 60.22692], [24.92292, 60.22396], [24.93148, 60.22361], [24.93371, 60.22525], [24.94376, 60.22908], [24.95062, 60.23049], [24.95104, 60.23016], [24.95257, 60.23057], [24.95327, 60.23046], [24.95352, 60.2302], [24.95607, 60.23088], [24.9569, 60.23063], [24.95985, 60.22927], [24.96362, 60.22678], [24.96312, 60.22325], [24.96748, 60.22273], [24.9681, 60.22314], [24.97089, 60.22235], [24.97409, 60.21919], [24.97611, 60.21894], [24.97937, 60.2187], [24.9803, 60.21765], [24.98232, 60.21695], [24.98349, 60.21669], [24.98497, 60.21562], [24.98373, 60.21453], [24.98472, 60.21287], [24.98584, 60.20809], [24.98805, 60.20307], [24.99686, 60.19529], [25.01581, 60.19087], [25.02162, 60.18645], [25.02098, 60.17844], [24.99941, 60.16852], [24.99365, 60.15987], [25.00237, 60.15328], [25.02602, 60.13848], [25.02861, 60.13318], [24.97489, 60.12472], [24.92174, 60.12347], [24.83567, 60.13041], [24.83683, 60.13652], [24.83802, 60.14284], [24.83827, 60.14416], [24.83914, 60.14867], [24.83938, 60.14996], [24.83944, 60.15026], [24.84086, 60.15107], [24.84092, 60.15519], [24.84094, 60.15703], [24.84134, 60.15801], [24.84175, 60.15902], [24.84318, 60.16258], [24.84428, 60.16525], [24.84435, 60.16542], [24.84441, 60.16559], [24.84441, 60.16572], [24.84439, 60.16602], [24.84424, 60.17051], [24.84417, 60.17232], [24.84417, 60.17254], [24.84415, 60.17314], [24.84414, 60.17325], [24.84414, 60.17328], [24.84412, 60.17357], [24.84372, 60.17943], [24.84365, 60.18079], [24.84364, 60.18102], [24.84339, 60.18543], [24.84283, 60.19513], [24.8428, 60.19576], [24.84293, 60.19602], [24.84311, 60.19637], [24.84397, 60.19805], [24.84456, 60.19922], [24.84594, 60.20192], [24.84623, 60.20248], [24.84643, 60.20288], [24.84648, 60.20297], [24.84687, 60.20374], [24.84684, 60.204], [24.84684, 60.20405], [24.8468, 60.20445], [24.84848, 60.20799]]]}}, {"type": "Feature", "properties": {"zone": "B", "source": "HSL maksuvyöhykkeet (open data)"}, "geometry": {"type": "Polygon", "coordinates": [[[25.14705, 60.24547], [25.15985, 60.23805], [25.16277, 60.23278], [25.16706, 60.23175], [25.18193, 60.22883], [25.20313, 60.22456], [25.20219, 60.22106], [25.20142, 60.21821], [25.20464, 60.21508], [25.20923, 60.21062], [25.2204, 60.19974], [25.21954, 60.19798], [25.19806, 60.1545], [25.19422, 60.14666], [25.13436, 60.14015], [25.02861, 60.13318], [25.02602, 60.13848], [25.00237, 60.15328], [24.99365, 60.15987], [24.99941, 60.16852], [25.02098, 60.17844], [25.02162, 60.18645], [25.01581, 60.19087], [24.99686, 60.19529], [24.98805, 60.20307], [24.98584, 60.20809], [24.98472, 60.21287], [24.98373, 60.21453], [24.98497, 60.21562], [24.98349, 60.21669], [24.98232, 60.21695], [24.9803, 60.21765], [24.97937, 60.2187], [24.97611, 60.21894], [24.97409, 60.21919], [24.97089, 60.22235], [24.9681, 60.22314], [24.96749, 60.22275], [24.96312, 60.22325], [24.96362, 60.22678], [24.95985, 60.22927], [24.9569, 60.23063], [24.95607, 60.23088], [24.95352, 60.2302], [24.95327, 60.23046], [24.95257, 60.23057], [24.95104, 60.23016], [24.95062, 60.23049], [24.94376, 60.22908], [24.93371, 60.22525], [24.93148, 60.22361], [24.92292, 60.22396], [24.91574, 60.22692], [24.90935, 60.22699], [24.90572, 60.22634], [24.90573, 60.22621], [24.90521, 60.22619], [24.90234, 60.22581], [24.90108, 60.22543], [24.90085, 60.22447], [24.90032, 60.22465], [24.89969, 60.22431], [24.8991, 60.22389], [24.89979, 60.22358], [24.89863, 60.22293], [24.89693, 60.22052], [24.89635, 60.22003], [24.89639, 60.21974], [24.89643, 60.21925], [24.896, 60.21914], [24.89396, 60.21774], [24.89282, 60.21703], [24.89145, 60.21637], [24.88896, 60.21477], [24.88858, 60.2127], [24.88889, 60.21242], [24.88854, 60.21229], [24.88827, 60.21165], [24.88746, 60.21144], [24.88654, 60.21123], [24.88539, 60.21135], [24.88429, 60.2115], [24.8834, 60.21147], [24.88216, 60.21098], [24.88157, 60.21089], [24.881, 60.20985], [24.87953, 60.20939], [24.87043, 60.21129], [24.84848, 60.20799], [24.8468, 60.20445], [24.84684, 60.20405], [24.84684, 60.204], [24.84687, 60.20374], [24.84648, 60.20297], [24.84643, 60.20288], [24.84623, 60.20248], [24.84594, 60.20192], [24.84456, 60.19922], [24.84397, 60.19805], [24.84311, 60.19637], [24.84293, 60.19602], [24.8428, 60.19576], [24.84283, 60.19513], [24.84339, 60.18543], [24.84364, 60.18102], [24.84365, 60.18079], [24.84372, 60.17943], [24.84412, 60.17357], [24.84414, 60.17328], [24.84414, 60.17325], [24.84415, 60.17314], [24.84417, 60.17254], [24.84417, 60.17232], [24.84424, 60.17051], [24.84439, 60.16602], [24.84441, 60.16572], [24.84441, 60.16559], [24.84435, 60.16542], [24.84428, 60.16525], [24.84318, 60.16258], [24.84175, 60.15902], [24.84134, 60.15801], [24.84094, 60.15703], [24.84092, 60.15519], [24.84086, 60.15107], [24.83944, 60.15026], [24.83938, 60.14996], [24.83914, 60.14867], [24.83827, 60.14416], [24.83802, 60.14284], [24.83683, 60.13652], [24.83567, 60.13041], [24.81576, 60.12476], [24.79811, 60.11736], [24.77685, 60.10967], [24.77083, 60.11505], [24.76663, 60.11835], [24.76363, 60.12157], [24.75588, 60.1273], [24.75146, 60.13099], [24.74715, 60.13588], [24.73475, 60.14261], [24.72939, 60.14676], [24.72503, 60.14937], [24.72361, 60.15173], [24.72193, 60.15488], [24.72087, 60.15582], [24.72, 60.1569], [24.71896, 60.1584], [24.71722, 60.16052], [24.71523, 60.16234], [24.71328, 60.1637], [24.71077, 60.16547], [24.70838, 60.16739], [24.70572, 60.16933], [24.70315, 60.17183], [24.70086, 60.17417], [24.69936, 60.17652], [24.69797, 60.17912], [24.69772, 60.18136], [24.69758, 60.18464], [24.69765, 60.19098], [24.69926, 60.19899], [24.69986, 60.20034], [24.70098, 60.2029], [24.70038, 60.2041], [24.69862, 60.20653], [24.69763, 60.20762], [24.6935, 60.20828], [24.69173, 60.21005], [24.69723, 60.22058], [24.70599, 60.23293], [24.70899, 60.23471], [24.71759, 60.23827], [24.72504, 60.2409], [24.73105, 60.2432], [24.73303, 60.24466], [24.73807, 60.24708], [24.76207, 60.26293], [24.76583, 60.26487], [24.7744, 60.2693], [24.78458, 60.27293], [24.78712, 60.27392], [24.79708, 60.27995], [24.80082, 60.28167], [24.80551, 60.28375], [24.80839, 60.28479], [24.81173, 60.28586], [24.81428, 60.28689], [24.81805, 60.28737], [24.82137, 60.28777], [24.83011, 60.28627], [24.8396, 60.29087], [24.84041, 60.29179], [24.84119, 60.29246], [24.84169, 60.29259], [24.84304, 60.29285], [24.84398, 60.29172], [24.84465, 60.29176], [24.84943, 60.29248], [24.85016, 60.29425], [24.85468, 60.2947], [24.85426, 60.29542], [24.85809, 60.29649], [24.85927, 60.29574], [24.86239, 60.29713], [24.86711, 60.29728], [24.87086, 60.29798], [24.88025, 60.29855], [24.88409, 60.29908], [24.89087, 60.29892], [24.89788, 60.29897], [24.90808, 60.29845], [24.90937, 60.29874], [24.91088, 60.29907], [24.91276, 60.30034], [24.91383, 60.3005], [24.91724, 60.29906], [24.9182, 60.29839], [24.92148, 60.29761], [24.9314, 60.29749], [24.93493, 60.2967], [24.9373, 60.29651], [24.93906, 60.29651], [24.93976, 60.2967], [24.94127, 60.29705], [24.94222, 60.29699], [24.94266, 60.29639], [24.94361, 60.29611], [24.94967, 60.29609], [24.953, 60.29584], [24.95519, 60.2959], [24.95749, 60.29684], [24.95948, 60.29683], [24.95984, 60.29609], [24.96072, 60.29552], [24.96161, 60.29495], [24.96323, 60.29441], [24.96477, 60.29392], [24.96843, 60.29258], [24.97128, 60.29139], [24.97412, 60.29043], [24.97641, 60.28978], [24.97837, 60.28983], [24.97981, 60.29028], [24.98294, 60.29011], [24.98365, 60.2892], [24.98468, 60.28794], [24.98566, 60.28748], [24.98759, 60.28725], [24.9908, 60.28728], [24.9969, 60.28808], [25.00792, 60.287], [25.00829, 60.28746], [25.00844, 60.28763], [25.00849, 60.28767], [25.00857, 60.28771], [25.00866, 60.28774], [25.00876, 60.28777], [25.00884, 60.28779], [25.00897, 60.2878], [25.00953, 60.28783], [25.01045, 60.2878], [25.01056, 60.2878], [25.01071, 60.28778], [25.01084, 60.28775], [25.01093, 60.28772], [25.01101, 60.28769], [25.01107, 60.28766], [25.01154, 60.2874], [25.01159, 60.28738], [25.01165, 60.28736], [25.01173, 60.28734], [25.01181, 60.28733], [25.01188, 60.28733], [25.01194, 60.28733], [25.01209, 60.28735], [25.01221, 60.28737], [25.01233, 60.2874], [25.01244, 60.28744], [25.01252, 60.28746], [25.0136, 60.28787], [25.01376, 60.28798], [25.01393, 60.28813], [25.01404, 60.28822], [25.01456, 60.28854], [25.01475, 60.28862], [25.01512, 60.28874], [25.01553, 60.28884], [25.01581, 60.2889], [25.01626, 60.28897], [25.01654, 60.28898], [25.01722, 60.28896], [25.01754, 60.28894], [25.01789, 60.2889], [25.01812, 60.28887], [25.01834, 60.28886], [25.0185, 60.28887], [25.01865, 60.28889], [25.01879, 60.28892], [25.01905, 60.28902], [25.01924, 60.28909], [25.01951, 60.28917], [25.01973, 60.28922], [25.02058, 60.28931], [25.02091, 60.28932], [25.02122, 60.28929], [25.02141, 60.28926], [25.02169, 60.2892], [25.02197, 60.28911], [25.02253, 60.28888], [25.02276, 60.28877], [25.02303, 60.28862], [25.02327, 60.28846], [25.02346, 60.28831], [25.02365, 60.28819], [25.02386, 60.28809], [25.0241, 60.28801], [25.02423, 60.28797], [25.02441, 60.28792], [25.02474, 60.28786], [25.02577, 60.2877], [25.02598, 60.28766], [25.02614, 60.28763], [25.02642, 60.28754], [25.02658, 60.28748], [25.02671, 60.2874], [25.02686, 60.28729], [25.02691, 60.28719], [25.02696, 60.28707], [25.02709, 60.28685], [25.02711, 60.2868], [25.02714, 60.28673], [25.02719, 60.28658], [25.02722, 60.28653], [25.02729, 60.28644], [25.02732, 60.28639], [25.0274, 60.28633], [25.02754, 60.28631], [25.02765, 60.28628], [25.02806, 60.2861], [25.02838, 60.28598], [25.02859, 60.28589], [25.02869, 60.28587], [25.02879, 60.28583], [25.02889, 60.28578], [25.02903, 60.28572], [25.02915, 60.28568], [25.02963, 60.28557], [25.02984, 60.28552], [25.03023, 60.28547], [25.03037, 60.28545], [25.03106, 60.28543], [25.03123, 60.28542], [25.03136, 60.2854], [25.03148, 60.28537], [25.03167, 60.28529], [25.03192, 60.28524], [25.03214, 60.28516], [25.03224, 60.28511], [25.03246, 60.28503], [25.03258, 60.285], [25.03284, 60.28496], [25.03313, 60.28496], [25.03331, 60.28496], [25.03356, 60.28498], [25.03381, 60.28504], [25.034, 60.2851], [25.03419, 60.28517], [25.0343, 60.28522], [25.03443, 60.2853], [25.03449, 60.28536], [25.03454, 60.28543], [25.03457, 60.28557], [25.03456, 60.28571], [25.03451, 60.28585], [25.03446, 60.28598], [25.03443, 60.28612], [25.03444, 60.28628], [25.03448, 60.2864], [25.0345, 60.28645], [25.03456, 60.28651], [25.03475, 60.28669], [25.0349, 60.28683], [25.03511, 60.28705], [25.03519, 60.28714], [25.03526, 60.28721], [25.03539, 60.28727], [25.03549, 60.28731], [25.03565, 60.28735], [25.03574, 60.28736], [25.03604, 60.28739], [25.03619, 60.28739], [25.03634, 60.28739], [25.0367, 60.28737], [25.03678, 60.28737], [25.037, 60.2874], [25.03718, 60.28745], [25.03734, 60.2875], [25.03747, 60.28756], [25.03755, 60.28761], [25.0376, 60.28763], [25.03773, 60.28773], [25.03781, 60.28783], [25.03786, 60.2879], [25.03788, 60.28798], [25.038, 60.28785], [25.03802, 60.28783], [25.03851, 60.28729], [25.03855, 60.28724], [25.03893, 60.28683], [25.03926, 60.28648], [25.0393, 60.28643], [25.03932, 60.28641], [25.03933, 60.2864], [25.03981, 60.28588], [25.04002, 60.28565], [25.04023, 60.28543], [25.04034, 60.28531], [25.04047, 60.28519], [25.04088, 60.28474], [25.04065, 60.28414], [25.04073, 60.28406], [25.0412, 60.28362], [25.04124, 60.28359], [25.04156, 60.28329], [25.04207, 60.28319], [25.04226, 60.28316], [25.04222, 60.28307], [25.04236, 60.28295], [25.04252, 60.28281], [25.04256, 60.28278], [25.04272, 60.28264], [25.04277, 60.2826], [25.04307, 60.28235], [25.04315, 60.28222], [25.04318, 60.28218], [25.04329, 60.28204], [25.04341, 60.28191], [25.04336, 60.28189], [25.04379, 60.28132], [25.04654, 60.2807], [25.05013, 60.2803], [25.06114, 60.2795], [25.07384, 60.27844], [25.0784, 60.27728], [25.09224, 60.27199], [25.0939, 60.27174], [25.09447, 60.27209], [25.0954, 60.27209], [25.09848, 60.27049], [25.10019, 60.27116], [25.10156, 60.27077], [25.10477, 60.2695], [25.10602, 60.26738], [25.10849, 60.2666], [25.11837, 60.26307], [25.12285, 60.26055], [25.12545, 60.25726], [25.12967, 60.25461], [25.13095, 60.25426], [25.13353, 60.25251], [25.14705, 60.24547]]]}}, {"type": "Feature", "properties": {"zone": "C", "source": "HSL maksuvyöhykkeet (open data)"}, "geometry": {"type": "Polygon", "coordinates": [[[25.2545, 60.29523], [25.25281, 60.2949], [25.2507, 60.2945], [25.24556, 60.29351], [25.24793, 60.29217], [25.25129, 60.29027], [25.25157, 60.29012], [25.25129, 60.28964], [25.25389, 60.28963], [25.24583, 60.28581], [25.24478, 60.28532], [25.24387, 60.28488], [25.24597, 60.28373], [25.24733, 60.28298], [25.24711, 60.28183], [25.24712, 60.28134], [25.24709, 60.27851], [25.24478, 60.27896], [25.24413, 60.27834], [25.24612, 60.2776], [25.24669, 60.27772], [25.25229, 60.27575], [25.25211, 60.27547], [25.25176, 60.27489], [25.25174, 60.27487], [25.25133, 60.2742], [25.2509, 60.27352], [25.24567, 60.27272], [25.24299, 60.2723], [25.24328, 60.27184], [25.24161, 60.27184], [25.2406, 60.27187], [25.24031, 60.27188], [25.23965, 60.27189], [25.23761, 60.27192], [25.23485, 60.27196], [25.23447, 60.2714], [25.23188, 60.26723], [25.23208, 60.2657], [25.23189, 60.26531], [25.23256, 60.26255], [25.23158, 60.26252], [25.2307, 60.26216], [25.23066, 60.26169], [25.23061, 60.26142], [25.23023, 60.26143], [25.22994, 60.26141], [25.22978, 60.26141], [25.22857, 60.26139], [25.22821, 60.26138], [25.22763, 60.26123], [25.22734, 60.2611], [25.22886, 60.25992], [25.2291, 60.26], [25.22929, 60.25985], [25.23037, 60.25901], [25.23353, 60.25655], [25.23745, 60.25627], [25.23859, 60.25434], [25.23929, 60.25315], [25.24083, 60.25055], [25.24076, 60.24923], [25.24086, 60.24727], [25.24092, 60.24632], [25.23709, 60.24599], [25.22707, 60.24513], [25.22589, 60.24445], [25.22482, 60.24383], [25.2231, 60.24284], [25.22663, 60.23937], [25.20439, 60.2299], [25.20399, 60.22784], [25.20369, 60.22656], [25.20313, 60.22456], [25.18193, 60.22883], [25.16706, 60.23175], [25.16277, 60.23278], [25.15985, 60.23805], [25.14705, 60.24547], [25.13353, 60.25251], [25.13095, 60.25426], [25.12967, 60.25461], [25.12545, 60.25726], [25.12285, 60.26055], [25.11837, 60.26307], [25.10849, 60.2666], [25.10602, 60.26738], [25.10477, 60.2695], [25.10156, 60.27077], [25.10019, 60.27116], [25.09848, 60.27049], [25.0954, 60.27209], [25.09447, 60.27209], [25.0939, 60.27174], [25.09224, 60.27199], [25.0784, 60.27728], [25.07384, 60.27844], [25.06114, 60.2795], [25.05013, 60.2803], [25.04654, 60.2807], [25.04379, 60.28132], [25.04336, 60.28189], [25.04341, 60.28191], [25.04329, 60.28204], [25.04318, 60.28218], [25.04315, 60.28222], [25.04307, 60.28235], [25.04277, 60.2826], [25.04272, 60.28264], [25.04256, 60.28278], [25.04252, 60.28281], [25.04236, 60.28295], [25.04222, 60.28307], [25.04226, 60.28316], [25.04207, 60.28319], [25.04156, 60.28329], [25.04124, 60.28359], [25.0412, 60.28362], [25.04073, 60.28406], [25.04065, 60.28414], [25.04088, 60.28474], [25.04047, 60.28519], [25.04034, 60.28531], [25.04023, 60.28543], [25.04002, 60.28565], [25.03981, 60.28588], [25.03933, 60.2864], [25.03932, 60.28641], [25.0393, 60.28643], [25.03926, 60.28648], [25.03893, 60.28683], [25.03855, 60.28724], [25.03851, 60.28729], [25.03802, 60.28783], [25.038, 60.28785], [25.03788, 60.28798], [25.03786, 60.2879], [25.03781, 60.28783], [25.03773, 60.28773], [25.0376, 60.28763], [25.03755, 60.28761], [25.03747, 60.28756], [25.03734, 60.2875], [25.03718, 60.28745], [25.037, 60.2874], [25.03678, 60.28737], [25.0367, 60.28737], [25.03634, 60.28739], [25.03619, 60.28739], [25.03604, 60.28739], [25.03574, 60.28736], [25.03565, 60.28735], [25.03549, 60.28731], [25.03539, 60.28727], [25.03526, 60.28721], [25.03519, 60.28714], [25.03511, 60.28705], [25.0349, 60.28683], [25.03475, 60.28669], [25.03456, 60.28651], [25.0345, 60.28645], [25.03448, 60.2864], [25.03444, 60.28628], [25.03443, 60.28612], [25.03446, 60.28598], [25.03451, 60.28585], [25.03456, 60.28571], [25.03457, 60.28557], [25.03454, 60.28543], [25.03449, 60.28536], [25.03443, 60.2853], [25.0343, 60.28522], [25.03419, 60.28517], [25.034, 60.2851], [25.03381, 60.28504], [25.03356, 60.28498], [25.03331, 60.28496], [25.03313, 60.28496], [25.03284, 60.28496], [25.03258, 60.285], [25.03246, 60.28503], [25.03224, 60.28511], [25.03214, 60.28516], [25.03192, 60.28524], [25.03167, 60.28529], [25.03148, 60.28537], [25.03136, 60.2854], [25.03123, 60.28542], [25.03106, 60.28543], [25.03037, 60.28545], [25.03023, 60.28547], [25.02984, 60.28552], [25.02963, 60.28557], [25.02915, 60.28568], [25.02903, 60.28572], [25.02889, 60.28578], [25.02879, 60.28583], [25.02869, 60.28587], [25.02859, 60.28589], [25.02838, 60.28598], [25.02806, 60.2861], [25.02765, 60.28628], [25.02754, 60.28631], [25.0274, 60.28633], [25.02732, 60.28639], [25.02729, 60.28644], [25.02722, 60.28653], [25.02719, 60.28658], [25.02714, 60.28673], [25.02711, 60.2868], [25.02709, 60.28685], [25.02696, 60.28707], [25.02691, 60.28719], [25.02686, 60.28729], [25.02671, 60.2874], [25.02658, 60.28748], [25.02642, 60.28754], [25.02614, 60.28763], [25.02598, 60.28766], [25.02577, 60.2877], [25.02474, 60.28786], [25.02441, 60.28792], [25.02423, 60.28797], [25.0241, 60.28801], [25.02386, 60.28809], [25.02365, 60.28819], [25.02346, 60.28831], [25.02327, 60.28846], [25.02303, 60.28862], [25.02276, 60.28877], [25.02253, 60.28888], [25.02197, 60.28911], [25.02169, 60.2892], [25.02141, 60.28926], [25.02122, 60.28929], [25.02091, 60.28932], [25.02058, 60.28931], [25.01973, 60.28922], [25.01951, 60.28917], [25.01924, 60.28909], [25.01905, 60.28902], [25.01879, 60.28892], [25.01865, 60.28889], [25.0185, 60.28887], [25.01834, 60.28886], [25.01812, 60.28887], [25.01789, 60.2889], [25.01754, 60.28894], [25.01722, 60.28896], [25.01654, 60.28898], [25.01626, 60.28897], [25.01581, 60.2889], [25.01553, 60.28884], [25.01512, 60.28874], [25.01475, 60.28862], [25.01456, 60.28854], [25.01404, 60.28822], [25.01393, 60.28813], [25.01376, 60.28798], [25.0136, 60.28787], [25.01252, 60.28746], [25.01244, 60.28744], [25.01233, 60.2874], [25.01221, 60.28737], [25.01209, 60.28735], [25.01194, 60.28733], [25.01188, 60.28733], [25.01181, 60.28733], [25.01173, 60.28734], [25.01165, 60.28736], [25.01159, 60.28738], [25.01154, 60.2874], [25.01107, 60.28766], [25.01101, 60.28769], [25.01093, 60.28772], [25.01084, 60.28775], [25.01071, 60.28778], [25.01056, 60.2878], [25.01045, 60.2878], [25.00953, 60.28783], [25.00897, 60.2878], [25.00884, 60.28779], [25.00876, 60.28777], [25.00866, 60.28774], [25.00857, 60.28771], [25.00849, 60.28767], [25.00844, 60.28763], [25.00829, 60.28746], [25.00792, 60.287], [24.9969, 60.28808], [24.9908, 60.28728], [24.98759, 60.28725], [24.98566, 60.28748], [24.98468, 60.28794], [24.98365, 60.2892], [24.98294, 60.29011], [24.97981, 60.29028], [24.97837, 60.28983], [24.97641, 60.28978], [24.97412, 60.29043], [24.97128, 60.29139], [24.96843, 60.29258], [24.96477, 60.29392], [24.96323, 60.29441], [24.96161, 60.29495], [24.96072, 60.29552], [24.95984, 60.29609], [24.95948, 60.29683], [24.95749, 60.29684], [24.95519, 60.2959], [24.953, 60.29584], [24.94967, 60.29609], [24.94361, 60.29611], [24.94266, 60.29639], [24.94222, 60.29699], [24.94127, 60.29705], [24.93976, 60.2967], [24.93906, 60.29651], [24.9373, 60.29651], [24.93493, 60.2967], [24.9314, 60.29749], [24.92148, 60.29761], [24.9182, 60.29839], [24.91724, 60.29906], [24.91383, 60.3005], [24.91276, 60.30034], [24.91088, 60.29907], [24.90961, 60.29879], [24.90808, 60.29845], [24.89788, 60.29897], [24.89087, 60.29892], [24.88409, 60.29908], [24.88025, 60.29855], [24.87086, 60.29798], [24.86711, 60.29728], [24.86239, 60.29713], [24.85927, 60.29574], [24.85809, 60.29649], [24.85426, 60.29542], [24.85468, 60.2947], [24.85016, 60.29425], [24.84943, 60.29248], [24.84465, 60.29176], [24.84398, 60.29172], [24.84304, 60.29285], [24.84169, 60.29259], [24.84119, 60.29246], [24.84041, 60.29179], [24.8396, 60.29087], [24.83011, 60.28627], [24.82137, 60.28777], [24.81805, 60.28737], [24.81428, 60.28689], [24.81173, 60.28586], [24.80839, 60.28479], [24.80551, 60.28375], [24.80082, 60.28167], [24.79708, 60.27995], [24.78712, 60.27392], [24.78458, 60.27293], [24.7744, 60.2693], [24.76583, 60.26487], [24.76207, 60.26293], [24.73807, 60.24708], [24.73303, 60.24466], [24.73105, 60.2432], [24.72504, 60.2409], [24.71759, 60.23827], [24.70899, 60.23471], [24.70599, 60.23293], [24.69723, 60.22058], [24.69173, 60.21005], [24.6935, 60.20828], [24.69763, 60.20762], [24.69862, 60.20653], [24.70038, 60.2041], [24.70098, 60.2029], [24.69986, 60.20034], [24.69926, 60.19899], [24.69765, 60.19098], [24.69758, 60.18464], [24.69772, 60.18136], [24.69797, 60.17912], [24.69936, 60.17652], [24.70086, 60.17417], [24.70315, 60.17183], [24.70572, 60.16933], [24.70838, 60.16739], [24.71077, 60.16547], [24.71328, 60.1637], [24.71523, 60.16234], [24.71722, 60.16052], [24.71896, 60.1584], [24.72, 60.1569], [24.72087, 60.15582], [24.72193, 60.15488], [24.72361, 60.15173], [24.72503, 60.14937], [24.72939, 60.14676], [24.73475, 60.14261], [24.74715, 60.13588], [24.75146, 60.13099], [24.75588, 60.1273], [24.76363, 60.12157], [24.76663, 60.11835], [24.77083, 60.11505], [24.77685, 60.10967], [24.79686, 60.09031], [24.66936, 60.06457], [24.6599, 60.07561], [24.65987, 60.07564], [24.6598, 60.07571], [24.65973, 60.07579], [24.6597, 60.07582], [24.6597, 60.07583], [24.6596, 60.07593], [24.65958, 60.07596], [24.65955, 60.07598], [24.65954, 60.076], [24.65944, 60.0761], [24.65941, 60.07614], [24.65939, 60.07616], [24.6593, 60.07626], [24.65914, 60.07643], [24.65911, 60.07647], [24.65902, 60.07656], [24.65899, 60.07659], [24.65895, 60.07664], [24.65893, 60.07666], [24.6589, 60.07669], [24.6589, 60.0767], [24.65887, 60.07673], [24.65884, 60.07676], [24.65879, 60.07681], [24.65879, 60.07682], [24.65878, 60.07683], [24.6561, 60.07974], [24.65583, 60.08004], [24.6548, 60.08115], [24.65455, 60.08142], [24.65127, 60.08499], [24.65116, 60.08511], [24.65101, 60.08528], [24.6509, 60.08539], [24.65076, 60.08555], [24.65041, 60.08593], [24.64987, 60.08651], [24.64548, 60.09125], [24.6454, 60.09133], [24.64465, 60.09214], [24.64477, 60.09227], [24.64485, 60.09235], [24.65309, 60.10078], [24.65475, 60.10617], [24.64942, 60.11497], [24.64796, 60.11738], [24.64767, 60.11793], [24.64317, 60.12634], [24.64244, 60.1277], [24.64222, 60.12769], [24.64116, 60.13004], [24.64095, 60.13048], [24.64006, 60.13121], [24.64001, 60.13125], [24.63994, 60.13131], [24.6382, 60.13273], [24.63933, 60.13347], [24.6405, 60.13424], [24.64105, 60.13459], [24.64042, 60.13629], [24.63874, 60.1367], [24.63473, 60.1377], [24.63166, 60.1422], [24.62902, 60.14606], [24.62673, 60.1494], [24.61983, 60.15265], [24.61881, 60.15313], [24.61465, 60.15509], [24.61315, 60.1558], [24.6106, 60.15655], [24.61023, 60.15666], [24.60953, 60.15687], [24.6093, 60.15694], [24.60895, 60.15704], [24.59942, 60.15989], [24.59255, 60.15988], [24.58901, 60.16391], [24.58778, 60.1653], [24.57701, 60.16377], [24.56738, 60.16793], [24.57229, 60.17262], [24.57012, 60.17409], [24.56847, 60.17522], [24.56829, 60.17535], [24.5682, 60.17545], [24.568, 60.17576], [24.56795, 60.17594], [24.56795, 60.17616], [24.56793, 60.17629], [24.5679, 60.17637], [24.56782, 60.17666], [24.56779, 60.17674], [24.56769, 60.177], [24.5676, 60.1772], [24.5676, 60.17736], [24.5677, 60.17759], [24.56789, 60.17789], [24.56815, 60.17815], [24.56849, 60.17842], [24.56874, 60.17861], [24.56889, 60.17875], [24.569, 60.17896], [24.56902, 60.17914], [24.56908, 60.17929], [24.56894, 60.17934], [24.56852, 60.17947], [24.56372, 60.18088], [24.56356, 60.18092], [24.5635, 60.18094], [24.56315, 60.18102], [24.56305, 60.18105], [24.56045, 60.18168], [24.55997, 60.1818], [24.55882, 60.18208], [24.5576, 60.18208], [24.55703, 60.18229], [24.55632, 60.18254], [24.55476, 60.18288], [24.55338, 60.18326], [24.55384, 60.18405], [24.55292, 60.18448], [24.55223, 60.1848], [24.55181, 60.18499], [24.55155, 60.18511], [24.5502, 60.1857], [24.54921, 60.18614], [24.54882, 60.18632], [24.54554, 60.18778], [24.54169, 60.18949], [24.54105, 60.18978], [24.53808, 60.1911], [24.53585, 60.19212], [24.5326, 60.19358], [24.53137, 60.19414], [24.53021, 60.19468], [24.52868, 60.19538], [24.52875, 60.19561], [24.52808, 60.19604], [24.5267, 60.19539], [24.52483, 60.19542], [24.52104, 60.19546], [24.51639, 60.19552], [24.5204, 60.19571], [24.52341, 60.19585], [24.52759, 60.19605], [24.52799, 60.19607], [24.53271, 60.1963], [24.53344, 60.19634], [24.53412, 60.19637], [24.53621, 60.19647], [24.53449, 60.19824], [24.53361, 60.199], [24.53396, 60.20037], [24.53462, 60.202], [24.53641, 60.20456], [24.53596, 60.20472], [24.53556, 60.20483], [24.53522, 60.20497], [24.53503, 60.20509], [24.53483, 60.20532], [24.5347, 60.20554], [24.5345, 60.20562], [24.53385, 60.20567], [24.53396, 60.20601], [24.52828, 60.20634], [24.52809, 60.20616], [24.52771, 60.20622], [24.52475, 60.20535], [24.5032, 60.21286], [24.5026, 60.21536], [24.50669, 60.2164], [24.50686, 60.21656], [24.50771, 60.21739], [24.51026, 60.21988], [24.5106, 60.2199], [24.51159, 60.22091], [24.51157, 60.22111], [24.51512, 60.22451], [24.51706, 60.22649], [24.51994, 60.22801], [24.52152, 60.22888], [24.52357, 60.23001], [24.52465, 60.23058], [24.5253, 60.23096], [24.52541, 60.23102], [24.52534, 60.23354], [24.52515, 60.24145], [24.52507, 60.24444], [24.52503, 60.24634], [24.52502, 60.24658], [24.52479, 60.24668], [24.52459, 60.24676], [24.52342, 60.24727], [24.52233, 60.24773], [24.52073, 60.24842], [24.52041, 60.24856], [24.51871, 60.24929], [24.51776, 60.2497], [24.51678, 60.25011], [24.51549, 60.25066], [24.51544, 60.25068], [24.51343, 60.25101], [24.51059, 60.25182], [24.50764, 60.25322], [24.5062, 60.25463], [24.50569, 60.25485], [24.50433, 60.25543], [24.50434, 60.25551], [24.50434, 60.25592], [24.50434, 60.25596], [24.50435, 60.25658], [24.50435, 60.25704], [24.50436, 60.25754], [24.50437, 60.25882], [24.50437, 60.25927], [24.50437, 60.25972], [24.50438, 60.26017], [24.50439, 60.26076], [24.50439, 60.26107], [24.5044, 60.26194], [24.50441, 60.26205], [24.50441, 60.26208], [24.50441, 60.26305], [24.50441, 60.26597], [24.50442, 60.26805], [24.50442, 60.26864], [24.50443, 60.26913], [24.50443, 60.26956], [24.50443, 60.27008], [24.49826, 60.27392], [24.49542, 60.27506], [24.49539, 60.27603], [24.49728, 60.2763], [24.49992, 60.2783], [24.49834, 60.27921], [24.49872, 60.27996], [24.50047, 60.2803], [24.50144, 60.27969], [24.50467, 60.28096], [24.505, 60.28154], [24.50547, 60.28221], [24.51332, 60.2815], [24.51557, 60.28129], [24.5155, 60.28149], [24.51532, 60.28203], [24.51481, 60.28351], [24.51466, 60.28395], [24.51431, 60.285], [24.51146, 60.28549], [24.5106, 60.28564], [24.50975, 60.28579], [24.5089, 60.28594], [24.5078, 60.28612], [24.4993, 60.28759], [24.50504, 60.28946], [24.50713, 60.29013], [24.50848, 60.29058], [24.51075, 60.29131], [24.51174, 60.29164], [24.51204, 60.29173], [24.51172, 60.2926], [24.51136, 60.29368], [24.51068, 60.29564], [24.51038, 60.29654], [24.50947, 60.29795], [24.50204, 60.32087], [24.49033, 60.32797], [24.49951, 60.32815], [24.5524, 60.31612], [24.55295, 60.31601], [24.55436, 60.31574], [24.55482, 60.31565], [24.55538, 60.31554], [24.55638, 60.31534], [24.5585, 60.31491], [24.5586, 60.31489], [24.56173, 60.3143], [24.56249, 60.31416], [24.56683, 60.31548], [24.5801, 60.31957], [24.58861, 60.32211], [24.59565, 60.32419], [24.59762, 60.32599], [24.59918, 60.32742], [24.60091, 60.32901], [24.60154, 60.32958], [24.60159, 60.32963], [24.60178, 60.32981], [24.60197, 60.32998], [24.605, 60.33278], [24.60506, 60.33284], [24.60582, 60.33348], [24.60601, 60.33366], [24.60691, 60.33439], [24.6079, 60.33524], [24.60798, 60.33535], [24.61382, 60.34407], [24.61519, 60.34606], [24.61656, 60.34804], [24.61803, 60.35017], [24.61816, 60.35036], [24.62037, 60.35238], [24.62056, 60.35255], [24.62157, 60.35354], [24.62657, 60.35821], [24.62753, 60.35931], [24.63602, 60.35828], [24.63627, 60.35832], [24.63976, 60.35887], [24.64051, 60.35899], [24.64069, 60.35902], [24.64092, 60.35906], [24.6423, 60.35927], [24.64273, 60.35934], [24.64924, 60.36035], [24.65009, 60.36049], [24.65022, 60.36051], [24.65209, 60.3608], [24.65321, 60.36098], [24.66471, 60.36277], [24.66513, 60.36312], [24.66561, 60.36351], [24.66596, 60.3638], [24.66614, 60.36366], [24.66646, 60.36349], [24.66689, 60.36337], [24.6673, 60.36333], [24.668, 60.36329], [24.6689, 60.36321], [24.66916, 60.36316], [24.66946, 60.36306], [24.66981, 60.36287], [24.67028, 60.36255], [24.67086, 60.36203], [24.67137, 60.36156], [24.67149, 60.36142], [24.6715, 60.3614], [24.67151, 60.36131], [24.67155, 60.36118], [24.67166, 60.36111], [24.6719, 60.36101], [24.67212, 60.36081], [24.67243, 60.36064], [24.673, 60.36042], [24.67321, 60.36027], [24.67341, 60.36003], [24.67354, 60.35962], [24.67364, 60.35951], [24.67376, 60.35946], [24.67395, 60.35945], [24.67419, 60.35945], [24.67451, 60.35946], [24.67476, 60.35949], [24.67502, 60.35959], [24.6752, 60.35964], [24.67533, 60.35964], [24.67546, 60.35961], [24.67554, 60.35955], [24.67554, 60.35945], [24.67557, 60.35927], [24.67561, 60.35914], [24.67572, 60.35904], [24.67584, 60.35899], [24.67618, 60.35898], [24.67685, 60.359], [24.67708, 60.35899], [24.67735, 60.35893], [24.67756, 60.35884], [24.6777, 60.35873], [24.6782, 60.35858], [24.67886, 60.35844], [24.67951, 60.35835], [24.68, 60.35833], [24.68043, 60.35839], [24.6812, 60.35857], [24.68148, 60.35863], [24.68178, 60.35868], [24.682, 60.35869], [24.68226, 60.35869], [24.68269, 60.35864], [24.68304, 60.35857], [24.68339, 60.35839], [24.68367, 60.3583], [24.68418, 60.35825], [24.68449, 60.3582], [24.68498, 60.35806], [24.68531, 60.35802], [24.68578, 60.35804], [24.68617, 60.3581], [24.68645, 60.35823], [24.68668, 60.3583], [24.68689, 60.35835], [24.68701, 60.35834], [24.68723, 60.35829], [24.68744, 60.35822], [24.68797, 60.358], [24.68862, 60.35779], [24.68917, 60.35765], [24.68985, 60.35749], [24.69036, 60.35742], [24.69081, 60.35739], [24.69132, 60.3574], [24.69176, 60.35743], [24.69218, 60.35747], [24.69239, 60.35746], [24.69254, 60.35742], [24.69265, 60.35736], [24.69289, 60.35715], [24.69311, 60.35698], [24.69328, 60.35685], [24.69352, 60.35671], [24.69352, 60.3567], [24.69353, 60.3567], [24.69359, 60.35666], [24.69409, 60.35641], [24.69471, 60.35615], [24.69501, 60.35606], [24.69539, 60.35602], [24.69575, 60.356], [24.69605, 60.35594], [24.69628, 60.35586], [24.6964, 60.35573], [24.69672, 60.35525], [24.69719, 60.35474], [24.69773, 60.35431], [24.69781, 60.35426], [24.69813, 60.35407], [24.69851, 60.35392], [24.69915, 60.35361], [24.69952, 60.35346], [24.69958, 60.35343], [24.69978, 60.35335], [24.70039, 60.35306], [24.7007, 60.35294], [24.70097, 60.35287], [24.70327, 60.35286], [24.70352, 60.35285], [24.70439, 60.3527], [24.7114, 60.35095], [24.72001, 60.34886], [24.72242, 60.34824], [24.72488, 60.34767], [24.72574, 60.34746], [24.72637, 60.34731], [24.72854, 60.34679], [24.73141, 60.3461], [24.73204, 60.34594], [24.7323, 60.34588], [24.73397, 60.34548], [24.74297, 60.3433], [24.74496, 60.34283], [24.74922, 60.34179], [24.74929, 60.34178], [24.75035, 60.34244], [24.75368, 60.3445], [24.75433, 60.3449], [24.75459, 60.34507], [24.75484, 60.34522], [24.75587, 60.34586], [24.75596, 60.34592], [24.75631, 60.34613], [24.75663, 60.34634], [24.75666, 60.34635], [24.75685, 60.34647], [24.75687, 60.34648], [24.75736, 60.34679], [24.75743, 60.34683], [24.75767, 60.34698], [24.75771, 60.347], [24.75858, 60.34754], [24.76271, 60.35009], [24.76596, 60.35211], [24.77105, 60.35559], [24.77676, 60.35937], [24.78151, 60.36295], [24.78199, 60.36331], [24.7814, 60.36385], [24.78135, 60.36435], [24.78198, 60.36453], [24.78158, 60.36523], [24.78257, 60.36551], [24.78335, 60.36432], [24.78661, 60.36585], [24.78763, 60.36652], [24.78989, 60.36799], [24.7942, 60.37084], [24.79425, 60.37087], [24.7965, 60.37233], [24.79725, 60.37286], [24.79766, 60.37311], [24.79829, 60.37351], [24.79878, 60.37384], [24.7993, 60.37415], [24.79937, 60.37419], [24.79961, 60.37435], [24.80012, 60.37469], [24.80019, 60.37472], [24.80107, 60.37529], [24.80179, 60.37577], [24.80241, 60.37617], [24.80294, 60.37651], [24.80623, 60.37865], [24.80704, 60.37918], [24.80931, 60.38063], [24.80943, 60.38071], [24.8134, 60.38328], [24.8139, 60.38361], [24.8142, 60.38381], [24.81604, 60.38502], [24.8168, 60.38553], [24.81974, 60.38744], [24.8224, 60.3892], [24.82363, 60.39001], [24.82566, 60.39136], [24.82619, 60.39167], [24.82743, 60.39248], [24.82849, 60.39315], [24.83052, 60.39447], [24.83053, 60.39448], [24.83083, 60.39453], [24.83091, 60.39454], [24.83576, 60.3954], [24.84892, 60.39772], [24.8549, 60.39877], [24.85915, 60.39952], [24.86819, 60.40111], [24.86894, 60.40126], [24.86895, 60.40122], [24.86895, 60.4012], [24.86896, 60.40117], [24.86897, 60.40115], [24.86898, 60.40111], [24.86898, 60.4011], [24.86898, 60.40109], [24.86899, 60.40108], [24.869, 60.40106], [24.86905, 60.40099], [24.86906, 60.40098], [24.86911, 60.40091], [24.86912, 60.40089], [24.86913, 60.40087], [24.86913, 60.40086], [24.86914, 60.40084], [24.86914, 60.40082], [24.86914, 60.40081], [24.86915, 60.4008], [24.86915, 60.40078], [24.86915, 60.40076], [24.86914, 60.40074], [24.86914, 60.40072], [24.86912, 60.40069], [24.86911, 60.40065], [24.86909, 60.40062], [24.86907, 60.4006], [24.86907, 60.4006], [24.86892, 60.40039], [24.86891, 60.40038], [24.86888, 60.40034], [24.86887, 60.40033], [24.86887, 60.40032], [24.86882, 60.4002], [24.86881, 60.40018], [24.86879, 60.40015], [24.86878, 60.40013], [24.86877, 60.40011], [24.86876, 60.40009], [24.86874, 60.40008], [24.86873, 60.40006], [24.86872, 60.40005], [24.8687, 60.40004], [24.86868, 60.40002], [24.86866, 60.40001], [24.86864, 60.39999], [24.86862, 60.39998], [24.86857, 60.39995], [24.86841, 60.39988], [24.8684, 60.39987], [24.86794, 60.39965], [24.86755, 60.39945], [24.86752, 60.39944], [24.86751, 60.39943], [24.8675, 60.39943], [24.86724, 60.3993], [24.86721, 60.39929], [24.86716, 60.39926], [24.86714, 60.39925], [24.86709, 60.39922], [24.86707, 60.39921], [24.86701, 60.39916], [24.867, 60.39916], [24.86686, 60.39905], [24.86684, 60.39904], [24.86683, 60.39903], [24.86681, 60.39901], [24.86651, 60.39883], [24.86649, 60.39882], [24.86643, 60.39877], [24.86639, 60.39874], [24.86637, 60.39873], [24.86634, 60.39869], [24.86631, 60.39866], [24.86629, 60.39865], [24.86628, 60.39863], [24.86627, 60.39861], [24.86626, 60.3986], [24.86625, 60.39858], [24.86624, 60.39856], [24.86623, 60.39853], [24.86622, 60.39851], [24.86622, 60.39849], [24.8662, 60.39844], [24.8662, 60.39842], [24.8662, 60.39841], [24.86619, 60.39838], [24.86619, 60.39836], [24.86619, 60.39832], [24.86619, 60.3983], [24.86619, 60.39829], [24.86619, 60.39827], [24.8662, 60.39825], [24.8662, 60.39823], [24.86621, 60.39822], [24.86622, 60.3982], [24.86623, 60.39818], [24.86625, 60.39816], [24.86626, 60.39815], [24.86628, 60.39813], [24.86629, 60.39812], [24.86631, 60.3981], [24.86634, 60.39809], [24.86636, 60.39808], [24.86638, 60.39806], [24.86641, 60.39805], [24.86643, 60.39804], [24.86646, 60.39802], [24.86649, 60.39801], [24.86651, 60.398], [24.86653, 60.39799], [24.86684, 60.39787], [24.86687, 60.39786], [24.86703, 60.39778], [24.86718, 60.39771], [24.86721, 60.3977], [24.86723, 60.39769], [24.86725, 60.39767], [24.86735, 60.39762], [24.86739, 60.39759], [24.86741, 60.39758], [24.86743, 60.39756], [24.86745, 60.39754], [24.86747, 60.39753], [24.86747, 60.39753], [24.86748, 60.39752], [24.86749, 60.3975], [24.86754, 60.39745], [24.86756, 60.39744], [24.86758, 60.39741], [24.8676, 60.39739], [24.86762, 60.39735], [24.86764, 60.39732], [24.86765, 60.3973], [24.86768, 60.39723], [24.86774, 60.39709], [24.86774, 60.39707], [24.86775, 60.39707], [24.86783, 60.39686], [24.86783, 60.39684], [24.86788, 60.39668], [24.86789, 60.39665], [24.86789, 60.39663], [24.86791, 60.39657], [24.86791, 60.39656], [24.86791, 60.39654], [24.86791, 60.3965], [24.86791, 60.39648], [24.86791, 60.39648], [24.86792, 60.39647], [24.86795, 60.3964], [24.86796, 60.39636], [24.86796, 60.39635], [24.86796, 60.39633], [24.86797, 60.39631], [24.86797, 60.39627], [24.86796, 60.39613], [24.86796, 60.39613], [24.86795, 60.396], [24.86794, 60.39591], [24.86794, 60.3959], [24.86793, 60.39586], [24.8679, 60.39579], [24.8679, 60.39577], [24.86781, 60.39558], [24.86781, 60.39557], [24.86776, 60.39546], [24.86776, 60.39544], [24.86775, 60.39543], [24.86775, 60.39542], [24.86771, 60.39524], [24.8677, 60.39522], [24.8677, 60.39521], [24.86763, 60.39503], [24.86763, 60.39501], [24.86762, 60.39498], [24.86762, 60.39496], [24.86761, 60.39492], [24.86762, 60.39489], [24.86762, 60.39487], [24.86762, 60.39486], [24.86762, 60.39483], [24.86763, 60.39481], [24.86764, 60.39477], [24.86764, 60.39476], [24.86765, 60.39474], [24.86766, 60.39472], [24.86766, 60.39471], [24.86767, 60.39469], [24.86768, 60.39467], [24.8677, 60.39464], [24.86772, 60.39462], [24.86773, 60.39461], [24.86774, 60.39459], [24.86776, 60.39457], [24.8678, 60.39452], [24.86784, 60.39449], [24.86786, 60.39448], [24.86789, 60.39445], [24.86791, 60.39443], [24.86797, 60.39439], [24.86798, 60.39438], [24.868, 60.39436], [24.86807, 60.39432], [24.86812, 60.3943], [24.86814, 60.39428], [24.86822, 60.39424], [24.8683, 60.39421], [24.86835, 60.39418], [24.86841, 60.39416], [24.86844, 60.39415], [24.86847, 60.39414], [24.8685, 60.39413], [24.86853, 60.39412], [24.86856, 60.39412], [24.86862, 60.3941], [24.86895, 60.39402], [24.86898, 60.39401], [24.86908, 60.39399], [24.86911, 60.39398], [24.86914, 60.39397], [24.86917, 60.39396], [24.8692, 60.39395], [24.86923, 60.39394], [24.86926, 60.39393], [24.86931, 60.39391], [24.86934, 60.39389], [24.86936, 60.39388], [24.86941, 60.39386], [24.86946, 60.39383], [24.86949, 60.39381], [24.8696, 60.39374], [24.8696, 60.39374], [24.86983, 60.39358], [24.86985, 60.39356], [24.86996, 60.39349], [24.86999, 60.39348], [24.87005, 60.39344], [24.87008, 60.39342], [24.87015, 60.39338], [24.87018, 60.39337], [24.87021, 60.39336], [24.87022, 60.39335], [24.87025, 60.39334], [24.87031, 60.39332], [24.87034, 60.39331], [24.87043, 60.39328], [24.87046, 60.39327], [24.87083, 60.39315], [24.87085, 60.39314], [24.87095, 60.39311], [24.87098, 60.3931], [24.87121, 60.39302], [24.87138, 60.39295], [24.87141, 60.39294], [24.87157, 60.39287], [24.8716, 60.39286], [24.87161, 60.39285], [24.87173, 60.39279], [24.87176, 60.39277], [24.8719, 60.39269], [24.87203, 60.3926], [24.87204, 60.3926], [24.8721, 60.39256], [24.8722, 60.39248], [24.87222, 60.39247], [24.87231, 60.39239], [24.87232, 60.39237], [24.87239, 60.39231], [24.8724, 60.39229], [24.87247, 60.39221], [24.87248, 60.3922], [24.87259, 60.39204], [24.87261, 60.39203], [24.87265, 60.39198], [24.87268, 60.39195], [24.87272, 60.39192], [24.87274, 60.3919], [24.87276, 60.39188], [24.87278, 60.39187], [24.87281, 60.39186], [24.87283, 60.39184], [24.87288, 60.39182], [24.87293, 60.39179], [24.87298, 60.39177], [24.87301, 60.39176], [24.87332, 60.39163], [24.87335, 60.39162], [24.87403, 60.39133], [24.87412, 60.39129], [24.87414, 60.39128], [24.87479, 60.39105], [24.87482, 60.39104], [24.87496, 60.39099], [24.87499, 60.39098], [24.87502, 60.39097], [24.87505, 60.39095], [24.87515, 60.3909], [24.87518, 60.39089], [24.87535, 60.3908], [24.87585, 60.39051], [24.87587, 60.3905], [24.87588, 60.39049], [24.87614, 60.39035], [24.87621, 60.3903], [24.87623, 60.39029], [24.87625, 60.39027], [24.87629, 60.39024], [24.87631, 60.39023], [24.87632, 60.39021], [24.87634, 60.3902], [24.87636, 60.39018], [24.87637, 60.39016], [24.87638, 60.39015], [24.87639, 60.39014], [24.8764, 60.39012], [24.87641, 60.39011], [24.87652, 60.38997], [24.87654, 60.38996], [24.87654, 60.38995], [24.87676, 60.38969], [24.87678, 60.38967], [24.87679, 60.38966], [24.87681, 60.38963], [24.87688, 60.38955], [24.87692, 60.3895], [24.87694, 60.38946], [24.87696, 60.38943], [24.87696, 60.38942], [24.87697, 60.3894], [24.87697, 60.38938], [24.87698, 60.38936], [24.87698, 60.38935], [24.87699, 60.38933], [24.87699, 60.38927], [24.877, 60.38918], [24.877, 60.38917], [24.877, 60.38915], [24.87699, 60.38899], [24.87699, 60.38897], [24.87699, 60.3889], [24.877, 60.38888], [24.877, 60.38888], [24.877, 60.38886], [24.87702, 60.38879], [24.87709, 60.38858], [24.8771, 60.38856], [24.8771, 60.38854], [24.87713, 60.38844], [24.87716, 60.38829], [24.87716, 60.38828], [24.87717, 60.38817], [24.87717, 60.38815], [24.87717, 60.38814], [24.87717, 60.38812], [24.87716, 60.388], [24.87711, 60.38771], [24.8771, 60.3877], [24.87707, 60.38752], [24.87703, 60.38727], [24.87703, 60.38723], [24.87703, 60.38721], [24.87703, 60.38721], [24.87703, 60.38717], [24.87703, 60.38715], [24.87704, 60.38703], [24.87704, 60.38701], [24.87706, 60.38692], [24.87707, 60.38687], [24.87708, 60.38685], [24.87709, 60.38681], [24.87721, 60.38657], [24.87721, 60.38656], [24.87725, 60.38647], [24.87725, 60.38646], [24.87728, 60.38637], [24.87728, 60.38629], [24.87729, 60.38624], [24.87728, 60.3862], [24.87728, 60.38619], [24.87727, 60.38615], [24.87727, 60.38608], [24.87727, 60.38607], [24.87726, 60.38598], [24.87726, 60.38598], [24.87724, 60.38589], [24.87724, 60.38587], [24.87723, 60.3858], [24.87722, 60.38577], [24.87722, 60.38574], [24.87718, 60.38566], [24.87717, 60.38564], [24.87714, 60.38556], [24.87714, 60.38555], [24.8771, 60.38546], [24.8771, 60.38545], [24.87707, 60.38536], [24.87706, 60.38535], [24.87703, 60.38529], [24.87702, 60.38528], [24.87698, 60.3852], [24.87697, 60.38519], [24.87691, 60.38506], [24.8769, 60.38505], [24.87683, 60.38491], [24.87682, 60.3849], [24.87676, 60.38478], [24.87675, 60.38476], [24.87673, 60.38473], [24.8767, 60.3847], [24.87668, 60.38468], [24.87667, 60.38467], [24.87664, 60.38463], [24.8766, 60.3846], [24.8766, 60.3846], [24.8765, 60.38452], [24.87643, 60.38446], [24.87641, 60.38444], [24.87636, 60.3844], [24.87632, 60.38437], [24.87631, 60.38436], [24.87622, 60.38431], [24.87621, 60.38429], [24.87619, 60.38428], [24.87615, 60.38425], [24.87614, 60.38423], [24.87613, 60.38423], [24.87603, 60.38413], [24.87603, 60.38413], [24.87592, 60.38404], [24.8759, 60.38402], [24.87585, 60.38398], [24.87585, 60.38397], [24.87581, 60.38394], [24.87579, 60.38393], [24.87578, 60.38391], [24.87577, 60.3839], [24.87575, 60.38388], [24.87574, 60.38387], [24.87572, 60.38385], [24.87569, 60.38383], [24.87569, 60.38383], [24.87567, 60.38381], [24.87566, 60.3838], [24.87563, 60.38377], [24.87561, 60.38375], [24.8756, 60.38374], [24.87559, 60.38372], [24.87558, 60.38371], [24.87556, 60.38369], [24.87555, 60.38368], [24.87553, 60.38366], [24.87552, 60.38364], [24.87551, 60.38363], [24.8755, 60.38361], [24.8755, 60.3836], [24.87547, 60.38357], [24.87546, 60.38355], [24.87545, 60.38353], [24.87544, 60.38353], [24.87544, 60.38351], [24.87543, 60.38349], [24.87543, 60.38348], [24.87542, 60.38347], [24.87542, 60.38345], [24.87542, 60.38344], [24.87542, 60.38342], [24.87542, 60.38341], [24.87541, 60.38339], [24.87542, 60.38338], [24.87542, 60.38336], [24.87542, 60.38336], [24.87543, 60.38332], [24.87543, 60.38331], [24.87544, 60.38329], [24.87546, 60.38328], [24.87548, 60.38326], [24.8755, 60.38325], [24.87552, 60.38323], [24.87556, 60.3832], [24.87557, 60.3832], [24.87559, 60.38318], [24.87561, 60.38317], [24.87564, 60.38316], [24.87593, 60.383], [24.87595, 60.38299], [24.87597, 60.38297], [24.87599, 60.38296], [24.87613, 60.38288], [24.87623, 60.3828], [24.87624, 60.38279], [24.87632, 60.38273], [24.87634, 60.38272], [24.87642, 60.38264], [24.87644, 60.38262], [24.87646, 60.38261], [24.87655, 60.38251], [24.87656, 60.3825], [24.87659, 60.38246], [24.87663, 60.38246], [24.87672, 60.38246], [24.87686, 60.38247], [24.87702, 60.38248], [24.88003, 60.3806], [24.88263, 60.37897], [24.88522, 60.37737], [24.88835, 60.37543], [24.88972, 60.37458], [24.89444, 60.37161], [24.89557, 60.37096], [24.89895, 60.36906], [24.90347, 60.36652], [24.90379, 60.36633], [24.90608, 60.36504], [24.9065, 60.36481], [24.91797, 60.35622], [24.93768, 60.35035], [24.94632, 60.34827], [24.96253, 60.34964], [24.99927, 60.3565], [25.00795, 60.35892], [25.02582, 60.36483], [25.02116, 60.36786], [25.02132, 60.36792], [25.02526, 60.36937], [25.02536, 60.36941], [25.02837, 60.37053], [25.03128, 60.37158], [25.03461, 60.36945], [25.0383, 60.37081], [25.04069, 60.36934], [25.04298, 60.36794], [25.04413, 60.36842], [25.04436, 60.36851], [25.04618, 60.36927], [25.04754, 60.36983], [25.05022, 60.37094], [25.05028, 60.37111], [25.05078, 60.3722], [25.05182, 60.37285], [25.05193, 60.37286], [25.05208, 60.37287], [25.05288, 60.37345], [25.0537, 60.37338], [25.05435, 60.37373], [25.05958, 60.37155], [25.06197, 60.37056], [25.07252, 60.37355], [25.0737, 60.37384], [25.07456, 60.37398], [25.07623, 60.3729], [25.07735, 60.3736], [25.07816, 60.37327], [25.07877, 60.37391], [25.07902, 60.37448], [25.08153, 60.37346], [25.08269, 60.37299], [25.08281, 60.37294], [25.08317, 60.37279], [25.08356, 60.37263], [25.08393, 60.37249], [25.0844, 60.37229], [25.0846, 60.37221], [25.08396, 60.37156], [25.08338, 60.37095], [25.08315, 60.37069], [25.0829, 60.37044], [25.08437, 60.37028], [25.08474, 60.37025], [25.08518, 60.3702], [25.08523, 60.36976], [25.08539, 60.36974], [25.08568, 60.36969], [25.08734, 60.36944], [25.08856, 60.36925], [25.08851, 60.36922], [25.08847, 60.3692], [25.08814, 60.36897], [25.08771, 60.36868], [25.08713, 60.36828], [25.08541, 60.36711], [25.08871, 60.36657], [25.08898, 60.36653], [25.08907, 60.36651], [25.08918, 60.3665], [25.08969, 60.36641], [25.08986, 60.36638], [25.09038, 60.3663], [25.09047, 60.3663], [25.09135, 60.36628], [25.09196, 60.36626], [25.09327, 60.36623], [25.09602, 60.36616], [25.09673, 60.36614], [25.0973, 60.36613], [25.09748, 60.36612], [25.09852, 60.3661], [25.09879, 60.36609], [25.09962, 60.36606], [25.10149, 60.36601], [25.10528, 60.36592], [25.10699, 60.36587], [25.11246, 60.36575], [25.1134, 60.36572], [25.11426, 60.3657], [25.11463, 60.36569], [25.11483, 60.36523], [25.11515, 60.36453], [25.11575, 60.3646], [25.11733, 60.3611], [25.13286, 60.36086], [25.13284, 60.35913], [25.15173, 60.35928], [25.15025, 60.35835], [25.14995, 60.35815], [25.14965, 60.35796], [25.14933, 60.35777], [25.14893, 60.35752], [25.14853, 60.35727], [25.14778, 60.3568], [25.14776, 60.35678], [25.14768, 60.35674], [25.14764, 60.35672], [25.14761, 60.3567], [25.14617, 60.3558], [25.14603, 60.3557], [25.14541, 60.35532], [25.14483, 60.35496], [25.14438, 60.35468], [25.14392, 60.35439], [25.14341, 60.35407], [25.13742, 60.35034], [25.13701, 60.35009], [25.13688, 60.35001], [25.13562, 60.34923], [25.13493, 60.3488], [25.13444, 60.34849], [25.13468, 60.34788], [25.13486, 60.34742], [25.13487, 60.3474], [25.13489, 60.34733], [25.13495, 60.34719], [25.13525, 60.34719], [25.13645, 60.34719], [25.13715, 60.34719], [25.13768, 60.3472], [25.13821, 60.3472], [25.13843, 60.3472], [25.13947, 60.3472], [25.14039, 60.3472], [25.14194, 60.3472], [25.1421, 60.34595], [25.14226, 60.34595], [25.14305, 60.34596], [25.14398, 60.34598], [25.14421, 60.34598], [25.14425, 60.34598], [25.14511, 60.346], [25.14573, 60.34601], [25.14663, 60.34603], [25.14748, 60.34604], [25.14775, 60.34605], [25.14869, 60.34606], [25.14896, 60.34607], [25.15113, 60.34611], [25.15234, 60.34613], [25.15241, 60.34613], [25.15248, 60.34586], [25.1525, 60.34583], [25.15271, 60.34539], [25.15273, 60.34534], [25.15274, 60.34529], [25.15274, 60.34523], [25.15268, 60.34468], [25.15267, 60.34456], [25.15267, 60.34445], [25.15268, 60.34434], [25.15267, 60.34405], [25.15262, 60.34377], [25.15252, 60.3435], [25.15237, 60.34322], [25.15205, 60.34275], [25.15197, 60.34264], [25.15191, 60.34255], [25.15188, 60.34251], [25.15183, 60.34244], [25.15179, 60.34237], [25.15176, 60.34229], [25.15174, 60.34221], [25.15172, 60.34212], [25.15172, 60.34206], [25.15173, 60.34199], [25.15175, 60.34188], [25.15191, 60.3416], [25.152, 60.34128], [25.15202, 60.34092], [25.15207, 60.34056], [25.15207, 60.34046], [25.15205, 60.34036], [25.15202, 60.34027], [25.15199, 60.34021], [25.15195, 60.34015], [25.1519, 60.34009], [25.1518, 60.33996], [25.15163, 60.33981], [25.15153, 60.33975], [25.15148, 60.33971], [25.15132, 60.33961], [25.15119, 60.33953], [25.15106, 60.33944], [25.15031, 60.33886], [25.14675, 60.33365], [25.14618, 60.32229], [25.15225, 60.3161], [25.15421, 60.31556], [25.15784, 60.31465], [25.16462, 60.31284], [25.16645, 60.31235], [25.16828, 60.31188], [25.16961, 60.31149], [25.19959, 60.29676], [25.22952, 60.29784], [25.23162, 60.29729], [25.23284, 60.29696], [25.2328, 60.29682], [25.23462, 60.29633], [25.23752, 60.29551], [25.23818, 60.29533], [25.24042, 60.29569], [25.24345, 60.29619], [25.24471, 60.29637], [25.24947, 60.297], [25.25115, 60.29723], [25.25289, 60.29746], [25.2545, 60.29523]]]}}, {"type": "Feature", "properties": {"zone": "D", "source": "HSL maksuvyöhykkeet (open data)"}, "geometry": {"type": "MultiPolygon", "coordinates": [[[[24.32295, 59.89819], [24.27206, 59.95501], [24.28994, 60.00895], [24.31628, 60.0225], [24.29572, 60.04006], [24.27934, 60.05808], [24.26524, 60.06314], [24.26078, 60.06977], [24.25974, 60.06988], [24.25962, 60.07155], [24.25828, 60.0735], [24.25686, 60.08029], [24.24659, 60.08829], [24.23897, 60.09292], [24.23965, 60.09307], [24.2342, 60.09591], [24.23408, 60.09588], [24.22702, 60.10014], [24.23113, 60.10388], [24.23177, 60.10484], [24.23237, 60.10542], [24.23274, 60.10539], [24.23307, 60.10576], [24.22997, 60.10859], [24.22897, 60.11056], [24.22004, 60.11742], [24.21966, 60.11771], [24.20551, 60.1261], [24.20562, 60.12632], [24.20548, 60.12659], [24.20463, 60.12655], [24.20171, 60.1283], [24.20052, 60.12844], [24.20013, 60.12785], [24.19809, 60.12784], [24.19559, 60.12694], [24.19408, 60.12753], [24.19572, 60.12907], [24.17913, 60.13119], [24.17409, 60.13056], [24.16327, 60.12453], [24.15965, 60.12146], [24.15073, 60.11699], [24.14169, 60.11367], [24.14179, 60.11359], [24.13623, 60.1114], [24.13577, 60.11352], [24.13568, 60.11358], [24.13558, 60.11371], [24.13548, 60.11389], [24.13542, 60.11404], [24.1354, 60.11417], [24.13545, 60.11452], [24.13553, 60.11475], [24.13557, 60.11488], [24.13554, 60.11502], [24.13514, 60.11609], [24.13507, 60.1162], [24.13495, 60.11631], [24.13474, 60.11646], [24.13499, 60.11665], [24.13399, 60.12083], [24.13323, 60.12126], [24.13379, 60.12163], [24.13159, 60.13074], [24.11721, 60.13425], [24.1086, 60.13827], [24.09898, 60.14275], [24.083, 60.14418], [24.06923, 60.14613], [24.04581, 60.15012], [24.01901, 60.15156], [24.01601, 60.15724], [24.01978, 60.16666], [24.0167, 60.16953], [24.01802, 60.1759], [24.01739, 60.18089], [24.01756, 60.18102], [24.01753, 60.18106], [24.01692, 60.18097], [24.0163, 60.18093], [24.01561, 60.18095], [24.01517, 60.18094], [24.01519, 60.18124], [24.01258, 60.18205], [24.01159, 60.18186], [24.00952, 60.18229], [24.00826, 60.1825], [24.01889, 60.18855], [24.01895, 60.18855], [24.01901, 60.18857], [24.01909, 60.18862], [24.01913, 60.18867], [24.01913, 60.18872], [24.01912, 60.18874], [24.01915, 60.18877], [24.01918, 60.18879], [24.01925, 60.18878], [24.01935, 60.18876], [24.01941, 60.18875], [24.01954, 60.18879], [24.01961, 60.18881], [24.01969, 60.18881], [24.0198, 60.18876], [24.01994, 60.18876], [24.02013, 60.18887], [24.02017, 60.18893], [24.02021, 60.18896], [24.02026, 60.18898], [24.02031, 60.18897], [24.02038, 60.18894], [24.02041, 60.18892], [24.0205, 60.18881], [24.02052, 60.18878], [24.02048, 60.18872], [24.02048, 60.18864], [24.02052, 60.18864], [24.02088, 60.18871], [24.02103, 60.18871], [24.0212, 60.18879], [24.02137, 60.18895], [24.02141, 60.18902], [24.02146, 60.18905], [24.02154, 60.18906], [24.0217, 60.189], [24.02174, 60.189], [24.02177, 60.18902], [24.02179, 60.18906], [24.02183, 60.18907], [24.0219, 60.18908], [24.02194, 60.1891], [24.02197, 60.18912], [24.02196, 60.18918], [24.02192, 60.18921], [24.02184, 60.18923], [24.02169, 60.18932], [24.02139, 60.1894], [24.02135, 60.18942], [24.02133, 60.18944], [24.02133, 60.18948], [24.02147, 60.18959], [24.02154, 60.18961], [24.02162, 60.18962], [24.02169, 60.18961], [24.02179, 60.18958], [24.02183, 60.18958], [24.02194, 60.18968], [24.02199, 60.1897], [24.02207, 60.18971], [24.0223, 60.18971], [24.02235, 60.18972], [24.02237, 60.18974], [24.02236, 60.18977], [24.02234, 60.18979], [24.02232, 60.18981], [24.02233, 60.18982], [24.02235, 60.18985], [24.02235, 60.18987], [24.0223, 60.18989], [24.02207, 60.18995], [24.02203, 60.18998], [24.022, 60.19001], [24.022, 60.19003], [24.02206, 60.1901], [24.02205, 60.19013], [24.0219, 60.19013], [24.02186, 60.19015], [24.02187, 60.19018], [24.02189, 60.1902], [24.02205, 60.19031], [24.02211, 60.19034], [24.02216, 60.19042], [24.02222, 60.19043], [24.0223, 60.19044], [24.02235, 60.19043], [24.02241, 60.19036], [24.02245, 60.19034], [24.0225, 60.19032], [24.02256, 60.19032], [24.02262, 60.19033], [24.02266, 60.19037], [24.02266, 60.19056], [24.0227, 60.19066], [24.02272, 60.19073], [24.02275, 60.19075], [24.02281, 60.19077], [24.02293, 60.19078], [24.02301, 60.19078], [24.02304, 60.19077], [24.02312, 60.19074], [24.02325, 60.19068], [24.0233, 60.19066], [24.02337, 60.19065], [24.02343, 60.19065], [24.02349, 60.19066], [24.02361, 60.19071], [24.02365, 60.19075], [24.02365, 60.19077], [24.02361, 60.19086], [24.02364, 60.19089], [24.02366, 60.19091], [24.02372, 60.19092], [24.02376, 60.19092], [24.02394, 60.19087], [24.02398, 60.19087], [24.02413, 60.1909], [24.0242, 60.19091], [24.02431, 60.1909], [24.02439, 60.19088], [24.0244, 60.19084], [24.02439, 60.19078], [24.02441, 60.19076], [24.02444, 60.19074], [24.02456, 60.19074], [24.02464, 60.19074], [24.02486, 60.19072], [24.02496, 60.19071], [24.02501, 60.19073], [24.02509, 60.19077], [24.02514, 60.19078], [24.02519, 60.19078], [24.02526, 60.19075], [24.02532, 60.19075], [24.0254, 60.1908], [24.02546, 60.19082], [24.02553, 60.19087], [24.02562, 60.19087], [24.02567, 60.19087], [24.0257, 60.19085], [24.02571, 60.19081], [24.02572, 60.19076], [24.0257, 60.19073], [24.02567, 60.19071], [24.02556, 60.19068], [24.02548, 60.19063], [24.02548, 60.19058], [24.0255, 60.19056], [24.02556, 60.19055], [24.02565, 60.19054], [24.02573, 60.19055], [24.02581, 60.19057], [24.02589, 60.19065], [24.026, 60.1907], [24.02608, 60.19075], [24.02615, 60.19087], [24.02621, 60.19091], [24.02638, 60.19095], [24.02649, 60.19096], [24.02664, 60.19095], [24.02674, 60.19093], [24.02686, 60.19086], [24.02697, 60.19084], [24.02704, 60.19084], [24.02711, 60.19086], [24.02719, 60.19087], [24.02725, 60.19087], [24.0273, 60.19084], [24.02763, 60.19073], [24.02768, 60.19072], [24.02783, 60.1908], [24.0279, 60.1908], [24.02797, 60.1908], [24.02806, 60.19079], [24.02813, 60.19077], [24.02816, 60.19074], [24.0281, 60.19069], [24.0281, 60.19063], [24.02809, 60.19061], [24.0281, 60.19059], [24.02821, 60.19055], [24.02829, 60.19051], [24.02836, 60.19052], [24.02841, 60.19056], [24.02846, 60.19066], [24.02848, 60.19077], [24.02851, 60.19081], [24.02855, 60.19083], [24.02862, 60.19082], [24.02868, 60.1908], [24.02872, 60.19078], [24.0288, 60.19065], [24.02881, 60.19061], [24.02879, 60.19056], [24.02879, 60.19054], [24.02881, 60.19052], [24.02891, 60.19052], [24.02912, 60.19056], [24.02925, 60.19061], [24.02929, 60.19065], [24.02934, 60.19068], [24.02939, 60.19068], [24.02943, 60.19067], [24.02945, 60.19065], [24.02951, 60.19052], [24.02953, 60.19046], [24.02957, 60.19043], [24.02963, 60.19041], [24.02971, 60.19043], [24.0298, 60.19044], [24.02987, 60.19044], [24.02989, 60.19042], [24.02987, 60.19038], [24.02988, 60.19036], [24.02991, 60.19034], [24.02998, 60.19035], [24.03001, 60.19038], [24.03004, 60.1904], [24.03008, 60.19041], [24.03013, 60.1904], [24.03023, 60.19036], [24.03028, 60.19033], [24.03029, 60.1903], [24.03026, 60.19028], [24.03019, 60.19024], [24.03015, 60.1902], [24.03015, 60.19017], [24.03019, 60.19015], [24.03024, 60.19014], [24.03036, 60.19014], [24.03058, 60.1901], [24.03069, 60.19011], [24.03073, 60.19014], [24.03078, 60.19017], [24.03089, 60.19023], [24.03093, 60.19023], [24.03096, 60.19022], [24.03099, 60.19019], [24.03095, 60.19014], [24.03096, 60.1901], [24.03098, 60.19007], [24.03127, 60.19001], [24.03148, 60.1899], [24.03156, 60.18987], [24.03159, 60.18987], [24.03164, 60.18986], [24.03173, 60.18988], [24.03179, 60.18988], [24.03183, 60.18986], [24.0319, 60.18985], [24.03197, 60.18986], [24.03202, 60.18989], [24.03203, 60.18992], [24.03194, 60.19002], [24.03195, 60.19006], [24.03199, 60.19009], [24.03208, 60.19013], [24.03223, 60.19017], [24.03227, 60.1902], [24.0323, 60.19027], [24.03235, 60.19029], [24.03241, 60.1903], [24.03246, 60.19029], [24.03253, 60.19028], [24.03267, 60.19022], [24.03276, 60.19017], [24.03286, 60.19008], [24.03294, 60.19007], [24.03302, 60.19008], [24.03308, 60.19011], [24.03313, 60.19012], [24.03326, 60.19013], [24.03334, 60.19015], [24.03343, 60.19018], [24.03348, 60.19022], [24.03353, 60.19022], [24.03364, 60.19009], [24.0337, 60.19007], [24.03378, 60.19006], [24.03382, 60.19007], [24.03383, 60.19009], [24.03375, 60.19019], [24.03378, 60.19022], [24.03381, 60.19024], [24.03387, 60.19024], [24.03395, 60.19023], [24.034, 60.19021], [24.03402, 60.19019], [24.03403, 60.19006], [24.03405, 60.18997], [24.03407, 60.18996], [24.03413, 60.18996], [24.03433, 60.18999], [24.03454, 60.19], [24.03469, 60.19002], [24.03488, 60.19008], [24.03495, 60.19012], [24.03503, 60.19012], [24.03506, 60.19011], [24.03522, 60.18998], [24.03522, 60.18994], [24.0352, 60.18991], [24.03513, 60.18986], [24.03508, 60.18984], [24.03508, 60.1898], [24.03512, 60.18978], [24.03521, 60.18978], [24.03522, 60.18974], [24.03525, 60.18972], [24.03539, 60.18973], [24.03545, 60.18973], [24.03555, 60.18969], [24.0357, 60.18969], [24.03578, 60.18971], [24.03583, 60.18971], [24.03599, 60.18967], [24.03613, 60.18968], [24.03621, 60.18968], [24.03623, 60.18971], [24.03624, 60.18974], [24.03626, 60.18981], [24.03628, 60.18984], [24.03632, 60.18986], [24.03637, 60.18987], [24.03642, 60.18985], [24.03647, 60.18985], [24.03651, 60.18986], [24.03652, 60.18989], [24.03649, 60.18991], [24.03632, 60.18997], [24.03629, 60.19], [24.03626, 60.19002], [24.03624, 60.19005], [24.03625, 60.19008], [24.03629, 60.19011], [24.03634, 60.19013], [24.03639, 60.19015], [24.03658, 60.19015], [24.03663, 60.19018], [24.03666, 60.1902], [24.03665, 60.19028], [24.03675, 60.19034], [24.0368, 60.19037], [24.03691, 60.19039], [24.03697, 60.19039], [24.03702, 60.19037], [24.0371, 60.19035], [24.03717, 60.19036], [24.03722, 60.19039], [24.03723, 60.19041], [24.03729, 60.19042], [24.03735, 60.19041], [24.03743, 60.19041], [24.03749, 60.19041], [24.03754, 60.19043], [24.03755, 60.19046], [24.03753, 60.19049], [24.0375, 60.19051], [24.03745, 60.19054], [24.03742, 60.1906], [24.03743, 60.19063], [24.03748, 60.19066], [24.03755, 60.19067], [24.03766, 60.19066], [24.0378, 60.19063], [24.03785, 60.19064], [24.03787, 60.19067], [24.03786, 60.1907], [24.03778, 60.19074], [24.03767, 60.19076], [24.03762, 60.19079], [24.03759, 60.19082], [24.0376, 60.19085], [24.03765, 60.19089], [24.03772, 60.1909], [24.03782, 60.19088], [24.0379, 60.19087], [24.03803, 60.19087], [24.03811, 60.19089], [24.03814, 60.19092], [24.03814, 60.19096], [24.03811, 60.19099], [24.03807, 60.19102], [24.03807, 60.19105], [24.03808, 60.19107], [24.03812, 60.19108], [24.0382, 60.19108], [24.03831, 60.19109], [24.03841, 60.19111], [24.03842, 60.19115], [24.03844, 60.19123], [24.03844, 60.19127], [24.03845, 60.1913], [24.03852, 60.19131], [24.03856, 60.19131], [24.03859, 60.19128], [24.03861, 60.19126], [24.03867, 60.19124], [24.03873, 60.19124], [24.03884, 60.19127], [24.03889, 60.1913], [24.03898, 60.19136], [24.03902, 60.1914], [24.03906, 60.19143], [24.03911, 60.19144], [24.03918, 60.19143], [24.03921, 60.19141], [24.03926, 60.19137], [24.03931, 60.19134], [24.03936, 60.19133], [24.03941, 60.19133], [24.03946, 60.19133], [24.03953, 60.19135], [24.03956, 60.19136], [24.03976, 60.19135], [24.03985, 60.19137], [24.03996, 60.19138], [24.04001, 60.19139], [24.04008, 60.19141], [24.0402, 60.19144], [24.04042, 60.19144], [24.04048, 60.19146], [24.04052, 60.1915], [24.04053, 60.19158], [24.04054, 60.19164], [24.04056, 60.19166], [24.04064, 60.19168], [24.04072, 60.19168], [24.04086, 60.19166], [24.04091, 60.19165], [24.04096, 60.19165], [24.04102, 60.19168], [24.04106, 60.19174], [24.04109, 60.19179], [24.04112, 60.19182], [24.04117, 60.19182], [24.04133, 60.19182], [24.04141, 60.19182], [24.04145, 60.1918], [24.04141, 60.19175], [24.04143, 60.19173], [24.04158, 60.19171], [24.04181, 60.19169], [24.04206, 60.1917], [24.04216, 60.19172], [24.04224, 60.19171], [24.04229, 60.19169], [24.04228, 60.19166], [24.04228, 60.19162], [24.04229, 60.19157], [24.04233, 60.19153], [24.04243, 60.19149], [24.04258, 60.19145], [24.04265, 60.19142], [24.04284, 60.19136], [24.04289, 60.19134], [24.04302, 60.1913], [24.04316, 60.1913], [24.0432, 60.19127], [24.04329, 60.19126], [24.04341, 60.19127], [24.04351, 60.19125], [24.04363, 60.19125], [24.04373, 60.19129], [24.04385, 60.19138], [24.04415, 60.19149], [24.04432, 60.19163], [24.04439, 60.19176], [24.04449, 60.19186], [24.04455, 60.19211], [24.04469, 60.19232], [24.04472, 60.19239], [24.04484, 60.19258], [24.04487, 60.19268], [24.04492, 60.19274], [24.04496, 60.19284], [24.04498, 60.19292], [24.04503, 60.193], [24.04504, 60.19305], [24.04512, 60.19315], [24.04526, 60.19348], [24.04556, 60.19411], [24.04564, 60.19422], [24.04578, 60.19438], [24.04584, 60.19446], [24.0459, 60.19454], [24.04602, 60.19462], [24.04304, 60.19638], [24.04258, 60.19694], [24.04252, 60.19759], [24.04284, 60.19784], [24.03734, 60.20364], [24.04439, 60.20535], [24.04942, 60.21007], [24.06423, 60.21422], [24.08203, 60.22231], [24.07697, 60.22749], [24.08551, 60.2303], [24.08639, 60.22972], [24.08725, 60.22931], [24.08755, 60.22879], [24.08787, 60.22869], [24.08787, 60.22852], [24.08737, 60.22819], [24.08801, 60.22776], [24.08891, 60.22524], [24.0939, 60.22675], [24.09927, 60.22827], [24.12059, 60.23077], [24.12866, 60.23174], [24.1307, 60.23193], [24.13872, 60.22801], [24.14716, 60.2238], [24.14748, 60.22376], [24.14773, 60.22373], [24.1479, 60.22368], [24.14807, 60.22357], [24.1483, 60.22374], [24.1485, 60.22387], [24.14879, 60.224], [24.14944, 60.22421], [24.14975, 60.22425], [24.15005, 60.22431], [24.15028, 60.22434], [24.15063, 60.22434], [24.15102, 60.22434], [24.15157, 60.22432], [24.15186, 60.22433], [24.15218, 60.22432], [24.15243, 60.22432], [24.1528, 60.22428], [24.15308, 60.22427], [24.15352, 60.22427], [24.15387, 60.22432], [24.15407, 60.22435], [24.15424, 60.2244], [24.15442, 60.22448], [24.15496, 60.22479], [24.15509, 60.22488], [24.15518, 60.22504], [24.15528, 60.22517], [24.15598, 60.22592], [24.15613, 60.22613], [24.15624, 60.22627], [24.1564, 60.22636], [24.15659, 60.22642], [24.15922, 60.22708], [24.15906, 60.22719], [24.1592, 60.22719], [24.15944, 60.22717], [24.15972, 60.22717], [24.16065, 60.22743], [24.16077, 60.22748], [24.16081, 60.22755], [24.16115, 60.22764], [24.1615, 60.22784], [24.16153, 60.22783], [24.16174, 60.22789], [24.16182, 60.22798], [24.16192, 60.22806], [24.16193, 60.2282], [24.16138, 60.22802], [24.16088, 60.22803], [24.16014, 60.22821], [24.15907, 60.22865], [24.15867, 60.22883], [24.15805, 60.22906], [24.1574, 60.22925], [24.15426, 60.22996], [24.15404, 60.23], [24.15385, 60.23005], [24.15349, 60.23021], [24.15311, 60.23031], [24.15274, 60.23042], [24.15223, 60.23055], [24.15206, 60.23059], [24.15175, 60.23068], [24.15152, 60.23072], [24.15128, 60.23073], [24.15023, 60.23079], [24.15001, 60.2308], [24.14985, 60.23085], [24.14972, 60.23092], [24.14954, 60.23098], [24.14925, 60.23102], [24.1486, 60.23109], [24.1568, 60.2377], [24.16592, 60.24357], [24.16603, 60.24361], [24.1672, 60.24298], [24.16794, 60.24265], [24.16911, 60.24197], [24.16921, 60.24187], [24.1696, 60.2417], [24.16977, 60.24155], [24.16991, 60.24136], [24.16994, 60.2412], [24.16995, 60.24108], [24.16994, 60.24092], [24.16988, 60.24079], [24.16988, 60.24065], [24.16991, 60.24048], [24.16996, 60.24035], [24.16996, 60.24023], [24.16989, 60.24014], [24.16982, 60.24008], [24.16973, 60.23997], [24.16957, 60.23988], [24.16948, 60.23982], [24.16934, 60.23967], [24.16925, 60.23949], [24.16922, 60.23937], [24.1691, 60.23924], [24.16899, 60.239], [24.16889, 60.23887], [24.16874, 60.2388], [24.16849, 60.23879], [24.16821, 60.23878], [24.16797, 60.23878], [24.16779, 60.23875], [24.1673, 60.23859], [24.167, 60.23853], [24.16706, 60.23844], [24.16806, 60.23145], [24.18186, 60.23965], [24.18281, 60.24698], [24.19045, 60.24995], [24.20056, 60.25039], [24.21855, 60.26072], [24.22503, 60.26048], [24.22762, 60.26043], [24.22842, 60.26034], [24.24825, 60.26119], [24.25984, 60.26913], [24.28933, 60.28822], [24.3057, 60.29465], [24.31748, 60.28179], [24.32262, 60.27644], [24.3335, 60.26467], [24.34249, 60.2462], [24.37058, 60.25659], [24.37905, 60.26639], [24.38716, 60.27487], [24.40818, 60.2835], [24.41778, 60.29414], [24.44268, 60.2977], [24.47552, 60.29207], [24.4777, 60.28472], [24.50547, 60.28221], [24.505, 60.28154], [24.50467, 60.28096], [24.50144, 60.27969], [24.50047, 60.2803], [24.49872, 60.27996], [24.49834, 60.27921], [24.49992, 60.2783], [24.49728, 60.2763], [24.49539, 60.27603], [24.49542, 60.27506], [24.49826, 60.27392], [24.50443, 60.27007], [24.50443, 60.26956], [24.50443, 60.26913], [24.50442, 60.26864], [24.50442, 60.26805], [24.50441, 60.26597], [24.50441, 60.26305], [24.5044, 60.26208], [24.5044, 60.26205], [24.5044, 60.26194], [24.50439, 60.26107], [24.50439, 60.26076], [24.50438, 60.26017], [24.50437, 60.25972], [24.50437, 60.25927], [24.50437, 60.25882], [24.50436, 60.25753], [24.50435, 60.25703], [24.50435, 60.25658], [24.50434, 60.25596], [24.50434, 60.25592], [24.50434, 60.25551], [24.50433, 60.25543], [24.50569, 60.25484], [24.5062, 60.25463], [24.50764, 60.25322], [24.51059, 60.25182], [24.51343, 60.25101], [24.51544, 60.25068], [24.51549, 60.25066], [24.51678, 60.25011], [24.51776, 60.2497], [24.51871, 60.24929], [24.52041, 60.24856], [24.52073, 60.24842], [24.52233, 60.24773], [24.52342, 60.24727], [24.52459, 60.24676], [24.52479, 60.24668], [24.52502, 60.24658], [24.52503, 60.24634], [24.52507, 60.24444], [24.52515, 60.24145], [24.52534, 60.23354], [24.52541, 60.23102], [24.5253, 60.23096], [24.52465, 60.23058], [24.52357, 60.23001], [24.52152, 60.22888], [24.51994, 60.22801], [24.51706, 60.22649], [24.51512, 60.2245], [24.51157, 60.22111], [24.51159, 60.22091], [24.5106, 60.2199], [24.51026, 60.21988], [24.50771, 60.21739], [24.50686, 60.21656], [24.50669, 60.2164], [24.5026, 60.21536], [24.5032, 60.21286], [24.52475, 60.20535], [24.52771, 60.20622], [24.52809, 60.20616], [24.52828, 60.20634], [24.53396, 60.20601], [24.53388, 60.20579], [24.53385, 60.20567], [24.5345, 60.20562], [24.5347, 60.20554], [24.53484, 60.20534], [24.53503, 60.20509], [24.53522, 60.20497], [24.53556, 60.20483], [24.53596, 60.20472], [24.53641, 60.20456], [24.53462, 60.202], [24.53396, 60.20037], [24.53361, 60.199], [24.53449, 60.19824], [24.53621, 60.19647], [24.53412, 60.19637], [24.53344, 60.19634], [24.53271, 60.1963], [24.52799, 60.19607], [24.52759, 60.19605], [24.52341, 60.19585], [24.52039, 60.19571], [24.51639, 60.19552], [24.52104, 60.19546], [24.52483, 60.19542], [24.5267, 60.19539], [24.52808, 60.19604], [24.52875, 60.19561], [24.52868, 60.19538], [24.53021, 60.19468], [24.53137, 60.19414], [24.5326, 60.19358], [24.53584, 60.19212], [24.53808, 60.1911], [24.54105, 60.18978], [24.54169, 60.18949], [24.54554, 60.18778], [24.54882, 60.18632], [24.54921, 60.18614], [24.55019, 60.1857], [24.55155, 60.18511], [24.55181, 60.18499], [24.55223, 60.1848], [24.55292, 60.18448], [24.55384, 60.18405], [24.55338, 60.18326], [24.55476, 60.18288], [24.55632, 60.18254], [24.55703, 60.18229], [24.5576, 60.18208], [24.55881, 60.18208], [24.55997, 60.1818], [24.56045, 60.18168], [24.56305, 60.18105], [24.56315, 60.18102], [24.5635, 60.18094], [24.56356, 60.18092], [24.56372, 60.18088], [24.56852, 60.17947], [24.56894, 60.17934], [24.56908, 60.17929], [24.56902, 60.17914], [24.569, 60.17896], [24.56889, 60.17875], [24.56874, 60.17861], [24.56849, 60.17842], [24.56815, 60.17815], [24.56789, 60.17789], [24.5677, 60.17759], [24.5676, 60.17736], [24.5676, 60.1772], [24.56769, 60.177], [24.56779, 60.17674], [24.56782, 60.17666], [24.5679, 60.17637], [24.56793, 60.17629], [24.56795, 60.17615], [24.56795, 60.17594], [24.568, 60.17576], [24.5682, 60.17545], [24.56829, 60.17535], [24.56847, 60.17522], [24.57012, 60.17408], [24.57229, 60.17262], [24.56738, 60.16793], [24.57701, 60.16377], [24.58778, 60.1653], [24.58901, 60.16391], [24.59255, 60.15988], [24.59942, 60.15989], [24.60895, 60.15704], [24.6093, 60.15694], [24.60953, 60.15687], [24.61023, 60.15666], [24.6106, 60.15655], [24.61315, 60.1558], [24.61465, 60.15509], [24.61881, 60.15313], [24.61983, 60.15265], [24.62673, 60.1494], [24.62902, 60.14606], [24.63166, 60.1422], [24.63473, 60.1377], [24.63874, 60.1367], [24.64042, 60.13629], [24.64105, 60.13459], [24.6405, 60.13424], [24.63933, 60.13347], [24.6382, 60.13273], [24.63993, 60.13131], [24.64001, 60.13125], [24.64006, 60.13121], [24.64095, 60.13048], [24.64115, 60.13004], [24.64222, 60.12769], [24.64244, 60.1277], [24.64317, 60.12634], [24.64767, 60.11793], [24.64796, 60.11738], [24.64942, 60.11497], [24.65475, 60.10617], [24.65309, 60.10078], [24.64485, 60.09235], [24.64477, 60.09227], [24.64465, 60.09214], [24.6454, 60.09133], [24.64548, 60.09125], [24.64987, 60.08651], [24.65041, 60.08593], [24.65076, 60.08554], [24.6509, 60.08539], [24.65101, 60.08527], [24.65116, 60.08511], [24.65127, 60.08499], [24.65455, 60.08142], [24.6548, 60.08115], [24.65583, 60.08004], [24.6561, 60.07974], [24.65878, 60.07683], [24.65878, 60.07682], [24.65879, 60.07681], [24.65884, 60.07676], [24.65887, 60.07673], [24.6589, 60.07669], [24.6589, 60.07669], [24.65893, 60.07666], [24.65895, 60.07664], [24.65899, 60.07659], [24.65902, 60.07656], [24.6591, 60.07647], [24.65914, 60.07643], [24.6593, 60.07626], [24.65939, 60.07616], [24.65941, 60.07614], [24.65944, 60.0761], [24.65953, 60.076], [24.65955, 60.07598], [24.65958, 60.07596], [24.6596, 60.07593], [24.6597, 60.07583], [24.6597, 60.07582], [24.65973, 60.07579], [24.6598, 60.07571], [24.65987, 60.07564], [24.6599, 60.07561], [24.66936, 60.06457], [24.48239, 59.90179], [24.32295, 59.89819]]], [[[25.09886, 60.54643], [25.09903, 60.54633], [25.1021, 60.5446], [25.10332, 60.54392], [25.10373, 60.54362], [25.11179, 60.54614], [25.11839, 60.54808], [25.12743, 60.54512], [25.13105, 60.5426], [25.11804, 60.5354], [25.11907, 60.53483], [25.11843, 60.53515], [25.12941, 60.52888], [25.13076, 60.52816], [25.13485, 60.52586], [25.14396, 60.52073], [25.1488, 60.51784], [25.15077, 60.51673], [25.1518, 60.51614], [25.15104, 60.51626], [25.15058, 60.51641], [25.1477, 60.51205], [25.14737, 60.51214], [25.14694, 60.50987], [25.14621, 60.50972], [25.14589, 60.50914], [25.14563, 60.50905], [25.14549, 60.50892], [25.1455, 60.50868], [25.14537, 60.50858], [25.1453, 60.50845], [25.14504, 60.50846], [25.14489, 60.50841], [25.14449, 60.50842], [25.14439, 60.50838], [25.14428, 60.50834], [25.1439, 60.50813], [25.14389, 60.50802], [25.14377, 60.50798], [25.14373, 60.50798], [25.14361, 60.5079], [25.14369, 60.50783], [25.14367, 60.50765], [25.14342, 60.50751], [25.14343, 60.50745], [25.1434, 60.50741], [25.14356, 60.50738], [25.14359, 60.50733], [25.14354, 60.5073], [25.14354, 60.50723], [25.14328, 60.50711], [25.14302, 60.50706], [25.14288, 60.50708], [25.1428, 60.50701], [25.1428, 60.50686], [25.14265, 60.50684], [25.14261, 60.50678], [25.14233, 60.50672], [25.14214, 60.50658], [25.14217, 60.50646], [25.14233, 60.50631], [25.14231, 60.50625], [25.14239, 60.50611], [25.14227, 60.50591], [25.14225, 60.50586], [25.14217, 60.50566], [25.14228, 60.50542], [25.14231, 60.50524], [25.14245, 60.50495], [25.1423, 60.50469], [25.14139, 60.50477], [25.14174, 60.50599], [25.13788, 60.50626], [25.11798, 60.50763], [25.11744, 60.50575], [25.11484, 60.50545], [25.11505, 60.50576], [25.11486, 60.50609], [25.11483, 60.50623], [25.11029, 60.50448], [25.11451, 60.50232], [25.11329, 60.50229], [25.11259, 60.50221], [25.10998, 60.50171], [25.10917, 60.50148], [25.10878, 60.5012], [25.10815, 60.50013], [25.10792, 60.49993], [25.10739, 60.49963], [25.10575, 60.50013], [25.10552, 60.50004], [25.10511, 60.50034], [25.10387, 60.4999], [25.10301, 60.50017], [25.10226, 60.50048], [25.10149, 60.501], [25.10076, 60.50169], [25.10036, 60.50225], [25.10016, 60.5025], [25.09972, 60.5034], [25.0991, 60.50517], [25.099, 60.50559], [25.09887, 60.50566], [25.09848, 60.5062], [25.09781, 60.50674], [25.09851, 60.50699], [25.09774, 60.50765], [25.09852, 60.50792], [25.09797, 60.50857], [25.09662, 60.5082], [25.09654, 60.50826], [25.09916, 60.50896], [25.09774, 60.50953], [25.10059, 60.51081], [25.10091, 60.51081], [25.10115, 60.51149], [25.09493, 60.5119], [25.09368, 60.51357], [25.09173, 60.51313], [25.09245, 60.51207], [25.08859, 60.51236], [25.08645, 60.51249], [25.07192, 60.51352], [25.07158, 60.51355], [25.07068, 60.51], [25.06719, 60.51022], [25.05883, 60.51072], [25.05595, 60.51091], [25.05153, 60.51125], [25.05027, 60.51191], [25.03975, 60.51258], [25.03999, 60.51218], [25.04065, 60.51191], [25.03852, 60.51199], [25.04022, 60.51072], [25.04081, 60.51016], [25.04405, 60.50671], [25.04302, 60.50648], [25.05656, 60.48968], [25.0549, 60.48895], [25.05558, 60.48797], [25.05223, 60.4873], [25.04866, 60.48575], [25.04766, 60.48554], [25.04996, 60.48269], [25.04961, 60.48253], [25.04708, 60.48201], [25.04574, 60.48177], [25.04419, 60.48172], [25.04341, 60.48182], [25.04297, 60.48198], [25.04243, 60.48224], [25.04221, 60.48246], [25.04145, 60.48229], [25.04093, 60.48228], [25.03954, 60.47993], [25.03963, 60.47954], [25.03991, 60.47859], [25.04031, 60.47787], [25.04074, 60.47679], [25.04076, 60.47631], [25.04069, 60.47583], [25.04084, 60.47545], [25.04134, 60.47494], [25.04215, 60.47458], [25.04256, 60.4742], [25.04298, 60.47402], [25.04368, 60.47381], [25.04406, 60.47364], [25.04617, 60.47221], [25.04717, 60.47159], [25.0476, 60.47122], [25.04811, 60.47093], [25.04858, 60.47065], [25.04915, 60.47016], [25.0494, 60.47002], [25.04982, 60.46984], [25.05001, 60.46973], [25.05025, 60.46951], [25.05033, 60.46929], [25.05049, 60.4691], [25.05089, 60.46873], [25.05147, 60.46845], [25.05168, 60.46824], [25.05194, 60.4678], [25.05199, 60.46741], [25.05231, 60.46694], [25.05244, 60.46682], [25.0529, 60.46655], [25.05383, 60.46597], [25.05427, 60.46566], [25.0548, 60.46505], [25.05521, 60.46478], [25.05966, 60.46187], [25.0591, 60.46156], [25.05883, 60.46146], [25.0585, 60.4614], [25.05801, 60.46135], [25.05783, 60.46126], [25.05773, 60.46116], [25.05764, 60.46101], [25.05754, 60.46082], [25.0572, 60.46062], [25.05709, 60.46059], [25.05523, 60.46], [25.05473, 60.45985], [25.0534, 60.45924], [25.05326, 60.45912], [25.05259, 60.45893], [25.05228, 60.45893], [25.04986, 60.45899], [25.04917, 60.4589], [25.04757, 60.45874], [25.04687, 60.45867], [25.0458, 60.45845], [25.0451, 60.45802], [25.04349, 60.45754], [25.04431, 60.45603], [25.04751, 60.45458], [25.05049, 60.44865], [25.06258, 60.4465], [25.07669, 60.44506], [25.07726, 60.44497], [25.08057, 60.44445], [25.09781, 60.44404], [25.09929, 60.44456], [25.10119, 60.44451], [25.10183, 60.44293], [25.10488, 60.44329], [25.10479, 60.44367], [25.10539, 60.44383], [25.105, 60.4453], [25.12309, 60.44743], [25.1205, 60.45215], [25.13334, 60.45387], [25.13211, 60.45624], [25.12136, 60.45495], [25.12088, 60.45512], [25.12008, 60.45529], [25.11918, 60.45719], [25.11851, 60.4571], [25.11884, 60.45828], [25.14897, 60.46213], [25.14893, 60.46301], [25.1693, 60.50623], [25.22419, 60.50163], [25.26978, 60.4727], [25.28955, 60.46785], [25.28975, 60.46435], [25.28822, 60.46057], [25.29723, 60.45572], [25.32178, 60.43975], [25.34318, 60.4255], [25.36344, 60.4061], [25.36575, 60.3988], [25.36517, 60.37555], [25.41219, 60.33618], [25.46591, 60.29442], [25.51011, 60.27346], [25.52692, 60.26526], [25.48888, 60.2403], [25.49169, 60.23357], [25.47411, 60.22284], [25.37671, 60.16694], [25.19422, 60.14666], [25.21954, 60.19798], [25.20923, 60.21062], [25.20464, 60.21508], [25.20142, 60.2182], [25.20219, 60.22106], [25.20313, 60.22456], [25.20369, 60.22655], [25.20399, 60.22783], [25.20439, 60.2299], [25.22663, 60.23936], [25.2231, 60.24284], [25.22482, 60.24383], [25.22589, 60.24445], [25.22707, 60.24513], [25.23709, 60.24599], [25.24092, 60.24632], [25.24086, 60.24727], [25.24076, 60.24923], [25.24083, 60.25055], [25.23929, 60.25315], [25.23859, 60.25434], [25.23745, 60.25627], [25.23353, 60.25655], [25.23037, 60.25901], [25.22929, 60.25985], [25.2291, 60.26], [25.22886, 60.25992], [25.22734, 60.2611], [25.22763, 60.26123], [25.22821, 60.26138], [25.22857, 60.26139], [25.22978, 60.26141], [25.22994, 60.26141], [25.23023, 60.26143], [25.23061, 60.26142], [25.23066, 60.26169], [25.2307, 60.26216], [25.23158, 60.26252], [25.23256, 60.26255], [25.23189, 60.26531], [25.23208, 60.26569], [25.23188, 60.26723], [25.23447, 60.2714], [25.23485, 60.27196], [25.23761, 60.27192], [25.23965, 60.27189], [25.24031, 60.27188], [25.2406, 60.27187], [25.24161, 60.27184], [25.24328, 60.27184], [25.24299, 60.2723], [25.24567, 60.27272], [25.2509, 60.27352], [25.25133, 60.2742], [25.25174, 60.27487], [25.25176, 60.27489], [25.25211, 60.27547], [25.25229, 60.27575], [25.24669, 60.27772], [25.24612, 60.2776], [25.24413, 60.27834], [25.24478, 60.27896], [25.24708, 60.27851], [25.24712, 60.28134], [25.24711, 60.28183], [25.24733, 60.28298], [25.24597, 60.28373], [25.24387, 60.28488], [25.24478, 60.28532], [25.24583, 60.28581], [25.25389, 60.28963], [25.25129, 60.28964], [25.25157, 60.29012], [25.25129, 60.29027], [25.24793, 60.29217], [25.24556, 60.29351], [25.2507, 60.2945], [25.25281, 60.2949], [25.2545, 60.29522], [25.25289, 60.29746], [25.25115, 60.29723], [25.24947, 60.297], [25.24471, 60.29637], [25.24345, 60.29619], [25.24042, 60.29569], [25.23818, 60.29533], [25.23752, 60.29551], [25.23462, 60.29633], [25.23279, 60.29682], [25.23284, 60.29696], [25.23162, 60.29729], [25.22952, 60.29784], [25.19959, 60.29676], [25.16961, 60.31149], [25.16828, 60.31188], [25.16645, 60.31235], [25.16462, 60.31284], [25.15784, 60.31464], [25.15421, 60.31556], [25.15225, 60.3161], [25.14618, 60.32229], [25.14675, 60.33365], [25.15031, 60.33886], [25.15106, 60.33944], [25.15119, 60.33953], [25.15132, 60.33961], [25.15148, 60.33971], [25.15153, 60.33975], [25.15162, 60.33981], [25.1518, 60.33996], [25.1519, 60.34009], [25.15195, 60.34015], [25.15199, 60.34021], [25.15202, 60.34027], [25.15205, 60.34036], [25.15207, 60.34046], [25.15207, 60.34056], [25.15202, 60.34092], [25.15199, 60.34128], [25.15191, 60.3416], [25.15175, 60.34188], [25.15173, 60.34199], [25.15172, 60.34206], [25.15172, 60.34212], [25.15174, 60.34221], [25.15176, 60.34229], [25.15179, 60.34237], [25.15183, 60.34244], [25.15188, 60.34251], [25.15191, 60.34255], [25.15197, 60.34264], [25.15205, 60.34274], [25.15236, 60.34322], [25.15252, 60.3435], [25.15262, 60.34377], [25.15267, 60.34405], [25.15268, 60.34434], [25.15267, 60.34445], [25.15267, 60.34456], [25.15268, 60.34468], [25.15274, 60.34523], [25.15274, 60.34528], [25.15273, 60.34534], [25.15271, 60.34539], [25.1525, 60.34583], [25.15248, 60.34586], [25.15241, 60.34613], [25.15234, 60.34613], [25.15113, 60.34611], [25.14896, 60.34606], [25.14869, 60.34606], [25.14775, 60.34604], [25.14748, 60.34604], [25.14663, 60.34602], [25.14573, 60.34601], [25.14511, 60.346], [25.14425, 60.34598], [25.14421, 60.34598], [25.14398, 60.34598], [25.14305, 60.34596], [25.14226, 60.34595], [25.14209, 60.34595], [25.14194, 60.3472], [25.14039, 60.3472], [25.13947, 60.3472], [25.13843, 60.3472], [25.13821, 60.3472], [25.13768, 60.3472], [25.13715, 60.34719], [25.13645, 60.34719], [25.13525, 60.34719], [25.13495, 60.34719], [25.13489, 60.34733], [25.13487, 60.3474], [25.13486, 60.34742], [25.13468, 60.34788], [25.13443, 60.34849], [25.13493, 60.3488], [25.13562, 60.34923], [25.13688, 60.35001], [25.13701, 60.35009], [25.13742, 60.35034], [25.14341, 60.35407], [25.14392, 60.35439], [25.14438, 60.35468], [25.14483, 60.35496], [25.14541, 60.35532], [25.14602, 60.3557], [25.14617, 60.35579], [25.14761, 60.35669], [25.14764, 60.35671], [25.14768, 60.35674], [25.14776, 60.35678], [25.14778, 60.3568], [25.14853, 60.35727], [25.14893, 60.35751], [25.14933, 60.35777], [25.14965, 60.35796], [25.14995, 60.35815], [25.15025, 60.35835], [25.15173, 60.35928], [25.13284, 60.35913], [25.13286, 60.36086], [25.11733, 60.3611], [25.11575, 60.3646], [25.11515, 60.36453], [25.11483, 60.36523], [25.11462, 60.36569], [25.11426, 60.3657], [25.1134, 60.36572], [25.11246, 60.36575], [25.10699, 60.36587], [25.10528, 60.36592], [25.10149, 60.36601], [25.09962, 60.36606], [25.09879, 60.36609], [25.09852, 60.3661], [25.09748, 60.36612], [25.0973, 60.36613], [25.09673, 60.36614], [25.09602, 60.36616], [25.09327, 60.36623], [25.09196, 60.36626], [25.09135, 60.36628], [25.09047, 60.3663], [25.09038, 60.3663], [25.08986, 60.36638], [25.08969, 60.36641], [25.08918, 60.36649], [25.08906, 60.36651], [25.08898, 60.36653], [25.08871, 60.36657], [25.0854, 60.36711], [25.08713, 60.36828], [25.08771, 60.36868], [25.08814, 60.36897], [25.08847, 60.3692], [25.08851, 60.36922], [25.08856, 60.36925], [25.08734, 60.36944], [25.08568, 60.36969], [25.08539, 60.36974], [25.08523, 60.36976], [25.08518, 60.3702], [25.08474, 60.37025], [25.08437, 60.37028], [25.0829, 60.37044], [25.08315, 60.37069], [25.08338, 60.37095], [25.08396, 60.37156], [25.0846, 60.37221], [25.0844, 60.37229], [25.08393, 60.37249], [25.08356, 60.37263], [25.08317, 60.37279], [25.0828, 60.37294], [25.08269, 60.37298], [25.08153, 60.37346], [25.07902, 60.37448], [25.07877, 60.37391], [25.07816, 60.37327], [25.07735, 60.3736], [25.07623, 60.3729], [25.07456, 60.37398], [25.0737, 60.37384], [25.07252, 60.37355], [25.06197, 60.37056], [25.05958, 60.37155], [25.05435, 60.37373], [25.05369, 60.37338], [25.05288, 60.37345], [25.05208, 60.37287], [25.05193, 60.37286], [25.05182, 60.37285], [25.05078, 60.3722], [25.05028, 60.37111], [25.05022, 60.37094], [25.04753, 60.36983], [25.04618, 60.36927], [25.04436, 60.36851], [25.04413, 60.36842], [25.04298, 60.36794], [25.04069, 60.36934], [25.0383, 60.37081], [25.03461, 60.36945], [25.03128, 60.37158], [25.02837, 60.37053], [25.02536, 60.36941], [25.02526, 60.36937], [25.02132, 60.36792], [25.02116, 60.36786], [25.02582, 60.36483], [25.00795, 60.35892], [24.99927, 60.3565], [24.96253, 60.34964], [24.94632, 60.34827], [24.93768, 60.35035], [24.91797, 60.35622], [24.9065, 60.36481], [24.90608, 60.36504], [24.90379, 60.36633], [24.90347, 60.36652], [24.89895, 60.36906], [24.89557, 60.37096], [24.89444, 60.37161], [24.88971, 60.37458], [24.88834, 60.37543], [24.88522, 60.37737], [24.88263, 60.37897], [24.88003, 60.3806], [24.87702, 60.38248], [24.87686, 60.38247], [24.87672, 60.38246], [24.87663, 60.38246], [24.87659, 60.38246], [24.87656, 60.3825], [24.87655, 60.38251], [24.87646, 60.38261], [24.87644, 60.38262], [24.87642, 60.38264], [24.87633, 60.38272], [24.87632, 60.38273], [24.87624, 60.38279], [24.87623, 60.3828], [24.87613, 60.38287], [24.87599, 60.38296], [24.87597, 60.38297], [24.87594, 60.38299], [24.87593, 60.383], [24.87564, 60.38316], [24.87561, 60.38317], [24.87559, 60.38318], [24.87557, 60.3832], [24.87556, 60.3832], [24.87552, 60.38323], [24.8755, 60.38325], [24.87548, 60.38326], [24.87546, 60.38328], [24.87544, 60.38329], [24.87543, 60.38331], [24.87543, 60.38332], [24.87542, 60.38336], [24.87542, 60.38336], [24.87542, 60.38338], [24.87541, 60.38339], [24.87541, 60.38341], [24.87542, 60.38342], [24.87542, 60.38344], [24.87542, 60.38345], [24.87542, 60.38347], [24.87543, 60.38348], [24.87543, 60.38349], [24.87544, 60.38351], [24.87544, 60.38353], [24.87545, 60.38353], [24.87546, 60.38355], [24.87547, 60.38357], [24.8755, 60.3836], [24.8755, 60.38361], [24.87551, 60.38362], [24.87552, 60.38364], [24.87553, 60.38366], [24.87555, 60.38368], [24.87556, 60.38369], [24.87558, 60.38371], [24.87559, 60.38372], [24.8756, 60.38374], [24.87561, 60.38375], [24.87563, 60.38377], [24.87566, 60.3838], [24.87567, 60.38381], [24.87569, 60.38383], [24.87569, 60.38383], [24.87572, 60.38385], [24.87574, 60.38387], [24.87575, 60.38388], [24.87577, 60.3839], [24.87578, 60.38391], [24.87579, 60.38393], [24.87581, 60.38394], [24.87585, 60.38397], [24.87585, 60.38398], [24.8759, 60.38402], [24.87591, 60.38403], [24.87603, 60.38413], [24.87603, 60.38413], [24.87613, 60.38423], [24.87614, 60.38423], [24.87615, 60.38425], [24.87619, 60.38428], [24.87621, 60.38429], [24.87622, 60.38431], [24.87631, 60.38436], [24.87632, 60.38437], [24.87636, 60.3844], [24.87641, 60.38444], [24.87643, 60.38446], [24.8765, 60.38452], [24.8766, 60.3846], [24.8766, 60.3846], [24.87664, 60.38463], [24.87667, 60.38467], [24.87668, 60.38468], [24.8767, 60.3847], [24.87673, 60.38473], [24.87675, 60.38476], [24.87676, 60.38478], [24.87682, 60.3849], [24.87683, 60.38491], [24.8769, 60.38505], [24.87691, 60.38506], [24.87697, 60.38519], [24.87698, 60.3852], [24.87702, 60.38528], [24.87703, 60.38529], [24.87706, 60.38535], [24.87707, 60.38536], [24.8771, 60.38545], [24.8771, 60.38546], [24.87714, 60.38555], [24.87714, 60.38556], [24.87717, 60.38564], [24.87718, 60.38566], [24.87721, 60.38574], [24.87722, 60.38576], [24.87723, 60.3858], [24.87724, 60.38587], [24.87724, 60.38589], [24.87726, 60.38598], [24.87726, 60.38598], [24.87727, 60.38607], [24.87727, 60.38608], [24.87727, 60.38615], [24.87728, 60.38619], [24.87728, 60.3862], [24.87728, 60.38624], [24.87728, 60.38629], [24.87727, 60.38637], [24.87725, 60.38645], [24.87725, 60.38647], [24.87721, 60.38656], [24.87721, 60.38657], [24.87709, 60.38681], [24.87708, 60.38685], [24.87707, 60.38687], [24.87706, 60.38692], [24.87704, 60.38701], [24.87704, 60.38703], [24.87703, 60.38715], [24.87703, 60.38717], [24.87703, 60.38721], [24.87703, 60.38721], [24.87703, 60.38723], [24.87703, 60.38727], [24.87707, 60.38752], [24.8771, 60.3877], [24.87711, 60.38771], [24.87716, 60.388], [24.87717, 60.38812], [24.87717, 60.38814], [24.87717, 60.38815], [24.87717, 60.38817], [24.87716, 60.38828], [24.87716, 60.38829], [24.87713, 60.38844], [24.8771, 60.38854], [24.8771, 60.38856], [24.87709, 60.38858], [24.87702, 60.38879], [24.877, 60.38886], [24.877, 60.38888], [24.877, 60.38888], [24.87699, 60.3889], [24.87699, 60.38897], [24.87699, 60.38899], [24.877, 60.38915], [24.877, 60.38917], [24.877, 60.38918], [24.87699, 60.38927], [24.87699, 60.38933], [24.87698, 60.38935], [24.87698, 60.38936], [24.87697, 60.38938], [24.87697, 60.3894], [24.87696, 60.38942], [24.87695, 60.38943], [24.87694, 60.38946], [24.87692, 60.38949], [24.87688, 60.38955], [24.87681, 60.38963], [24.87679, 60.38966], [24.87678, 60.38967], [24.87676, 60.38969], [24.87654, 60.38995], [24.87653, 60.38996], [24.87652, 60.38997], [24.87641, 60.39011], [24.8764, 60.39012], [24.87639, 60.39014], [24.87638, 60.39015], [24.87637, 60.39016], [24.87636, 60.39018], [24.87634, 60.3902], [24.87632, 60.39021], [24.87631, 60.39023], [24.87629, 60.39024], [24.87625, 60.39027], [24.87623, 60.39029], [24.87621, 60.3903], [24.87614, 60.39034], [24.87588, 60.39049], [24.87587, 60.3905], [24.87584, 60.39051], [24.87535, 60.3908], [24.87518, 60.39089], [24.87515, 60.3909], [24.87505, 60.39095], [24.87502, 60.39097], [24.87499, 60.39098], [24.87496, 60.39099], [24.87482, 60.39104], [24.87479, 60.39105], [24.87414, 60.39128], [24.87412, 60.39129], [24.87403, 60.39133], [24.87335, 60.39162], [24.87332, 60.39163], [24.87301, 60.39175], [24.87298, 60.39177], [24.87293, 60.39179], [24.87288, 60.39182], [24.87283, 60.39184], [24.87281, 60.39186], [24.87278, 60.39187], [24.87276, 60.39188], [24.87274, 60.3919], [24.87272, 60.39191], [24.87268, 60.39195], [24.87265, 60.39198], [24.87261, 60.39203], [24.87259, 60.39204], [24.87248, 60.3922], [24.87247, 60.39221], [24.8724, 60.39229], [24.87239, 60.39231], [24.87232, 60.39237], [24.87231, 60.39239], [24.87222, 60.39247], [24.8722, 60.39248], [24.8721, 60.39256], [24.87204, 60.3926], [24.87203, 60.3926], [24.8719, 60.39269], [24.87176, 60.39277], [24.87173, 60.39279], [24.87161, 60.39285], [24.8716, 60.39286], [24.87157, 60.39287], [24.87141, 60.39294], [24.87138, 60.39295], [24.87121, 60.39302], [24.87097, 60.3931], [24.87095, 60.39311], [24.87085, 60.39314], [24.87083, 60.39315], [24.87046, 60.39326], [24.87043, 60.39327], [24.87034, 60.39331], [24.87031, 60.39332], [24.87025, 60.39334], [24.87022, 60.39335], [24.87021, 60.39336], [24.87018, 60.39337], [24.87015, 60.39338], [24.87008, 60.39342], [24.87005, 60.39344], [24.86998, 60.39348], [24.86996, 60.39349], [24.86985, 60.39356], [24.86983, 60.39358], [24.8696, 60.39374], [24.8696, 60.39374], [24.86949, 60.39381], [24.86946, 60.39383], [24.86941, 60.39385], [24.86936, 60.39388], [24.86934, 60.39389], [24.86931, 60.3939], [24.86926, 60.39393], [24.86923, 60.39394], [24.8692, 60.39395], [24.86917, 60.39396], [24.86914, 60.39397], [24.86911, 60.39398], [24.86908, 60.39399], [24.86898, 60.39401], [24.86895, 60.39402], [24.86862, 60.3941], [24.86856, 60.39412], [24.86853, 60.39412], [24.8685, 60.39413], [24.86847, 60.39414], [24.86844, 60.39415], [24.86841, 60.39416], [24.86835, 60.39418], [24.8683, 60.39421], [24.86822, 60.39424], [24.86814, 60.39428], [24.86812, 60.39429], [24.86807, 60.39432], [24.868, 60.39436], [24.86798, 60.39438], [24.86797, 60.39439], [24.86791, 60.39443], [24.86789, 60.39444], [24.86786, 60.39448], [24.86784, 60.39449], [24.8678, 60.39452], [24.86776, 60.39457], [24.86774, 60.39459], [24.86773, 60.3946], [24.86772, 60.39462], [24.8677, 60.39464], [24.86768, 60.39467], [24.86767, 60.39469], [24.86766, 60.39471], [24.86766, 60.39472], [24.86765, 60.39474], [24.86764, 60.39476], [24.86764, 60.39477], [24.86763, 60.39481], [24.86762, 60.39483], [24.86762, 60.39486], [24.86762, 60.39487], [24.86762, 60.39489], [24.86761, 60.39492], [24.86762, 60.39496], [24.86762, 60.39498], [24.86763, 60.39501], [24.86763, 60.39503], [24.86769, 60.39521], [24.8677, 60.39522], [24.8677, 60.39524], [24.86775, 60.39542], [24.86775, 60.39543], [24.86776, 60.39544], [24.86776, 60.39546], [24.86781, 60.39557], [24.86781, 60.39558], [24.8679, 60.39577], [24.8679, 60.39579], [24.86793, 60.39586], [24.86794, 60.39589], [24.86794, 60.39591], [24.86795, 60.396], [24.86796, 60.39613], [24.86796, 60.39613], [24.86797, 60.39627], [24.86796, 60.39631], [24.86796, 60.39633], [24.86796, 60.39635], [24.86796, 60.39636], [24.86795, 60.3964], [24.86792, 60.39646], [24.86791, 60.39648], [24.86791, 60.39648], [24.86791, 60.3965], [24.86791, 60.39654], [24.86791, 60.39656], [24.8679, 60.39657], [24.86789, 60.39663], [24.86789, 60.39664], [24.86788, 60.39668], [24.86783, 60.39684], [24.86783, 60.39686], [24.86774, 60.39707], [24.86774, 60.39707], [24.86774, 60.39709], [24.86768, 60.39723], [24.86765, 60.3973], [24.86764, 60.39732], [24.86762, 60.39735], [24.86759, 60.39739], [24.86758, 60.3974], [24.86756, 60.39744], [24.86754, 60.39745], [24.86749, 60.3975], [24.86748, 60.39752], [24.86747, 60.39753], [24.86747, 60.39753], [24.86745, 60.39754], [24.86743, 60.39756], [24.86741, 60.39757], [24.86739, 60.39759], [24.86735, 60.39762], [24.86725, 60.39767], [24.86723, 60.39769], [24.86721, 60.39769], [24.86718, 60.39771], [24.86703, 60.39778], [24.86687, 60.39786], [24.86684, 60.39787], [24.86653, 60.39799], [24.86651, 60.398], [24.86648, 60.39801], [24.86646, 60.39802], [24.86643, 60.39804], [24.86641, 60.39805], [24.86638, 60.39806], [24.86636, 60.39807], [24.86634, 60.39809], [24.86631, 60.3981], [24.86629, 60.39812], [24.86627, 60.39813], [24.86626, 60.39815], [24.86625, 60.39816], [24.86623, 60.39818], [24.86622, 60.3982], [24.86621, 60.39821], [24.8662, 60.39823], [24.8662, 60.39825], [24.86619, 60.39827], [24.86619, 60.39829], [24.86619, 60.3983], [24.86619, 60.39832], [24.86619, 60.39836], [24.86619, 60.39838], [24.8662, 60.39841], [24.8662, 60.39842], [24.8662, 60.39844], [24.86621, 60.39849], [24.86622, 60.39851], [24.86622, 60.39853], [24.86624, 60.39856], [24.86625, 60.39858], [24.86626, 60.3986], [24.86627, 60.39861], [24.86628, 60.39863], [24.86629, 60.39865], [24.86631, 60.39866], [24.86634, 60.39869], [24.86637, 60.39873], [24.86639, 60.39874], [24.86643, 60.39877], [24.86649, 60.39882], [24.86651, 60.39883], [24.86681, 60.39901], [24.86683, 60.39903], [24.86684, 60.39904], [24.86686, 60.39905], [24.867, 60.39916], [24.86701, 60.39916], [24.86707, 60.39921], [24.86709, 60.39922], [24.86714, 60.39925], [24.86716, 60.39926], [24.86721, 60.39929], [24.86724, 60.3993], [24.8675, 60.39943], [24.86751, 60.39943], [24.86752, 60.39944], [24.86755, 60.39945], [24.86794, 60.39965], [24.8684, 60.39987], [24.86841, 60.39988], [24.86857, 60.39995], [24.86862, 60.39998], [24.86864, 60.39999], [24.86866, 60.40001], [24.86868, 60.40002], [24.8687, 60.40004], [24.86872, 60.40005], [24.86873, 60.40006], [24.86874, 60.40008], [24.86876, 60.40009], [24.86877, 60.40011], [24.86878, 60.40013], [24.86879, 60.40014], [24.86881, 60.40018], [24.86882, 60.4002], [24.86887, 60.40032], [24.86887, 60.40033], [24.86888, 60.40034], [24.8689, 60.40038], [24.86892, 60.40039], [24.86907, 60.4006], [24.86907, 60.4006], [24.86908, 60.40062], [24.86911, 60.40065], [24.86912, 60.40069], [24.86914, 60.40072], [24.86914, 60.40074], [24.86915, 60.40076], [24.86915, 60.40078], [24.86915, 60.40079], [24.86914, 60.40081], [24.86914, 60.40082], [24.86914, 60.40084], [24.86913, 60.40086], [24.86912, 60.40087], [24.86911, 60.40089], [24.86911, 60.40091], [24.86906, 60.40098], [24.86905, 60.40099], [24.869, 60.40106], [24.86899, 60.40108], [24.86898, 60.40109], [24.86898, 60.4011], [24.86897, 60.40111], [24.86896, 60.40115], [24.86896, 60.40117], [24.86895, 60.4012], [24.86895, 60.40122], [24.86894, 60.40126], [24.86931, 60.40137], [24.89429, 60.41998], [24.8983, 60.42853], [24.9007, 60.42768], [24.90293, 60.4287], [24.89967, 60.43149], [24.90173, 60.4359], [24.90738, 60.43857], [24.91066, 60.44001], [24.91302, 60.43867], [24.91366, 60.43909], [24.91226, 60.44077], [24.93211, 60.44962], [24.93554, 60.45987], [24.92989, 60.4625], [24.93114, 60.46356], [24.93604, 60.46116], [24.93627, 60.46134], [24.9437, 60.46969], [24.96473, 60.49285], [24.96645, 60.49327], [24.96696, 60.49359], [24.96719, 60.49397], [24.96719, 60.49447], [24.9674, 60.49504], [24.96814, 60.49577], [24.96817, 60.49612], [24.96759, 60.49646], [24.96672, 60.49622], [24.96615, 60.49665], [24.96563, 60.49732], [24.96601, 60.49765], [24.96591, 60.49782], [24.96534, 60.49784], [24.96497, 60.49809], [24.96478, 60.4985], [24.96474, 60.49888], [24.96406, 60.49881], [24.96385, 60.49898], [24.96411, 60.4996], [24.9638, 60.50062], [24.96382, 60.5009], [24.96418, 60.50123], [24.96467, 60.50148], [24.96468, 60.50184], [24.96447, 60.50201], [24.96462, 60.50249], [24.96599, 60.50276], [24.96656, 60.50293], [24.96687, 60.50319], [24.96689, 60.50349], [24.96632, 60.50391], [24.96599, 60.50418], [24.96603, 60.50447], [24.96648, 60.50501], [24.96609, 60.50578], [24.96673, 60.50618], [24.96685, 60.5065], [24.9666, 60.50675], [24.96736, 60.5071], [24.96748, 60.50732], [24.96736, 60.50757], [24.96744, 60.50772], [24.96775, 60.50789], [24.96757, 60.50843], [24.96831, 60.50879], [24.96824, 60.50942], [24.96838, 60.51006], [24.96873, 60.51025], [24.9688, 60.51084], [24.96998, 60.51166], [24.97014, 60.51216], [24.97021, 60.51304], [24.97108, 60.51375], [24.9712, 60.5143], [24.97166, 60.51481], [24.97162, 60.51557], [24.97141, 60.51603], [24.97259, 60.51689], [24.97257, 60.51743], [24.97376, 60.51752], [24.97416, 60.5182], [24.97385, 60.51946], [24.97385, 60.52107], [24.97308, 60.52112], [24.97295, 60.52193], [24.97341, 60.52226], [24.9737, 60.5227], [24.97422, 60.52312], [24.9738, 60.52312], [24.97303, 60.52339], [24.9728, 60.52377], [24.97278, 60.52428], [24.97292, 60.52441], [24.97344, 60.52464], [24.97344, 60.52476], [24.97417, 60.52511], [24.95986, 60.52088], [24.95718, 60.5235], [24.95288, 60.52333], [24.94945, 60.52063], [24.95246, 60.51847], [24.94293, 60.51556], [24.93417, 60.51886], [24.94276, 60.52131], [24.93984, 60.52333], [24.9304, 60.52688], [24.92885, 60.53321], [24.9284, 60.53532], [24.92827, 60.53588], [24.92744, 60.53566], [24.92728, 60.53626], [24.92422, 60.53776], [24.92128, 60.53919], [24.91876, 60.54037], [24.91742, 60.54101], [24.91779, 60.54115], [24.9152, 60.5424], [24.91477, 60.5423], [24.91185, 60.54371], [24.91271, 60.5555], [24.96448, 60.57043], [24.96622, 60.56753], [24.96765, 60.56763], [24.96793, 60.56717], [24.96976, 60.56726], [24.97284, 60.56814], [24.97332, 60.56961], [24.97659, 60.5691], [24.97537, 60.56837], [24.98908, 60.56708], [24.98976, 60.56549], [25.02473, 60.56917], [25.02573, 60.57798], [25.03061, 60.57885], [25.03074, 60.57879], [25.03111, 60.57885], [25.03143, 60.57902], [25.03166, 60.57903], [25.03177, 60.57896], [25.03185, 60.57886], [25.03182, 60.57869], [25.03163, 60.57833], [25.03172, 60.57831], [25.03872, 60.58065], [25.09886, 60.54643]]]]}}]}