{"type":"FeatureCollection","features":[{"type":"Feature","properties":{"name":"Kämnerintie 4","address":"Kämnerintie 4","url":"https://hys.net/asuminen/kohteet/kamnerintie-4/","aalto_otaniemi_min":null,"aalto_otaniemi_40min":false},"geometry":{"type":"Point","coordinates":[25.027716,60.277833]}},{"type":"Feature","properties":{"name":"Kämnerintie 7","address":"Kämnerintie 7","url":"https://hys.net/asuminen/kohteet/kamnerintie-7/","aalto_otaniemi_min":null,"aalto_otaniemi_40min":false},"geometry":{"type":"Point","coordinates":[25.027276,60.275873]}},{"type":"Feature","properties":{"name":"Maapadontie 7","address":"Maapadontie 7","url":"https://hys.net/asuminen/kohteet/maapadontie-7/","aalto_otaniemi_min":39.2,"aalto_otaniemi_40min":true},"geometry":{"type":"Point","coordinates":[24.947126,60.230817]}},{"type":"Feature","properties":{"name":"Palovartijantie 13-17","address":"Palovartijantie 13-17","url":"https://hys.net/asuminen/kohteet/palovartijantie-13-17/","aalto_otaniemi_min":null,"aalto_otaniemi_40min":false},"geometry":{"type":"Point","coordinates":[25.03081,60.276379]}},{"type":"Feature","properties":{"name":"Maapadontie 11 – UUSI KOHDE","address":"Maapadontie 11","url":"https://hys.net/asuminen/kohteet/patolan-kulma/","aalto_otaniemi_min":38.5,"aalto_otaniemi_40min":true},"geometry":{"type":"Point","coordinates":[24.947124,60.230361]}},{"type":"Feature","properties":{"name":"Rautalammintie 5","address":"Rautalammintie 5","url":"https://hys.net/asuminen/kohteet/rautalammintie-5/","aalto_otaniemi_min":36.5,"aalto_otaniemi_40min":true},"geometry":{"type":"Point","coordinates":[24.95165,60.197572]}},{"type":"Feature","properties":{"name":"Rautalammintie 3d","address":"Rautalammintie 3d","url":"https://hys.net/asuminen/kohteet/rautalammintien-huippu/","aalto_otaniemi_min":36.8,"aalto_otaniemi_40min":true},"geometry":{"type":"Point","coordinates":[24.951877,60.197839]}}]}