{"type": "FeatureCollection", "features": [{"type": "Feature", "properties": {"name": "K-Market", "address": "Siilitie 11", "opening_hours": "Mo-Sa 07:00-23:00; Su 09:00-23:00"}, "geometry": {"type": "Point", "coordinates": [25.038777, 60.212234]}}, {"type": "Feature", "properties": {"name": "K-Market", "address": "Myllypurontie 22", "opening_hours": "Mo-Fr 07:00-23:00; Sa 08:00-23:00; Su 10:00-21:00"}, "geometry": {"type": "Point", "coordinates": [25.05954, 60.223584]}}, {"type": "Feature", "properties": {"name": "K-Citymarket", "address": "Itämerenkatu 21", "opening_hours": "24/7"}, "geometry": {"type": "Point", "coordinates": [24.910898, 60.163587]}}, {"type": "Feature", "properties": {"name": "K-Supermarket", "address": "Keinulaudankuja 4", "opening_hours": "Mo-Sa 07:00-22:00; Su 09:00-22:00"}, "geometry": {"type": "Point", "coordinates": [25.084164, 60.236326]}}, {"type": "Feature", "properties": {"name": "K-Market", "address": "Kaarelantie 14", "opening_hours": "Mo-Fr 06:30-22:00; Sa 08:00-22:00; Su 09:00-22:00"}, "geometry": {"type": "Point", "coordinates": [24.898797, 60.244379]}}, {"type": "Feature", "properties": {"name": "K-Market", "address": "Käpyläntie 8", "opening_hours": "Mo-Fr 07:00-22:00; Sa 08:00-22:00; Su 10:00-22:00"}, "geometry": {"type": "Point", "coordinates": [24.958084, 60.215984]}}, {"type": "Feature", "properties": {"name": "K-Supermarket", "address": "Mäkitorpantie 1", "opening_hours": "24/7"}, "geometry": {"type": "Point", "coordinates": [24.948005, 60.221788]}}, {"type": "Feature", "properties": {"name": "K-Market", "address": "Kraputie 2", "opening_hours": "Mo-Fr 07:00-23:00; Sa-Su 09:00-23:00"}, "geometry": {"type": "Point", "coordinates": [25.174015, 60.251036]}}, {"type": "Feature", "properties": {"name": "K-Market", "address": "Roihuvuorentie 24", "opening_hours": "Mo-Th 00:00-00:00, Fr 00:00-23:00, Sa 07:00-23:00, Su 09:00-24:00"}, "geometry": {"type": "Point", "coordinates": [25.059215, 60.201926]}}, {"type": "Feature", "properties": {"name": "K-Market", "address": "Mäkelänkatu 58-60", "opening_hours": "Mo-Fr 07:00-22:00; Sa 09:00-21:00; Su 09:00-21:00"}, "geometry": {"type": "Point", "coordinates": [24.94943, 60.19731]}}, {"type": "Feature", "properties": {"name": "K-Market", "address": "Kiskontie 22", "opening_hours": "Mo-Su 07:00-22:00"}, "geometry": {"type": "Point", "coordinates": [24.905191, 60.202325]}}, {"type": "Feature", "properties": {"name": "K-Supermarket", "address": "Minkkikuja 4", "opening_hours": "Mo-Fr 07:00-22:00; Sa-Su 09:00-21:00"}, "geometry": {"type": "Point", "coordinates": [25.079226, 60.35033]}}, {"type": "Feature", "properties": {"name": "K-Market", "address": "Mantelikuja 1", "opening_hours": "Mo-Fr 07:00-22:00; Sa 08:00-22:00; Su 09:00-22:00"}, "geometry": {"type": "Point", "coordinates": [24.804928, 60.256189]}}, {"type": "Feature", "properties": {"name": "K-Market", "address": "Mechelininkatu 19", "opening_hours": "Mo-Sa 07:00-23:00; Su 09:00-23:00"}, "geometry": {"type": "Point", "coordinates": [24.919898, 60.173009]}}, {"type": "Feature", "properties": {"name": "K-Market", "address": "Lansantie 23", "opening_hours": "Mo-Sa 07:00-23:00; Su 09:00-23:00"}, "geometry": {"type": "Point", "coordinates": [24.767997, 60.211829]}}, {"type": "Feature", "properties": {"name": "K-Market", "address": "Hämeentie 42", "opening_hours": "Mo-Fr 7:00-23:00; Sa 9:00-23:00; Su 10:00-23:00"}, "geometry": {"type": "Point", "coordinates": [24.960769, 60.185642]}}, {"type": "Feature", "properties": {"name": "K-Market", "address": "Hämeentie 31", "opening_hours": "Mo-Fr 07:00-23:00; Sa 09:00-23:00; Su 10:00-23:00"}, "geometry": {"type": "Point", "coordinates": [24.963414, 60.187732]}}, {"type": "Feature", "properties": {"name": "K-Market", "address": "Merivalkama 2", "opening_hours": "Mo-Fr 06:30-23:00;Sa 07:00-22:00, Su 09:00-22:00"}, "geometry": {"type": "Point", "coordinates": [24.635344, 60.154258]}}, {"type": "Feature", "properties": {"name": "K-Supermarket", "address": "Raumantie 1", "opening_hours": "Mo-Fr 6:30-22:00, Sa 6:30-21:00, Su 10:00-21"}, "geometry": {"type": "Point", "coordinates": [24.87711, 60.205834]}}, {"type": "Feature", "properties": {"name": "K-Market", "address": "Eerikinkatu 39", "opening_hours": "Mo-Sa 07:00-24:00; Su 08:00-24:00"}, "geometry": {"type": "Point", "coordinates": [24.926194, 60.16422]}}, {"type": "Feature", "properties": {"name": "K-Market", "address": "Toppelundinportti 3", "opening_hours": "Mo-Sa 07:00-21:00, Sa 08:00-21:00, Su 12:00-21:00"}, "geometry": {"type": "Point", "coordinates": [24.785904, 60.161965]}}, {"type": "Feature", "properties": {"name": "K-Market", "address": "Isokaari 42", "opening_hours": "Mo-Fr 07:00-23:00; Sa-Su 09:00-23:00"}, "geometry": {"type": "Point", "coordinates": [24.859582, 60.161228]}}, {"type": "Feature", "properties": {"name": "K-Market", "address": "Isokaari 9", "opening_hours": "Mo-Sa 07:00-23:00; Su 09:00-23:00"}, "geometry": {"type": "Point", "coordinates": [24.868497, 60.157035]}}, {"type": "Feature", "properties": {"name": "K-Supermarket", "address": "Kiviaidankatu 2", "opening_hours": "Mo-Fr 7:00-21:00; Sa 7:00-20:00; Su 10:00-18:00"}, "geometry": {"type": "Point", "coordinates": [24.883337, 60.153754]}}, {"type": "Feature", "properties": {"name": "K-Market", "address": "Tykistönkatu 7", "opening_hours": "Mo-Fr 07:00-22:00; Sa 09:00-21:00; Su 09:00-21:00"}, "geometry": {"type": "Point", "coordinates": [24.925345, 60.179339]}}, {"type": "Feature", "properties": {"name": "K-Supermarket", "address": "Kamreerintie 3", "opening_hours": "Mo-Fr 07:00-22:00; Sa 08:00-22:00; Su 10:00-22:00"}, "geometry": {"type": "Point", "coordinates": [24.656482, 60.204095]}}, {"type": "Feature", "properties": {"name": "K-Market", "address": "Aino Acktén tie 8", "opening_hours": "Mo-Fr 07:00-22:00; Sa 08:00-22:00; Su 10:00-22:00"}, "geometry": {"type": "Point", "coordinates": [24.895156, 60.22584]}}, {"type": "Feature", "properties": {"name": "K-Supermarket", "address": "Sinikalliontie 1", "opening_hours": "Mo-Fr 07:00-22:00; Sa 08:00-22:00; Su 10:00-22:00"}, "geometry": {"type": "Point", "coordinates": [24.767304, 60.204687]}}, {"type": "Feature", "properties": {"name": "K-Supermarket", "address": "Urho Kekkosen katu 1 A 24", "opening_hours": "Mo-Fr 06:30-22:00; Sa 07:00-22:00; Su 10:00-22:00"}, "geometry": {"type": "Point", "coordinates": [24.932881, 60.169511]}}, {"type": "Feature", "properties": {"name": "K-Market", "address": "Klaneettitie 7", "opening_hours": "Mo-Fr 06:30-23:00; Sa 08:00-23:00; Su 09:00-23:00"}, "geometry": {"type": "Point", "coordinates": [24.87519, 60.239211]}}, {"type": "Feature", "properties": {"name": "K-Supermarket", "address": "Autoasemankatu 1", "opening_hours": "Mo-Fr 07:00-22:00; Sa-Su 08:00-22:00"}, "geometry": {"type": "Point", "coordinates": [25.031035, 60.402952]}}, {"type": "Feature", "properties": {"name": "K-Market", "address": "Kaskipiha 1", "opening_hours": "Mo-Fr 07:00-21:00; Sa 08:00-21:00; Su 09:00-21:00"}, "geometry": {"type": "Point", "coordinates": [24.65624, 60.176721]}}, {"type": "Feature", "properties": {"name": "K-Market", "address": "Moukarinkuja 2", "opening_hours": "Mo-Fr 07:00-21:00; Sa 09:00-21:00; Su 10:00-18:00"}, "geometry": {"type": "Point", "coordinates": [25.022918, 60.388321]}}, {"type": "Feature", "properties": {"name": "K-Market", "address": "Sokinsuontie 4", "opening_hours": "Mo-Sa 07:00-22:00, Su 09:00-22:00"}, "geometry": {"type": "Point", "coordinates": [24.670019, 60.200431]}}, {"type": "Feature", "properties": {"name": "K-Citymarket", "address": "Malminkaari 19", "opening_hours": "Mo-Sa 07:00-23:00; Su 09:00-23:00"}, "geometry": {"type": "Point", "coordinates": [25.014484, 60.25201]}}, {"type": "Feature", "properties": {"name": "K-Market", "address": "Eino Leinon katu 7", "opening_hours": "Mo-Fr 07:00-22:00; Sa 08:00-22:00; Su 10:00-22:00"}, "geometry": {"type": "Point", "coordinates": [24.918584, 60.183922]}}, {"type": "Feature", "properties": {"name": "K-Market", "address": "Puistolantori 1", "opening_hours": "Mo-Fr 07:00-22:00; Sa 08:00-21:00; Su 09:00-21:00"}, "geometry": {"type": "Point", "coordinates": [25.045079, 60.274621]}}, {"type": "Feature", "properties": {"name": "K-Market", "address": "Sturenkatu 40", "opening_hours": "Mo-Fr 07:00-23:00; Sa 08:00-23:00; Su 10:00-23:00"}, "geometry": {"type": "Point", "coordinates": [24.960083, 60.196257]}}, {"type": "Feature", "properties": {"name": "K-Market", "address": "Nummitie 2", "opening_hours": "Mo-Fr 06:30-22:00; Sa 08:00-22:00; Su 09:00-22:00"}, "geometry": {"type": "Point", "coordinates": [25.063936, 60.269352]}}, {"type": "Feature", "properties": {"name": "K-Market", "address": "Albertinkatu 15", "opening_hours": "Mo-Fr 07:00-22:00; Sa 08:00-22:00; Su 09:00-21:00"}, "geometry": {"type": "Point", "coordinates": [24.937405, 60.161575]}}, {"type": "Feature", "properties": {"name": "K-Market", "address": "Rauhankatu 9", "opening_hours": "Mo-Fr 07:00-22:00; Sa 08:00-22:00; Su 10:00-22:00"}, "geometry": {"type": "Point", "coordinates": [24.956896, 60.171758]}}, {"type": "Feature", "properties": {"name": "K-Market", "address": "Asemapäällikönkatu 3", "opening_hours": "Mo-Fr 07:00-22:00; Sa 08:00-22:00; Su 10:00-21:00"}, "geometry": {"type": "Point", "coordinates": [24.941612, 60.199158]}}, {"type": "Feature", "properties": {"name": "K-Market", "address": "Lintuvaarantie 33", "opening_hours": "Mo-Fr 07:00-22:00; Sa,Su 09:00-22:00"}, "geometry": {"type": "Point", "coordinates": [24.814428, 60.228899]}}, {"type": "Feature", "properties": {"name": "K-Market", "address": "Marsinrinne 8", "opening_hours": "Mo-Fr 07:00-22:00; Sa 08:00-22:00; Su 09:00-22:00"}, "geometry": {"type": "Point", "coordinates": [25.096575, 60.341546]}}, {"type": "Feature", "properties": {"name": "K-Market", "address": "Liisankatu 19", "opening_hours": "Mo-Fr 07:00-23:00; Sa,Su 09:00-23:00"}, "geometry": {"type": "Point", "coordinates": [24.954039, 60.174207]}}, {"type": "Feature", "properties": {"name": "K-Supermarket", "address": "Hämeentie 111", "opening_hours": "Mo-Sa 07:00-22:00; Su 10:00-22:00"}, "geometry": {"type": "Point", "coordinates": [24.968899, 60.202961]}}, {"type": "Feature", "properties": {"name": "K-Citymarket", "address": "Tammiston kauppatie 9", "opening_hours": "24/7"}, "geometry": {"type": "Point", "coordinates": [24.972885, 60.273363]}}, {"type": "Feature", "properties": {"name": "K-Market", "address": "Rekolantie 53-55", "opening_hours": "Mo-Fr 07:00-22:00; Sa 08:00-22:00; Su 10:00-22:00"}, "geometry": {"type": "Point", "coordinates": [25.073411, 60.33042]}}, {"type": "Feature", "properties": {"name": "K-Market", "address": "Porvoonkatu 19", "opening_hours": "Mo-Fr 07:00-22:00; Sa 08:00-22:00; Su 10:00-22:00"}, "geometry": {"type": "Point", "coordinates": [24.946087, 60.190866]}}, {"type": "Feature", "properties": {"name": "K-Market", "address": "Maatullinaukio 1", "opening_hours": "Mo-Fr 07:00-22:00; Sa 08:00-21:00; Su 09:00-21:00"}, "geometry": {"type": "Point", "coordinates": [25.034577, 60.274989]}}, {"type": "Feature", "properties": {"name": "K-Supermarket", "address": "Pallaksentie 2", "opening_hours": "Mo-Fr 07:00-21:00; Sa 08:00-21:00; Su 10:00-21:00"}, "geometry": {"type": "Point", "coordinates": [25.110581, 60.238096]}}, {"type": "Feature", "properties": {"name": "K-Market", "address": "Pietarinkatu 5", "opening_hours": "Mo-Sa 07:00-22:00; Su 09:00-22:00"}, "geometry": {"type": "Point", "coordinates": [24.949754, 60.15767]}}, {"type": "Feature", "properties": {"name": "K-Market", "address": "Leikosaarentie 48", "opening_hours": "Mo-Fr 08:00-23:00, Sa-Su 9:00-23:00"}, "geometry": {"type": "Point", "coordinates": [25.155815, 60.205309]}}, {"type": "Feature", "properties": {"name": "K-Citymarket", "address": "Viirintie 9", "opening_hours": "Mo-Sa 07:00-21:00; Su 09:00-21:00"}, "geometry": {"type": "Point", "coordinates": [24.758685, 60.378069]}}, {"type": "Feature", "properties": {"name": "K-Market", "address": "Hämeentie 155", "opening_hours": "Mo-Fr 06:30-23:00; Sa 08:00-23:00; Su 08:00-22:00"}, "geometry": {"type": "Point", "coordinates": [24.978492, 60.212046]}}, {"type": "Feature", "properties": {"name": "K-Market", "address": "Liikekuja 1", "opening_hours": "Mo-Sa 07:00-21:00; Su 09:00-21:00"}, "geometry": {"type": "Point", "coordinates": [24.751837, 60.38087]}}, {"type": "Feature", "properties": {"name": "K-Market", "address": "Riskiläkuja 2", "opening_hours": "Mo-Fr 07:00-22:00; Sa 08:00-22:00; Su 09:00-21:00"}, "geometry": {"type": "Point", "coordinates": [25.049859, 60.354766]}}, {"type": "Feature", "properties": {"name": "K-Supermarket", "address": "Laukkarinne 4", "opening_hours": "Mo-Fr 07:00-22:00; Sa 08:00-21:00; Su 09:00-21:00"}, "geometry": {"type": "Point", "coordinates": [25.104738, 60.278616]}}, {"type": "Feature", "properties": {"name": "K-Market", "address": "Haarikkotie 1", "opening_hours": "Mo-Fr 08:00-21:00; Sa 09:00-21:00; Su 11:00-20:00"}, "geometry": {"type": "Point", "coordinates": [25.046688, 60.303157]}}, {"type": "Feature", "properties": {"name": "K-Market", "address": "Kurjenkellonkuja 2", "opening_hours": "Mo-Fr 07:00-22:00; Sa 08:00-22:00; Su 10:00-21:00"}, "geometry": {"type": "Point", "coordinates": [25.072754, 60.229318]}}, {"type": "Feature", "properties": {"name": "K-Supermarket", "address": "Peltolantie 1", "opening_hours": "Mo-Su 06:00-24:00"}, "geometry": {"type": "Point", "coordinates": [25.031784, 60.294025]}}, {"type": "Feature", "properties": {"name": "K-Market", "address": "Uomatie 15", "opening_hours": "Mo-Fr 08:00-22:00; Sa 09:00-21:00; Su 11:00-21:00"}, "geometry": {"type": "Point", "coordinates": [24.845977, 60.269968]}}, {"type": "Feature", "properties": {"name": "K-Market", "address": "Naapurinkuja 2", "opening_hours": "Mo-Fr 07:00-22:00; Sa,Su 09:00-22:00"}, "geometry": {"type": "Point", "coordinates": [24.871838, 60.283829]}}, {"type": "Feature", "properties": {"name": "K-Market", "address": "Jousimiehentie 3", "opening_hours": "Mo-Fr 08:00-21:00; Sa 08:00-21:00; Su 10:00-21:00"}, "geometry": {"type": "Point", "coordinates": [24.989233, 60.274896]}}, {"type": "Feature", "properties": {"name": "K-Market", "address": "Simonkyläntie 11", "opening_hours": "Mo-Fr 07:30-21:00; Sa,Su 09:00-21:00"}, "geometry": {"type": "Point", "coordinates": [25.017214, 60.312841]}}, {"type": "Feature", "properties": {"name": "K-Market", "address": "Kielotie 29", "opening_hours": ""}, "geometry": {"type": "Point", "coordinates": [25.04044, 60.300861]}}, {"type": "Feature", "properties": {"name": "K-Market", "address": "Von Daehnin katu 1", "opening_hours": "Mo-Fr 06:30-23:00; Sa 08:00-23:00; Su 09:00-23:00"}, "geometry": {"type": "Point", "coordinates": [25.047209, 60.232556]}}, {"type": "Feature", "properties": {"name": "K-Market", "address": "Laaksolahdentie 41", "opening_hours": "Mo-Sa 07:00-23:00; Su 09:00-23:00"}, "geometry": {"type": "Point", "coordinates": [24.767545, 60.247943]}}, {"type": "Feature", "properties": {"name": "K-Market", "address": "Iso Roobertinkatu 20-22", "opening_hours": "Mo-Fr 7:00-22:00; Sa 9:00-21:00; Su 12:00-20:00"}, "geometry": {"type": "Point", "coordinates": [24.941146, 60.163032]}}, {"type": "Feature", "properties": {"name": "K-Citymarket", "address": "Iskoskuja 3", "opening_hours": "Mo-Sa 06:00-24:00; Su 09:00-24:00"}, "geometry": {"type": "Point", "coordinates": [24.854182, 60.25986]}}, {"type": "Feature", "properties": {"name": "K-Market", "address": "Paasikivenkatu 13", "opening_hours": "Mo-Fr 06:30-21:00; Sa 08:00-21:00; Su 10:00-21:00"}, "geometry": {"type": "Point", "coordinates": [25.104072, 60.405448]}}, {"type": "Feature", "properties": {"name": "K-Supermarket", "address": "Soukantie 16", "opening_hours": "Mo-Sa 07:00-22:00; Su 09:00-21:00"}, "geometry": {"type": "Point", "coordinates": [24.670173, 60.142052]}}, {"type": "Feature", "properties": {"name": "K-Citymarket", "address": "Asemankulma 2", "opening_hours": "Mo-Sa 07:00-22:00; Su 09:00-22:00"}, "geometry": {"type": "Point", "coordinates": [24.44405, 60.120566]}}, {"type": "Feature", "properties": {"name": "K-Market", "address": "Mannerheimintie 70", "opening_hours": "Mo-Fr 07:00-21:00; Sa 09:00-21:00; Su 10:00-21:00"}, "geometry": {"type": "Point", "coordinates": [24.92416, 60.183258]}}, {"type": "Feature", "properties": {"name": "K-Market", "address": "Tehtaankatu 1", "opening_hours": "Mo-Fr 7:00-22:00; Sa 9:00-22:00; Su 10:00-22:00"}, "geometry": {"type": "Point", "coordinates": [24.955073, 60.159697]}}, {"type": "Feature", "properties": {"name": "K-Supermarket", "address": "Lammaslammentie 9", "opening_hours": "Mo-Fr 07:00-22:00; Sa 08:00-22:00; Su 09:00-22:00"}, "geometry": {"type": "Point", "coordinates": [24.804449, 60.26209]}}, {"type": "Feature", "properties": {"name": "K-Market", "address": "Eskolantie 2", "opening_hours": "Mo-Fr 06:30-22:00; Su 09:00-22:00; Sa 08:00-22:00"}, "geometry": {"type": "Point", "coordinates": [24.993622, 60.243649]}}, {"type": "Feature", "properties": {"name": "K-Market", "address": "Iivisniemenkatu 3", "opening_hours": "Mo-Fr 06:00-22:00; Sa 08:00-22:00; Su 10:00-22:00"}, "geometry": {"type": "Point", "coordinates": [24.691607, 60.14898]}}, {"type": "Feature", "properties": {"name": "K-Supermarket", "address": "Pohjolantie 2", "opening_hours": "Mo-Fr 06:30-22:00, Sa 08:00-22:00, Su 09:00-21:00"}, "geometry": {"type": "Point", "coordinates": [25.103339, 60.297855]}}, {"type": "Feature", "properties": {"name": "K-Supermarket", "address": "Konstaapelinkatu 4", "opening_hours": "Mo-Fr 06:00-22:00; Sa 08:00-22:00; Su 10:00-22:00"}, "geometry": {"type": "Point", "coordinates": [24.812538, 60.221274]}}, {"type": "Feature", "properties": {"name": "K-Citymarket", "address": "Leppävaarankatu 3-9", "opening_hours": "Mo-Fr 07:00-22:00; Sa 07:00-21:00; Su 10:00-21:00"}, "geometry": {"type": "Point", "coordinates": [24.809951, 60.217826]}}, {"type": "Feature", "properties": {"name": "K-Market", "address": "Leppävaarankatu 3-9", "opening_hours": "Mo-Fr 06:00-22:00; Sa 08:00-22:00; Su 11:00-22:00"}, "geometry": {"type": "Point", "coordinates": [24.813515, 60.21871]}}, {"type": "Feature", "properties": {"name": "K-Market", "address": "Haapaniemenkatu 14", "opening_hours": "Mo-Fr 07:00-22:00; Sa 08:00-22:00; Su 10:00-22:00"}, "geometry": {"type": "Point", "coordinates": [24.961003, 60.179518]}}, {"type": "Feature", "properties": {"name": "K-Market", "address": "Savelantie 11", "opening_hours": "Mo-Fr 07:00-21:00; Sa 08:00-21:00; Su 09:00-21:00"}, "geometry": {"type": "Point", "coordinates": [24.991699, 60.239314]}}, {"type": "Feature", "properties": {"name": "K-Market", "address": "Munkkiniemen puistotie 19", "opening_hours": "Mo-Fr 07:00-22:00; Sa 08:00-22:00; Su 10:00-21:00"}, "geometry": {"type": "Point", "coordinates": [24.877504, 60.198155]}}, {"type": "Feature", "properties": {"name": "K-Market", "address": "Itämerenkatu 14", "opening_hours": "Mo-Fr 06:30-23:00; Sa 09:00-22:00; Su 11:00-22:00"}, "geometry": {"type": "Point", "coordinates": [24.914547, 60.162856]}}, {"type": "Feature", "properties": {"name": "K-Market", "address": "Fredrikinkatu 40", "opening_hours": "Mo-Fr 07:00-24:00; Sa 08:00-24:00; Su 11:00-21:00"}, "geometry": {"type": "Point", "coordinates": [24.933486, 60.166707]}}, {"type": "Feature", "properties": {"name": "K-Market", "address": "Paciuksenkatu 25", "opening_hours": "Mo-Fr 07:00-22:00; Sa 09:00-22:00; Su 09:00-22:00"}, "geometry": {"type": "Point", "coordinates": [24.892333, 60.195088]}}, {"type": "Feature", "properties": {"name": "K-Market", "address": "Laivalahdenkaari 29", "opening_hours": "Mo-Su 06:30-23:00"}, "geometry": {"type": "Point", "coordinates": [25.030891, 60.18696]}}, {"type": "Feature", "properties": {"name": "K-Supermarket", "address": "Mannerheimintie 160", "opening_hours": "Mo-Fr 07:00-22:00; Sa 08:00-21:00; Su 09:00-21:00"}, "geometry": {"type": "Point", "coordinates": [24.900363, 60.197568]}}, {"type": "Feature", "properties": {"name": "K-Market", "address": "Hämeentie 16", "opening_hours": "Mo-Sa 07:00-23:00; Su 10:00-23:00"}, "geometry": {"type": "Point", "coordinates": [24.954861, 60.181861]}}, {"type": "Feature", "properties": {"name": "K-Market", "address": "Louhentie 2", "opening_hours": "Mo-Sa 07:00-22:00; Su 09:00-22:00"}, "geometry": {"type": "Point", "coordinates": [24.793739, 60.183172]}}, {"type": "Feature", "properties": {"name": "K-Citymarket", "address": "Vantaanportinkatu 3", "opening_hours": "Mo-Su 07:00-23:00"}, "geometry": {"type": "Point", "coordinates": [24.965522, 60.29061]}}, {"type": "Feature", "properties": {"name": "K-Market", "address": "Louhelantie 3", "opening_hours": "Mo-Fr 07:00-21:00; Sa 09:00-21:00; Su 12:00-21:00"}, "geometry": {"type": "Point", "coordinates": [24.856319, 60.27108]}}, {"type": "Feature", "properties": {"name": "K-Market", "address": "Välimerenkatu 5", "opening_hours": "Mo-Sa 07:00-24:00; Su 09:00-24:00"}, "geometry": {"type": "Point", "coordinates": [24.919576, 60.160318]}}, {"type": "Feature", "properties": {"name": "K-Market", "address": "Asematunneli", "opening_hours": "Su 10:00-22:00; Mo-Fr 06:30-22:00; Sa 07:00-22:00"}, "geometry": {"type": "Point", "coordinates": [24.940744, 60.17059]}}, {"type": "Feature", "properties": {"name": "K-Market", "address": "Mannerheimintie 94", "opening_hours": "Mo-Fr 07:00-23:00; Sa 08:00-23:00; Su 10:00-23:00"}, "geometry": {"type": "Point", "coordinates": [24.918532, 60.187573]}}, {"type": "Feature", "properties": {"name": "K-Supermarket", "address": "Kiviparintie 2", "opening_hours": "Mo-Fr 06:30-22:00; Sa 07:00-22:00; Su 08:00-21:00"}, "geometry": {"type": "Point", "coordinates": [25.073215, 60.224326]}}, {"type": "Feature", "properties": {"name": "K-Market", "address": "Lapuankatu 4", "opening_hours": "Mo-Fr 07:00-23:00; Sa 08:00-23:00; Su 09:00-23:00"}, "geometry": {"type": "Point", "coordinates": [24.923376, 60.170089]}}, {"type": "Feature", "properties": {"name": "K-Market", "address": "Junonkatu 2", "opening_hours": "Mo-Fr 07:00-23:00; Sa 08:00-23:00; Su 09:00-23:00"}, "geometry": {"type": "Point", "coordinates": [24.98108, 60.185015]}}, {"type": "Feature", "properties": {"name": "K-Market", "address": "Tuusulantie 76", "opening_hours": "Mo-Fr 07:00-21:00; Sa 08:00-21:00; PH,Su 11:00-21:00"}, "geometry": {"type": "Point", "coordinates": [25.077652, 60.409775]}}, {"type": "Feature", "properties": {"name": "K-Market", "address": "Lönnrotinkatu 12", "opening_hours": "Mo-Sa 07:00-24:00; Su 09:00-21:00"}, "geometry": {"type": "Point", "coordinates": [24.936756, 60.165638]}}, {"type": "Feature", "properties": {"name": "K-Market", "address": "Lippajärventie 29-31", "opening_hours": "Mo-Fr 07:00-22:00; Sa 08:00-22:00; Su Mo-Fr 10:00-22:00; "}, "geometry": {"type": "Point", "coordinates": [24.716154, 60.229706]}}, {"type": "Feature", "properties": {"name": "K-Market", "address": "Hagelstamintie 26", "opening_hours": "Mo-Fr 07:00-22:00; Sa 08:00-22:00; Su 10:00-22:00"}, "geometry": {"type": "Point", "coordinates": [24.966704, 60.281276]}}, {"type": "Feature", "properties": {"name": "K-Supermarket", "address": "Elielinaukio 2 G", "opening_hours": "Mo-Sa 06:30-23:00; Su 09:00-23:00"}, "geometry": {"type": "Point", "coordinates": [24.938405, 60.171268]}}, {"type": "Feature", "properties": {"name": "K-Supermarket", "address": "Kaskikylänkuja 2", "opening_hours": "Mo-Fr 06:30-21:00; Sa 07:00-21:00; Su 09:00-21:00"}, "geometry": {"type": "Point", "coordinates": [25.273418, 60.377236]}}, {"type": "Feature", "properties": {"name": "K-Market", "address": "Tapulikaupungintie 39", "opening_hours": "Mo-Sa 07:00-23:00; Su 09:00-23:00"}, "geometry": {"type": "Point", "coordinates": [25.01206, 60.279997]}}, {"type": "Feature", "properties": {"name": "K-Supermarket", "address": "Finnoonlaaksontie 9", "opening_hours": "Mo-Fr 8:00-21:00; Sa 08:00-20:00; Su 10:00-20:00"}, "geometry": {"type": "Point", "coordinates": [24.70615, 60.163192]}}, {"type": "Feature", "properties": {"name": "K-Market", "address": "Eteläesplanadi 20", "opening_hours": "24/7"}, "geometry": {"type": "Point", "coordinates": [24.945284, 60.16701]}}, {"type": "Feature", "properties": {"name": "K-Market", "address": "Töölönkatu 49", "opening_hours": "Mo-Fr 07:00-23:00; Sa 09:00-22:00; Su 10:00-22:00"}, "geometry": {"type": "Point", "coordinates": [24.920686, 60.18359]}}, {"type": "Feature", "properties": {"name": "K-Supermarket", "address": "Tapionaukio 4", "opening_hours": "Mo-Fr 07:00-22:00; Sa 07:00-21:00; Su 10:00-21:00"}, "geometry": {"type": "Point", "coordinates": [24.805012, 60.175951]}}, {"type": "Feature", "properties": {"name": "K-Market", "address": "Mäkelänkatu 87", "opening_hours": "Mo-Fr 07:00-22:00; Sa-Su 09:00-22:00"}, "geometry": {"type": "Point", "coordinates": [24.945822, 60.209179]}}, {"type": "Feature", "properties": {"name": "K-Market", "address": "Salomonkatu 17", "opening_hours": "Mo-Fr 06:30-23:00; Sa 08:00-23:00, Su 10:00-23:00"}, "geometry": {"type": "Point", "coordinates": [24.9294, 60.16874]}}, {"type": "Feature", "properties": {"name": "K-Market", "address": "Arabiankatu 6", "opening_hours": "Mo-Fr 07:00-23:00; Sa 08:00-23:00; Su 10:00-23:00"}, "geometry": {"type": "Point", "coordinates": [24.977294, 60.207493]}}, {"type": "Feature", "properties": {"name": "K-Market", "address": "Kivenlahdenkatu 1", "opening_hours": "Mo-Fr 06:30-22:00; Sa 09:00-22:00; Su 10:00-22:00"}, "geometry": {"type": "Point", "coordinates": [24.631354, 60.155727]}}, {"type": "Feature", "properties": {"name": "K-Market", "address": "Retkeilijänkatu 3", "opening_hours": "Mo-Sa 07:00-23:00; Su 09:00-23:00"}, "geometry": {"type": "Point", "coordinates": [25.120926, 60.205793]}}, {"type": "Feature", "properties": {"name": "K-Market", "address": "Ruusukvartsinkatu 6", "opening_hours": "Mo-Fr 07:00-24:00; Sa 07:00-24:00; Su 09:00-24:00"}, "geometry": {"type": "Point", "coordinates": [24.849624, 60.317597]}}, {"type": "Feature", "properties": {"name": "K-Supermarket", "address": "Pohjoinen Hesperiankatu 33", "opening_hours": "Mo-Sa 08:00-21:00; Su 10:00-21:00"}, "geometry": {"type": "Point", "coordinates": [24.916226, 60.176753]}}, {"type": "Feature", "properties": {"name": "K-Supermarket", "address": "Lähderannantie 22", "opening_hours": "Mo-Fr 07:00-22:00; Sa 08:00-22:00; Su 10:00-22:00"}, "geometry": {"type": "Point", "coordinates": [24.74033, 60.239703]}}, {"type": "Feature", "properties": {"name": "K-Market", "address": "Erottajankatu 7", "opening_hours": "Mo-Fr 07:00-23:00, Sa 09:00-23:00, Su 10:00-23:00"}, "geometry": {"type": "Point", "coordinates": [24.944271, 60.164828]}}, {"type": "Feature", "properties": {"name": "K-Citymarket", "address": "Tyynylaavantie 5", "opening_hours": "Mo-Sa 07:00-23:00; Su 09:00-23:00"}, "geometry": {"type": "Point", "coordinates": [25.145647, 60.207952]}}, {"type": "Feature", "properties": {"name": "K-Market", "address": "Rekipellontie 2", "opening_hours": "Mo-Fr 07:00-21:00; Su 09:00-21:00; Sa 08:00-21:00"}, "geometry": {"type": "Point", "coordinates": [25.100315, 60.238287]}}, {"type": "Feature", "properties": {"name": "K-Supermarket", "address": "Lauttasaarentie 28", "opening_hours": "Mo-Sa 07:00-22:00; Su 09:00-22:00"}, "geometry": {"type": "Point", "coordinates": [24.880743, 60.159829]}}, {"type": "Feature", "properties": {"name": "K-Market", "address": "Asematie 4", "opening_hours": "Mo-Fr 07:00-21:00; Sa 08:00-21:00; Su 12:00-18:00"}, "geometry": {"type": "Point", "coordinates": [25.041791, 60.291911]}}, {"type": "Feature", "properties": {"name": "K-Market", "address": "Pohjoinen Rautatiekatu 30", "opening_hours": "Mo-Fr 07:00-23:00; Sa 08:00-23:00; Su 09:00-23:00"}, "geometry": {"type": "Point", "coordinates": [24.922756, 60.167842]}}, {"type": "Feature", "properties": {"name": "K-Supermarket", "address": "Kivivuorentie 4", "opening_hours": "Mo-Fr 06:30-22:00; Sa 08:00-21:00; Su 09:00-21:00"}, "geometry": {"type": "Point", "coordinates": [24.854169, 60.278715]}}, {"type": "Feature", "properties": {"name": "K-Market", "address": "Ruskatie 1", "opening_hours": "Mo-Fr 07:00-22:00; Sa 08:00-22:00; Su 10:00-21:00"}, "geometry": {"type": "Point", "coordinates": [24.740488, 60.305079]}}, {"type": "Feature", "properties": {"name": "K-Market", "address": "Albertinkatu 27", "opening_hours": "Mo-Fr 07:00-24:00; Sa 07:00-24:00; Su 10:00-24:00"}, "geometry": {"type": "Point", "coordinates": [24.933498, 60.164401]}}, {"type": "Feature", "properties": {"name": "K-Citymarket", "address": "Gotlanninkatu 13", "opening_hours": "24/7"}, "geometry": {"type": "Point", "coordinates": [25.086394, 60.209789]}}, {"type": "Feature", "properties": {"name": "K-Supermarket", "address": "Kynäkatu 6", "opening_hours": "Mo-Sa 08:00-22:00; Su 10:00-22:00"}, "geometry": {"type": "Point", "coordinates": [24.746859, 60.186419]}}, {"type": "Feature", "properties": {"name": "K-Market", "address": "Otaniementie 12", "opening_hours": "Mo-Fr 07:00-23:00; Sa,Su 09:00-23:00"}, "geometry": {"type": "Point", "coordinates": [24.824925, 60.18491]}}, {"type": "Feature", "properties": {"name": "K-Market", "address": "Ratatie 11", "opening_hours": "Mo-Fr 06:00-24:00; Sa 07:00-24:00; Su 09:00-24:00"}, "geometry": {"type": "Point", "coordinates": [25.043479, 60.292172]}}, {"type": "Feature", "properties": {"name": "K-Supermarket", "address": "Hermannin rantatie 5", "opening_hours": "Mo-Sa 08:00-21:00; Su 10:00-21:00"}, "geometry": {"type": "Point", "coordinates": [24.977795, 60.186932]}}, {"type": "Feature", "properties": {"name": "K-Market", "address": "Hermannin rantatie 5", "opening_hours": "Mo-Fr 06:00-23:00; Sa 08:00-23:00; Su 11:00-23:00"}, "geometry": {"type": "Point", "coordinates": [24.979682, 60.187602]}}, {"type": "Feature", "properties": {"name": "K-Market", "address": "Väritehtaankatu 8", "opening_hours": "Mo-Fr 06:30-22:00; Sa 09:00-21:00; Su 10:00-21:00"}, "geometry": {"type": "Point", "coordinates": [25.04655, 60.292786]}}, {"type": "Feature", "properties": {"name": "K-Market", "address": "Satamakatu 3", "opening_hours": "Mo-Fr 07:00-22:00; Sa 08:00-22:00; Su 09:00-22:00"}, "geometry": {"type": "Point", "coordinates": [24.962208, 60.167451]}}, {"type": "Feature", "properties": {"name": "K-Supermarket", "address": "Firdonkatu 2", "opening_hours": "Mo-Fr 07:00-23:00; Sa 08:00-23:00; Su 09:00-23:00"}, "geometry": {"type": "Point", "coordinates": [24.930532, 60.198648]}}, {"type": "Feature", "properties": {"name": "K-Market", "address": "Veturitie 11", "opening_hours": "Mo-Fr 06:00-22:00; Sa-Su 09:00-21:00"}, "geometry": {"type": "Point", "coordinates": [24.934241, 60.198643]}}, {"type": "Feature", "properties": {"name": "K-Supermarket", "address": "Kauniaistentie 7", "opening_hours": "Mo-Sa 07:00-22:00; Su 09:00-21:00"}, "geometry": {"type": "Point", "coordinates": [24.72815, 60.210484]}}, {"type": "Feature", "properties": {"name": "K-Market", "address": "", "opening_hours": "Mo-Fr 06:30-22:00; Sa 08:00-20:00; Su 12:00-18:00"}, "geometry": {"type": "Point", "coordinates": [24.804292, 60.175185]}}, {"type": "Feature", "properties": {"name": "K-Supermarket", "address": "Lasihytti 2", "opening_hours": "Mo-Fr 06:30-22:00; Sa 08:00-22:00; Su 08:00-22:00"}, "geometry": {"type": "Point", "coordinates": [24.596147, 60.18554]}}, {"type": "Feature", "properties": {"name": "K-Market", "address": "Laivalahdenkaari 1", "opening_hours": "Mo-Fr 07:00-23:00; Sa 08:00-23:00; Su 09:00-23:00"}, "geometry": {"type": "Point", "coordinates": [25.033215, 60.191152]}}, {"type": "Feature", "properties": {"name": "K-Market", "address": "Suunnistajankuja 2", "opening_hours": "Mo-Fr 07:00-22:00; Sa 09:00-22:00; Su 09:00-21:00"}, "geometry": {"type": "Point", "coordinates": [25.114876, 60.246283]}}, {"type": "Feature", "properties": {"name": "K-Market", "address": "Hattelmalantie 2", "opening_hours": "Mo-Fr 06:30-23:00; Sa 08:00-23:00; Su 09:00-23:00"}, "geometry": {"type": "Point", "coordinates": [24.998386, 60.230573]}}, {"type": "Feature", "properties": {"name": "K-Market", "address": "Martinsillantie 10", "opening_hours": "Mo-Fr 07:00-22:00; Sa 08:00-22:00; Su 10:00-22:00"}, "geometry": {"type": "Point", "coordinates": [24.694043, 60.1594]}}, {"type": "Feature", "properties": {"name": "K-Market", "address": "Siltasaarenkatu 16", "opening_hours": "Mo-Fr 06:30-21:00; Sa 09:00-21:00; Su 12:00-20:00"}, "geometry": {"type": "Point", "coordinates": [24.949535, 60.17944]}}, {"type": "Feature", "properties": {"name": "K-Market", "address": "Museokatu 40", "opening_hours": "Mo-Fr 07:00-23:00; Sa 08:00-23:00; Su 09:00-22:00"}, "geometry": {"type": "Point", "coordinates": [24.921296, 60.17522]}}, {"type": "Feature", "properties": {"name": "K-Supermarket", "address": "Espoonlahdenkatu 8", "opening_hours": "Mo-Fr 06:15-23:00; Sa 07:00-23:00; Su 09:00-23:00"}, "geometry": {"type": "Point", "coordinates": [24.656458, 60.148907]}}, {"type": "Feature", "properties": {"name": "K-Market", "address": "Tilkankatu 5", "opening_hours": "Mo-Fr 07:00-22:00; Sa 08:00-22:00; Su 09:00-21:00"}, "geometry": {"type": "Point", "coordinates": [24.894678, 60.203595]}}, {"type": "Feature", "properties": {"name": "K-Supermarket", "address": "Teirinsyrjä 2", "opening_hours": "Mo-Fr 06:30-22:00; Sa 08:00-22:00; Su 09:00-22:00"}, "geometry": {"type": "Point", "coordinates": [24.635709, 60.210342]}}, {"type": "Feature", "properties": {"name": "K-Market", "address": "Porthaninkatu 2", "opening_hours": "Mo-Fr 07:00-23:00; Sa 09:00-23:00; Su 10:00-23:00"}, "geometry": {"type": "Point", "coordinates": [24.949403, 60.181387]}}, {"type": "Feature", "properties": {"name": "K-Market", "address": "Maauuninpolku", "opening_hours": "Mo-Fr 07:00-21:00; Sa 08:00-21:00; Su 09:00-21:00"}, "geometry": {"type": "Point", "coordinates": [25.065386, 60.345019]}}, {"type": "Feature", "properties": {"name": "K-Market", "address": "Turuntie 563", "opening_hours": "Mo-Sa 08:00-22:00; Su 09:00-22:00"}, "geometry": {"type": "Point", "coordinates": [24.422201, 60.274562]}}, {"type": "Feature", "properties": {"name": "K-Citymarket", "address": "Ojalehdonkuja 1", "opening_hours": "Mo-Sa 07:00-22:00; Su 09:00-22:00"}, "geometry": {"type": "Point", "coordinates": [25.057638, 60.324343]}}, {"type": "Feature", "properties": {"name": "K-Citymarket", "address": "Topaasikuja 8", "opening_hours": "Mo-Su 07:00-23:00"}, "geometry": {"type": "Point", "coordinates": [24.847717, 60.314126]}}, {"type": "Feature", "properties": {"name": "K-Market", "address": "Kilonpuistonkatu 14", "opening_hours": "Mo-Fr 07:00-22:00; Sa 08:00-21:00; Su 10:00-21:00"}, "geometry": {"type": "Point", "coordinates": [24.78216, 60.216746]}}, {"type": "Feature", "properties": {"name": "K-Market", "address": "Verkkoneula 5", "opening_hours": "Mo-Fr 06:30-23:00; Sa 08:00-23:00; Su 09:00-23:00"}, "geometry": {"type": "Point", "coordinates": [24.980485, 60.191527]}}, {"type": "Feature", "properties": {"name": "K-Market", "address": "Nietostie 19", "opening_hours": "Mo-Fr 07:00-22:00; Sa 09:00-22:00; Su 09:00-21:00"}, "geometry": {"type": "Point", "coordinates": [25.024842, 60.325336]}}, {"type": "Feature", "properties": {"name": "K-Supermarket", "address": "Hiihtäjäntie 2b", "opening_hours": "Mo-Fr 07:00-22:00; Sa 08:00-22:00; Su 10:00-21:00"}, "geometry": {"type": "Point", "coordinates": [25.028621, 60.194172]}}, {"type": "Feature", "properties": {"name": "K-Supermarket", "address": "Latokartanonkaari 23", "opening_hours": "Mo-Fr 07:00-00:00; Sa 08:00-00:00; Su 09:00-00:00"}, "geometry": {"type": "Point", "coordinates": [25.03238, 60.233733]}}, {"type": "Feature", "properties": {"name": "K-Market", "address": "Kivikonkaari 30", "opening_hours": "Mo-Fr 07:00-22:00; Sa 08:00-22:00; Su 10:00-21:00"}, "geometry": {"type": "Point", "coordinates": [25.062963, 60.233373]}}, {"type": "Feature", "properties": {"name": "K-Market", "address": "Ollaksentie 35", "opening_hours": "Mo-Fr 07:00-23:00; Sa 08:00-23:00; Su 09:00-23:00"}, "geometry": {"type": "Point", "coordinates": [24.909985, 60.284464]}}, {"type": "Feature", "properties": {"name": "K-Supermarket", "address": "Koivikontie 12", "opening_hours": "Mo-Fr 07:00-21:00; Sa 07:00-20:00; Su 10:00-19:00"}, "geometry": {"type": "Point", "coordinates": [25.091987, 60.380499]}}, {"type": "Feature", "properties": {"name": "K-Supermarket", "address": "Laajavuorenkuja 2", "opening_hours": "Mo-Fr 06:30-22:00; Sa 08:00-22:00; Su 09:00-22:00"}, "geometry": {"type": "Point", "coordinates": [24.844878, 60.281188]}}, {"type": "Feature", "properties": {"name": "K-Market", "address": "Yhdyskunnantie 22", "opening_hours": "Mo-Fr 07:00-22:00; Sa 09:00-22:00; Su 10:00-22:00"}, "geometry": {"type": "Point", "coordinates": [24.959162, 60.241893]}}, {"type": "Feature", "properties": {"name": "K-Market", "address": "Lähdepuistontie 1", "opening_hours": "Mo-Sa 07:00-22:00; Su 10:00-22:00"}, "geometry": {"type": "Point", "coordinates": [25.099198, 60.266321]}}, {"type": "Feature", "properties": {"name": "K-Market", "address": "Leenankuja 4", "opening_hours": "closed"}, "geometry": {"type": "Point", "coordinates": [24.74174, 60.153979]}}, {"type": "Feature", "properties": {"name": "K-Market", "address": "Konalantie 6-8", "opening_hours": "Mo-Fr 06:30-23:00; Sa 08:00-22:00; Su 09:00-22:00"}, "geometry": {"type": "Point", "coordinates": [24.853417, 60.226409]}}, {"type": "Feature", "properties": {"name": "K-Supermarket", "address": "Tunnelitie 3-5", "opening_hours": "Mo-Sa 07:00-22:00; Su 09:00-22:00"}, "geometry": {"type": "Point", "coordinates": [24.900083, 60.216986]}}, {"type": "Feature", "properties": {"name": "K-Market", "address": "Pertunpellontie 4", "opening_hours": "Mo-Fr 07:00-22:00; Sa 08:00-22:00; Su 09:00-22:00"}, "geometry": {"type": "Point", "coordinates": [24.992417, 60.266822]}}, {"type": "Feature", "properties": {"name": "K-Supermarket", "address": "Haastemiehentie 1", "opening_hours": "Mo-Fr 07:00-22:00; Sa 07:00-22:00; Su 09:00-22:00"}, "geometry": {"type": "Point", "coordinates": [24.950696, 60.255825]}}, {"type": "Feature", "properties": {"name": "K-Market", "address": "Tinankuja 1", "opening_hours": "Mo-Fr 07:00-22:00; Sa 08:00-21:00; Su 09:00-21:00"}, "geometry": {"type": "Point", "coordinates": [24.53503, 60.157454]}}, {"type": "Feature", "properties": {"name": "K-Market", "address": "Lahelantie 280", "opening_hours": "Mo-Fr 06:30-22:00,08:00-22:00; Su 09:00-22:00"}, "geometry": {"type": "Point", "coordinates": [24.985099, 60.38473]}}, {"type": "Feature", "properties": {"name": "K-Market", "address": "Ratatie 24", "opening_hours": "Mo-Fr 07:00-22:00; Sa 08:00-22:00; Su 10:00-22:00"}, "geometry": {"type": "Point", "coordinates": [25.146926, 60.401898]}}, {"type": "Feature", "properties": {"name": "K-Supermarket", "address": "Kylänportti 16", "opening_hours": "Mo-Fr 06:30-22:00; Sa 08:00-22:00; Su 09:00-22:00"}, "geometry": {"type": "Point", "coordinates": [24.700476, 60.240548]}}, {"type": "Feature", "properties": {"name": "K-Market", "address": "Klippinkitie 9", "opening_hours": "Mo-Fr 07:00-22:00; Sa 08:00-22:00"}, "geometry": {"type": "Point", "coordinates": [24.601011, 60.193216]}}, {"type": "Feature", "properties": {"name": "K-Market", "address": "Kalevankatu 65", "opening_hours": "Mo-Fr 06:00-21:00; Sa 08:00-21:00; Su 10:00-21:00"}, "geometry": {"type": "Point", "coordinates": [25.089976, 60.420229]}}, {"type": "Feature", "properties": {"name": "K-Supermarket", "address": "Koskentie 6", "opening_hours": "Mo-Fr 07:00-21:00; Sa 08:00-21:00; Su 10:00-21:00"}, "geometry": {"type": "Point", "coordinates": [24.442987, 60.268743]}}, {"type": "Feature", "properties": {"name": "K-Supermarket", "address": "Malminkorpi 2", "opening_hours": "Mo-Fr 07:00-22:00, Sa 07:00-22:00, Su 09:00-22:00"}, "geometry": {"type": "Point", "coordinates": [24.677817, 60.180407]}}, {"type": "Feature", "properties": {"name": "K-Supermarket", "address": "Ainontie 1", "opening_hours": "Mo-Sa 07:00-22:00; Su 09:00-22:00"}, "geometry": {"type": "Point", "coordinates": [24.803804, 60.271959]}}, {"type": "Feature", "properties": {"name": "K-Supermarket", "address": "Paarmatie 2", "opening_hours": "Mo-Fr 06:30-23:00; Sa 07:00-23:00; Su 08:00-23:00"}, "geometry": {"type": "Point", "coordinates": [25.133237, 60.346156]}}, {"type": "Feature", "properties": {"name": "K-Supermarket", "address": "Rautatiekuja 4", "opening_hours": "Mo-Fr 06:30-21:00; Sa 07:00-21:00; Su 10:00-21:00"}, "geometry": {"type": "Point", "coordinates": [25.329114, 60.297768]}}, {"type": "Feature", "properties": {"name": "K-Supermarket", "address": "Ajomiehentie 1", "opening_hours": "Mo-Sa 07:00-22:00; Su 10:00-22:00"}, "geometry": {"type": "Point", "coordinates": [24.849105, 60.239165]}}, {"type": "Feature", "properties": {"name": "K-Market", "address": " C 6", "opening_hours": "Mo-Fr 07:00-21:00; Sa 08:00-21:00; Su 10:00-21:00"}, "geometry": {"type": "Point", "coordinates": [24.982856, 60.14878]}}, {"type": "Feature", "properties": {"name": "K-Supermarket", "address": "Eliel Saarisen tie 5", "opening_hours": "Mo-Fr 09:00-21:00, Sa 07:00-18:00; Su 12:00-18:00"}, "geometry": {"type": "Point", "coordinates": [24.903885, 60.227324]}}, {"type": "Feature", "properties": {"name": "K-Supermarket", "address": "Jakomäentie 1", "opening_hours": "Mo-Sa 07:00-22:00, Su 10:00-21:00"}, "geometry": {"type": "Point", "coordinates": [25.074456, 60.26196]}}, {"type": "Feature", "properties": {"name": "K-Market", "address": "Tolsantie 16", "opening_hours": "Mo-Sa 07:00-22:00, Su 10:00-21:00"}, "geometry": {"type": "Point", "coordinates": [24.472202, 60.11929]}}, {"type": "Feature", "properties": {"name": "K-Market", "address": "Oxfotintie 1", "opening_hours": "Mo-Fr 07:00-22:00; Sa 08:00-22:00; Su 09:00-22:00"}, "geometry": {"type": "Point", "coordinates": [24.661854, 60.167634]}}, {"type": "Feature", "properties": {"name": "K-Supermarket", "address": "Niipperintie 3", "opening_hours": "Mo-Sa 07:00-22:00; Su 09:00-22:00"}, "geometry": {"type": "Point", "coordinates": [24.75334, 60.269262]}}, {"type": "Feature", "properties": {"name": "K-Market", "address": "Kisällinkuja 2", "opening_hours": "Mo-Fr 06:30-23:00; Sa 07:30-23:00; Su 10:00-23:00"}, "geometry": {"type": "Point", "coordinates": [24.957704, 60.232646]}}, {"type": "Feature", "properties": {"name": "K-Market", "address": "Kuurinmäki 1", "opening_hours": "Mo-Fr 07:00-22:00; Sa 08:00-21:00; Su 10:00-21:00"}, "geometry": {"type": "Point", "coordinates": [24.706049, 60.200529]}}, {"type": "Feature", "properties": {"name": "K-Market", "address": "Kartanontie 2", "opening_hours": "Mo-Sa 07:00-22:00; Su 10:00-21:00"}, "geometry": {"type": "Point", "coordinates": [24.544975, 60.153788]}}, {"type": "Feature", "properties": {"name": "K-Supermarket", "address": "Merituulentie 36", "opening_hours": "Mo-Fr 7:00-22:00; Sa 8:00-21:00; Su 10:00-21:00"}, "geometry": {"type": "Point", "coordinates": [24.762919, 60.170448]}}, {"type": "Feature", "properties": {"name": "K-Supermarket", "address": "Kalkkipellontie 2", "opening_hours": "Mo-Sa 07:00-23:00; Su 09:00-23:00"}, "geometry": {"type": "Point", "coordinates": [24.834531, 60.219483]}}, {"type": "Feature", "properties": {"name": "K-Market", "address": "Suomenlahdentie 1", "opening_hours": "Mo-Fr 05:30-23:00; Sa 07:00-23:00; Su 10:00-22:00"}, "geometry": {"type": "Point", "coordinates": [24.740243, 60.160381]}}, {"type": "Feature", "properties": {"name": "K-Citymarket", "address": "Piispansilta 11", "opening_hours": "Mo-Sa 07:00-22:00; Su 10:00-22:00"}, "geometry": {"type": "Point", "coordinates": [24.738393, 60.161331]}}, {"type": "Feature", "properties": {"name": "K-Market", "address": "Saaristolaivastonkatu 11", "opening_hours": "Mo-Fr 06:30-22:00; Sa 09:00-21:00"}, "geometry": {"type": "Point", "coordinates": [25.012578, 60.165542]}}, {"type": "Feature", "properties": {"name": "K-Citymarket", "address": "Nikonkatu 1", "opening_hours": "Mo-Sa: 08:00-21:00; Sa; 10:00-20:00"}, "geometry": {"type": "Point", "coordinates": [25.101045, 60.400166]}}, {"type": "Feature", "properties": {"name": "K-Supermarket", "address": "Kauppakaari 10", "opening_hours": "Mo-Fr 08:00-21:00; Sa 09:00-21:00; Su 10:00-20:00"}, "geometry": {"type": "Point", "coordinates": [25.098987, 60.403277]}}, {"type": "Feature", "properties": {"name": "K-Supermarket", "address": "Yliskylän puistokatu 4", "opening_hours": "Mo-Sa 06:30-23:00; Su 08:00-23:00"}, "geometry": {"type": "Point", "coordinates": [25.051456, 60.179342]}}, {"type": "Feature", "properties": {"name": "K-Market", "address": "Maarinrannantie 2", "opening_hours": "Mo-Fr 06:30-23:00; Sa 08:00-22:00; Su 09:00-21:00"}, "geometry": {"type": "Point", "coordinates": [24.811539, 60.187112]}}, {"type": "Feature", "properties": {"name": "K-Supermarket", "address": "Majurinkatu 13", "opening_hours": "Mo-Su 08:00-23:00"}, "geometry": {"type": "Point", "coordinates": [24.827214, 60.215388]}}]}