{"type": "FeatureCollection", "features": [{"type": "Feature", "properties": {"name": "Lidl", "address": "Ostostie 4", "opening_hours": "Mo-Sa 07:00-21:00; Su 09:00-21:00"}, "geometry": {"type": "Point", "coordinates": [25.083917, 60.237106]}}, {"type": "Feature", "properties": {"name": "Lidl", "address": "Mankkaantie 2-4", "opening_hours": "Mo-Fr 08:00-21:00; Sa 08:00-21:00; Su 10:00-20:00"}, "geometry": {"type": "Point", "coordinates": [24.76724, 60.194593]}}, {"type": "Feature", "properties": {"name": "Lidl", "address": "Heikkiläntie 4", "opening_hours": "Mo-Sa 08:00-21:00; Su 11:00-21:00"}, "geometry": {"type": "Point", "coordinates": [24.880449, 60.154546]}}, {"type": "Feature", "properties": {"name": "Lidl", "address": "Kampinkuja 2", "opening_hours": "Mo-Sa 08:00-21:00; Su 11:00-21:00"}, "geometry": {"type": "Point", "coordinates": [24.93079, 60.168201]}}, {"type": "Feature", "properties": {"name": "Lidl", "address": "Viitakuja 1", "opening_hours": "Mo-Sa 07:00-22:00; Su 08:00-22:00"}, "geometry": {"type": "Point", "coordinates": [25.061891, 60.322398]}}, {"type": "Feature", "properties": {"name": "Lidl", "address": "Ratsukatu 3", "opening_hours": "Mo-Sa 08:00-21:00; Su 10:00-21:00"}, "geometry": {"type": "Point", "coordinates": [24.807898, 60.218268]}}, {"type": "Feature", "properties": {"name": "Lidl", "address": "Murmelikuja 9", "opening_hours": "Mo-Fr 08:00-22:00; Sa 08:00-21:00; Su 09:00-21:00"}, "geometry": {"type": "Point", "coordinates": [25.105706, 60.345312]}}, {"type": "Feature", "properties": {"name": "Lidl", "address": "Hämeentie 33", "opening_hours": "Mo-Fr 07:00-22:00; Sa 08:00-22:00; Su 10:00-21:00"}, "geometry": {"type": "Point", "coordinates": [24.963857, 60.188197]}}, {"type": "Feature", "properties": {"name": "Lidl", "address": "Malmin kauppatie 18", "opening_hours": "Mo-Sa 08:00-21:00; Su 10:00-21:00"}, "geometry": {"type": "Point", "coordinates": [25.010089, 60.251756]}}, {"type": "Feature", "properties": {"name": "Lidl", "address": "Linnanrakentajantie 4", "opening_hours": "Mo-Sa 08:00-21:00; Su 10:00-21:00"}, "geometry": {"type": "Point", "coordinates": [25.034822, 60.19389]}}, {"type": "Feature", "properties": {"name": "Lidl", "address": "Itäkatu 7", "opening_hours": "Mo-Sa 08:00-21:00; Su 10:00-21:00"}, "geometry": {"type": "Point", "coordinates": [25.080426, 60.210369]}}, {"type": "Feature", "properties": {"name": "Lidl", "address": "Vanha talvitie 12", "opening_hours": "Mo-Sa 08:00-21:00; Su 10:00-21:00"}, "geometry": {"type": "Point", "coordinates": [24.975895, 60.192047]}}, {"type": "Feature", "properties": {"name": "Lidl", "address": "Höyläämötie 1", "opening_hours": "Mo-Fr 08:00-22:00; Sa 08:00-21:00; Su 09:00-21:00"}, "geometry": {"type": "Point", "coordinates": [24.879025, 60.21493]}}, {"type": "Feature", "properties": {"name": "Lidl", "address": "Kaivokatu 8", "opening_hours": "Mo-Fr 07:00-22:00; Sa 08:00-22:00; Su 10:00-22:00"}, "geometry": {"type": "Point", "coordinates": [24.941848, 60.169688]}}, {"type": "Feature", "properties": {"name": "Lidl", "address": "Lönnrotinkatu 20", "opening_hours": "Mo-Fr 08:00-21:00; Sa 09:00-21:00; Su 10:00-21:00"}, "geometry": {"type": "Point", "coordinates": [24.934399, 60.164825]}}, {"type": "Feature", "properties": {"name": "Lidl", "address": "Tulppatie 2", "opening_hours": "Mo-Fr 08:00-22:00; Sa 08:00-21:00; Su 09:00-21:00"}, "geometry": {"type": "Point", "coordinates": [25.057471, 60.210311]}}, {"type": "Feature", "properties": {"name": "Lidl", "address": "Hämeentie 109-111", "opening_hours": "Mo-Fr 08:00-22:00; Su 09:00-21:00; Sa 08:00-21:00"}, "geometry": {"type": "Point", "coordinates": [24.969212, 60.203065]}}, {"type": "Feature", "properties": {"name": "Lidl", "address": "Jaakonkatu 3", "opening_hours": "Mo-Fr 07:00-22:00; Sa 08:00-22:00; Su 10:00-22:00"}, "geometry": {"type": "Point", "coordinates": [24.932085, 60.169694]}}, {"type": "Feature", "properties": {"name": "Lidl", "address": "Antaksentie 4", "opening_hours": "Mo-Fr 08:00-22:00; Sa 08:00-21:00; Su 10:00-21:00"}, "geometry": {"type": "Point", "coordinates": [24.947321, 60.294358]}}, {"type": "Feature", "properties": {"name": "Lidl", "address": "Neljäs linja 3", "opening_hours": "Mo-Sa 08:00-22:00; Su 10:00-22:00"}, "geometry": {"type": "Point", "coordinates": [24.953389, 60.182122]}}, {"type": "Feature", "properties": {"name": "Lidl", "address": "Hermannin rantatie 5", "opening_hours": "Mo-Fr 08:00-22:00; Su 10:00-21:00; Sa 08:00-21:00"}, "geometry": {"type": "Point", "coordinates": [24.980244, 60.187315]}}, {"type": "Feature", "properties": {"name": "Lidl", "address": "Sinimäentie 18", "opening_hours": "Mo-Fr 08:00-22:00; Sa 07:00-21:00; Su 10:00-21:00"}, "geometry": {"type": "Point", "coordinates": [24.782751, 60.201695]}}, {"type": "Feature", "properties": {"name": "Lidl", "address": "", "opening_hours": "Mo-Sa 08:00-22:00; Su 10:00-21:00"}, "geometry": {"type": "Point", "coordinates": [24.929478, 60.198653]}}, {"type": "Feature", "properties": {"name": "Lidl", "address": "Kurjenkellontie 1", "opening_hours": "Mo-Sa 08:00-21:00; Su 10:00-21:00"}, "geometry": {"type": "Point", "coordinates": [24.704891, 60.158685]}}, {"type": "Feature", "properties": {"name": "Lidl", "address": "Länsisatamankatu 35", "opening_hours": "Mo-Fr 08:00-22:00; Sa 08:00-22:00; Su 09:00-22:00"}, "geometry": {"type": "Point", "coordinates": [24.914691, 60.154932]}}, {"type": "Feature", "properties": {"name": "Lidl", "address": "Vuotie 45", "opening_hours": "Mo-Su 08:00-22:00"}, "geometry": {"type": "Point", "coordinates": [25.144775, 60.207814]}}, {"type": "Feature", "properties": {"name": "Lidl", "address": "Vanha Kaarelantie 33", "opening_hours": "Mo-Fr 08:00-22:00; Sa 08:00-21:00; Su 09:00-21:00"}, "geometry": {"type": "Point", "coordinates": [24.872979, 60.261694]}}, {"type": "Feature", "properties": {"name": "Lidl", "address": "Töölöntullinkatu 8", "opening_hours": "Mo-Fr 07:00-22:00; Sa 08:00-22:00; Su 10:00-22:00"}, "geometry": {"type": "Point", "coordinates": [24.912409, 60.190403]}}, {"type": "Feature", "properties": {"name": "Lidl", "address": "Espoonlahdenkatu 8", "opening_hours": "Mo-Sa 08:00-21:00; Su 11:00-19:00"}, "geometry": {"type": "Point", "coordinates": [24.655006, 60.149483]}}, {"type": "Feature", "properties": {"name": "Lidl", "address": "Siltakatu 11", "opening_hours": "Mo-Fr 08:00-22:00; Sa 08:00-21:00; Su 10:00-21:00"}, "geometry": {"type": "Point", "coordinates": [24.658213, 60.203251]}}, {"type": "Feature", "properties": {"name": "Lidl", "address": "Pihatörmä 1", "opening_hours": "Mo-Sa 08:00-21:00; Su 10:00-20:00"}, "geometry": {"type": "Point", "coordinates": [24.729927, 60.165415]}}, {"type": "Feature", "properties": {"name": "Lidl", "address": "Bruno Granholmin kuja 2", "opening_hours": "Mo-Sa 08:00-21:00; Su 10:00-21:00"}, "geometry": {"type": "Point", "coordinates": [24.946846, 60.193043]}}, {"type": "Feature", "properties": {"name": "Lidl", "address": "Meripihkatie 1", "opening_hours": "Mo-Sa 08:00-21:00; Su 10:00-21:00"}, "geometry": {"type": "Point", "coordinates": [25.011717, 60.23388]}}, {"type": "Feature", "properties": {"name": "Lidl", "address": "Vantaankoskentie 69", "opening_hours": "Mo-Fr 08:00-22:00; Sa 08:00-21:00; Su 09:00-21:00"}, "geometry": {"type": "Point", "coordinates": [24.847198, 60.313052]}}, {"type": "Feature", "properties": {"name": "Lidl", "address": "Iskoskuja 3", "opening_hours": "Mo-Fr 08:00-22:00; Sa 08:00-21:00; Su 09:00-21:00"}, "geometry": {"type": "Point", "coordinates": [24.854277, 60.260744]}}, {"type": "Feature", "properties": {"name": "Lidl", "address": "Vantaanlaaksontie 34", "opening_hours": "Mo-Fr 08:00-22:00; Sa 08:00-21:00; Su 09:00-21:00"}, "geometry": {"type": "Point", "coordinates": [24.871216, 60.279]}}, {"type": "Feature", "properties": {"name": "Lidl", "address": "Autoasemankatu 6", "opening_hours": "Mo-Sa 08:00-21:00; Su 09:00-21:00"}, "geometry": {"type": "Point", "coordinates": [25.028591, 60.40257]}}, {"type": "Feature", "properties": {"name": "Lidl", "address": "Lauri Korpisen katu 9", "opening_hours": "Mo-Sa 07:00-22:00; Su 09:00-22:00"}, "geometry": {"type": "Point", "coordinates": [25.048206, 60.294451]}}, {"type": "Feature", "properties": {"name": "Lidl", "address": "Elmontie 1", "opening_hours": "Mo-Fr 07:00-22:00; Sa 07:00-22:00; Su 09:00-22:00"}, "geometry": {"type": "Point", "coordinates": [25.063735, 60.335366]}}, {"type": "Feature", "properties": {"name": "Lidl", "address": "", "opening_hours": "Mo-Sa 08:00-21:00; Su 09:00-21:00"}, "geometry": {"type": "Point", "coordinates": [24.430529, 60.117266]}}, {"type": "Feature", "properties": {"name": "Lidl", "address": "Säätökuja 2", "opening_hours": "Mo-Fr 08:00-22:00; Sa 08:00-21:00; Su 10:00-21:00"}, "geometry": {"type": "Point", "coordinates": [24.969511, 60.273762]}}, {"type": "Feature", "properties": {"name": "Lidl", "address": "Aamuruskontie 1", "opening_hours": "Mo-Fr 07:00-22:00; Su 09:00-22:00; Sa 08:00-22:00"}, "geometry": {"type": "Point", "coordinates": [25.029016, 60.284396]}}, {"type": "Feature", "properties": {"name": "Lidl", "address": "Ristipellontie 9", "opening_hours": "Mo-Fr 08:00-22:00; Sa 08:00-22:00; Su 09:00-22:00"}, "geometry": {"type": "Point", "coordinates": [24.851666, 60.239428]}}, {"type": "Feature", "properties": {"name": "Lidl", "address": "Kukkaromäki 2", "opening_hours": "Mo-Sa 08:00-22:00; Su 10:00-22:00"}, "geometry": {"type": "Point", "coordinates": [24.636664, 60.207759]}}, {"type": "Feature", "properties": {"name": "Lidl", "address": "Lahnuksentie 2", "opening_hours": "Mo-Fr 09:00-21:00; Sa 09:00-18:00; Su 12:00-18:00"}, "geometry": {"type": "Point", "coordinates": [24.760019, 60.372628]}}, {"type": "Feature", "properties": {"name": "Lidl", "address": "Majavantie 1", "opening_hours": "Mo-Fr 08:00-22:00; Sa 08:00-21:00; Su 09:00-21:00"}, "geometry": {"type": "Point", "coordinates": [25.023495, 60.37337]}}, {"type": "Feature", "properties": {"name": "Lidl", "address": "Niittymaantie 2", "opening_hours": "Mo-Sa 08:00-22:00; Su 09:00-22:00"}, "geometry": {"type": "Point", "coordinates": [24.774333, 60.170549]}}, {"type": "Feature", "properties": {"name": "Lidl", "address": "Santaniitynkatu 7A", "opening_hours": "Mo-Fr 08:00-22:00; Sa 08:00-22:00; Su 9:00-21:00"}, "geometry": {"type": "Point", "coordinates": [25.111086, 60.399734]}}, {"type": "Feature", "properties": {"name": "Lidl", "address": "Pakilantie 48", "opening_hours": "Mo-Fr 08:00-22:00; Sa 08:00-21:00; Su 10:00-21:00"}, "geometry": {"type": "Point", "coordinates": [24.928614, 60.236493]}}, {"type": "Feature", "properties": {"name": "Lidl", "address": "Rastaspuistontie 1", "opening_hours": "Mo-Sa 08:00-21:00; Su 10:00-21:00"}, "geometry": {"type": "Point", "coordinates": [24.778081, 60.23031]}}, {"type": "Feature", "properties": {"name": "Lidl", "address": "Rastilantie 1", "opening_hours": "Mo-Sa 08:00-21:00; Su 09:00-21:00"}, "geometry": {"type": "Point", "coordinates": [25.133222, 60.214233]}}, {"type": "Feature", "properties": {"name": "Lidl", "address": "Räävelintie 2", "opening_hours": "Mo-Fr 08:00-22:00; Sa 08:00-21:00; Su 09:00-21:00"}, "geometry": {"type": "Point", "coordinates": [24.587441, 60.188313]}}, {"type": "Feature", "properties": {"name": "Lidl", "address": "Sillankorva 3", "opening_hours": "Mo-Sa 08:00-21:00; Su 10:00-21:00"}, "geometry": {"type": "Point", "coordinates": [24.666854, 60.155053]}}, {"type": "Feature", "properties": {"name": "Lidl", "address": "Suurmetsäntie 6", "opening_hours": "Su 09:00-22:00; Mo-Sa 07:00-22:00"}, "geometry": {"type": "Point", "coordinates": [25.071556, 60.262069]}}, {"type": "Feature", "properties": {"name": "Lidl", "address": "Uusi Porvoontie 1143", "opening_hours": "Mo-Sa 08:00-21:00; Su 10:00-21:00"}, "geometry": {"type": "Point", "coordinates": [25.327319, 60.297345]}}, {"type": "Feature", "properties": {"name": "Lidl", "address": "Vapaalantie 4", "opening_hours": "Mo-Sa 08:00-22:00; Su 09:00-22:00"}, "geometry": {"type": "Point", "coordinates": [24.823077, 60.255618]}}, {"type": "Feature", "properties": {"name": "Lidl", "address": "Piispansilta 11", "opening_hours": "Mo-Sa 08:00-22:00; Su 09:00-21:00"}, "geometry": {"type": "Point", "coordinates": [24.737416, 60.16125]}}, {"type": "Feature", "properties": {"name": "Lidl", "address": "Turuntie 207", "opening_hours": "Mo-Sa 08:00-22:00; Su 09:00-22:00"}, "geometry": {"type": "Point", "coordinates": [24.668834, 60.221723]}}]}