{"type": "FeatureCollection", "features": [{"type": "Feature", "properties": {"name": "Alepa", "address": "Kettutie 2", "opening_hours": "24/7"}, "geometry": {"type": "Point", "coordinates": [25.034225, 60.204579]}}, {"type": "Feature", "properties": {"name": "Alepa", "address": "Hiihtomäentie 14", "opening_hours": "Mo-Fr 06:00-23:00; Sa 08:00-23:00; 09:00-23:00"}, "geometry": {"type": "Point", "coordinates": [25.029869, 60.194979]}}, {"type": "Feature", "properties": {"name": "S-market", "address": "Vuotie 45", "opening_hours": "Mo-Sa 07:00-23:00; Su 09:00-23:00"}, "geometry": {"type": "Point", "coordinates": [25.145717, 60.206924]}}, {"type": "Feature", "properties": {"name": "S-market", "address": "Kauniaistentie 7", "opening_hours": "Mo-Sa 07:00-22:00; Su 09:00-22:00"}, "geometry": {"type": "Point", "coordinates": [24.728834, 60.210179]}}, {"type": "Feature", "properties": {"name": "S-market", "address": "Ostostie 4", "opening_hours": "Mo-Sa 07:00-22:00; Su 09:00-22:00"}, "geometry": {"type": "Point", "coordinates": [25.08376, 60.236838]}}, {"type": "Feature", "properties": {"name": "S-market", "address": "Siltasaarenkatu 18-20", "opening_hours": "24/7"}, "geometry": {"type": "Point", "coordinates": [24.949109, 60.18026]}}, {"type": "Feature", "properties": {"name": "Alepa", "address": "Koskelantie 19", "opening_hours": "24/7"}, "geometry": {"type": "Point", "coordinates": [24.952246, 60.210547]}}, {"type": "Feature", "properties": {"name": "S-market", "address": "Huokotie 1", "opening_hours": "Mo-Sa 06:30-23:00; Su 09:00-23:00"}, "geometry": {"type": "Point", "coordinates": [25.075828, 60.261487]}}, {"type": "Feature", "properties": {"name": "Alepa", "address": "Mäkelänkatu 11", "opening_hours": "Mo-Fr 06:30-23:00; Sa 08:00-23:00; Su 09:00-23:00"}, "geometry": {"type": "Point", "coordinates": [24.962078, 60.191773]}}, {"type": "Feature", "properties": {"name": "Alepa", "address": "", "opening_hours": "Mo-Fr 06:00-22:00; Sa 08:00-22:00; Su 09:00-22:00"}, "geometry": {"type": "Point", "coordinates": [25.000178, 60.231214]}}, {"type": "Feature", "properties": {"name": "Alepa", "address": "Roihuvuorentie 26", "opening_hours": "24/7"}, "geometry": {"type": "Point", "coordinates": [25.058776, 60.202151]}}, {"type": "Feature", "properties": {"name": "S-market", "address": "Itäkatu 7 E 45", "opening_hours": "Mo-Sa 07:00-22:00; Su 09:00-22:00"}, "geometry": {"type": "Point", "coordinates": [25.079479, 60.210092]}}, {"type": "Feature", "properties": {"name": "Alepa", "address": "Hagelstamintie 32", "opening_hours": "Mo-Fr 06:30-22:00; Sa 08:00-22:00; Su 09:00-22:00"}, "geometry": {"type": "Point", "coordinates": [24.969477, 60.283708]}}, {"type": "Feature", "properties": {"name": "Alepa", "address": "Mannerheimintie 170", "opening_hours": "24/7"}, "geometry": {"type": "Point", "coordinates": [24.898731, 60.203461]}}, {"type": "Feature", "properties": {"name": "S-market", "address": "Metsolantie 2", "opening_hours": "Mo-Sa 06:30-22:00; Su 09:00-22:00"}, "geometry": {"type": "Point", "coordinates": [25.079503, 60.351008]}}, {"type": "Feature", "properties": {"name": "Alepa", "address": "Hämeentie 25", "opening_hours": "24/7"}, "geometry": {"type": "Point", "coordinates": [24.961755, 60.187065]}}, {"type": "Feature", "properties": {"name": "Alepa", "address": "Pajamäentie 14", "opening_hours": "ma-la: 7-22, su 9-22"}, "geometry": {"type": "Point", "coordinates": [24.855162, 60.218535]}}, {"type": "Feature", "properties": {"name": "S-market", "address": "Ukkohauentie 11-13", "opening_hours": "Mo-Sa 07:00-22:00; Su 09:00-22:00"}, "geometry": {"type": "Point", "coordinates": [24.775261, 60.162996]}}, {"type": "Feature", "properties": {"name": "S-market", "address": "Itälahdenkatu 27", "opening_hours": "Su 09:00-22:00; Mo-Sa 07:00-22:00"}, "geometry": {"type": "Point", "coordinates": [24.880538, 60.153677]}}, {"type": "Feature", "properties": {"name": "Alepa", "address": "Töölöntorinkatu 6", "opening_hours": "Mo-Sa 07:00-23:00; Su 10:00-23:00"}, "geometry": {"type": "Point", "coordinates": [24.924698, 60.178617]}}, {"type": "Feature", "properties": {"name": "Alepa", "address": "Pohjoinen Hesperiankatu 5", "opening_hours": "Mo-Fr 07:00-22:00; Su 10:00-22:00; Sa 09:00-22:00"}, "geometry": {"type": "Point", "coordinates": [24.927619, 60.177797]}}, {"type": "Feature", "properties": {"name": "Alepa", "address": "Mannerheimintie 102", "opening_hours": "24/7"}, "geometry": {"type": "Point", "coordinates": [24.916981, 60.189033]}}, {"type": "Feature", "properties": {"name": "S-market", "address": "Kuunkatu 3", "opening_hours": "Mo-Sa 06:30-22:00; Su 09:00-22:00"}, "geometry": {"type": "Point", "coordinates": [24.726463, 60.172487]}}, {"type": "Feature", "properties": {"name": "Alepa", "address": "Pohjolankatu 43", "opening_hours": "Mo-Sa 06:30-23:00; Su 09:00-23:00"}, "geometry": {"type": "Point", "coordinates": [24.953276, 60.216377]}}, {"type": "Feature", "properties": {"name": "S-market", "address": "Helsinginkatu 1", "opening_hours": "24/7"}, "geometry": {"type": "Point", "coordinates": [24.960175, 60.187894]}}, {"type": "Feature", "properties": {"name": "Alepa", "address": "Helsinginkatu 18", "opening_hours": "Mo-Sa 07:00-23:00; Su 09:00-23:00"}, "geometry": {"type": "Point", "coordinates": [24.952834, 60.186822]}}, {"type": "Feature", "properties": {"name": "Alepa", "address": "Kyösti Kallion tie 2", "opening_hours": "Mo-Su 00:00-24:00"}, "geometry": {"type": "Point", "coordinates": [25.008139, 60.186321]}}, {"type": "Feature", "properties": {"name": "Prisma", "address": "Munkinmäentie 29", "opening_hours": "Mo-Sa 06:00-24:00; Su 08:00-24:00"}, "geometry": {"type": "Point", "coordinates": [24.446287, 60.118007]}}, {"type": "Feature", "properties": {"name": "Alepa", "address": "Merisotilaantori 1", "opening_hours": "Mo-Fr 06:30-22:00; Sa 08:00-22:00; Su 09:00-22:00"}, "geometry": {"type": "Point", "coordinates": [24.974994, 60.16802]}}, {"type": "Feature", "properties": {"name": "Alepa", "address": "Näyttelijäntie 14", "opening_hours": "24/7"}, "geometry": {"type": "Point", "coordinates": [24.895654, 60.229969]}}, {"type": "Feature", "properties": {"name": "Alepa", "address": "Sturenkatu 27", "opening_hours": "24/7"}, "geometry": {"type": "Point", "coordinates": [24.955869, 60.193728]}}, {"type": "Feature", "properties": {"name": "Alepa", "address": "Kirvuntie 22", "opening_hours": "Mo-Sa 06:30-22:00; Su 10:00-22:00"}, "geometry": {"type": "Point", "coordinates": [24.804434, 60.203854]}}, {"type": "Feature", "properties": {"name": "Alepa", "address": "Malminkartanonaukio 2", "opening_hours": "Mo-Sa 06:30-23:00; Su 09:00-23:00"}, "geometry": {"type": "Point", "coordinates": [24.862599, 60.247533]}}, {"type": "Feature", "properties": {"name": "S-market", "address": "Hyrylänkatu 6", "opening_hours": "Mo-Sa 06:30-23:00; Su 09:00-23:00"}, "geometry": {"type": "Point", "coordinates": [25.019802, 60.39678]}}, {"type": "Feature", "properties": {"name": "Alepa", "address": "Metsolantie 1", "opening_hours": "Mo-Sa 06:30-23:00; Su 09:00-23:00"}, "geometry": {"type": "Point", "coordinates": [25.089845, 60.408544]}}, {"type": "Feature", "properties": {"name": "Alepa", "address": "Haukantie 2", "opening_hours": "24/7"}, "geometry": {"type": "Point", "coordinates": [25.017615, 60.374358]}}, {"type": "Feature", "properties": {"name": "Alepa", "address": "Kalevankatu 31", "opening_hours": "Mo-Sa 06:30-11:00; PH,Su 09:00-11:00"}, "geometry": {"type": "Point", "coordinates": [25.096114, 60.412962]}}, {"type": "Feature", "properties": {"name": "Alepa", "address": "Sokinsuontie 4", "opening_hours": "Mo-Sa 07:00-23:00, Su 10:00-23:00"}, "geometry": {"type": "Point", "coordinates": [24.66986, 60.200496]}}, {"type": "Feature", "properties": {"name": "Alepa", "address": "Eteläinen Rastitie 6", "opening_hours": "Mo-Fr 06:30-23:00; Sa 08:00-23:00; Su 09:00-23:00"}, "geometry": {"type": "Point", "coordinates": [25.071404, 60.321222]}}, {"type": "Feature", "properties": {"name": "Alepa", "address": "Metsäpurontie 23", "opening_hours": "Mo-Sa 06:30-23:00; Su 09:00-23:00"}, "geometry": {"type": "Point", "coordinates": [24.926752, 60.228029]}}, {"type": "Feature", "properties": {"name": "S-market", "address": "Mannerheimintie 9", "opening_hours": "24/7"}, "geometry": {"type": "Point", "coordinates": [24.938688, 60.170655]}}, {"type": "Feature", "properties": {"name": "S-market", "address": "Höyrylaivantie 18", "opening_hours": "24/7"}, "geometry": {"type": "Point", "coordinates": [24.658688, 60.152798]}}, {"type": "Feature", "properties": {"name": "Alepa", "address": "", "opening_hours": "Mo-Sa 07:00-23:00; Su 09:00-23:00"}, "geometry": {"type": "Point", "coordinates": [25.051474, 60.271266]}}, {"type": "Feature", "properties": {"name": "Alepa", "address": "Mannerheimintie 76", "opening_hours": "Mo-Fr 06:30-23:00; Su 09:00-23:00; Sa 08:00-23:00"}, "geometry": {"type": "Point", "coordinates": [24.921818, 60.185057]}}, {"type": "Feature", "properties": {"name": "S-market", "address": "Kasarmikatu 19", "opening_hours": "Mo-Sa 06:30-22:00; Su 09:00-22:00; PH off"}, "geometry": {"type": "Point", "coordinates": [24.948186, 60.164968]}}, {"type": "Feature", "properties": {"name": "Alepa", "address": "Perämiehenkatu 10", "opening_hours": "24/7"}, "geometry": {"type": "Point", "coordinates": [24.934443, 60.158769]}}, {"type": "Feature", "properties": {"name": "Alepa", "address": "Vuorimiehenkatu 29", "opening_hours": "Mo-Sa 06:30-23:00; Su 09:00-23:00"}, "geometry": {"type": "Point", "coordinates": [24.945542, 60.1594]}}, {"type": "Feature", "properties": {"name": "Alepa", "address": "Kirkkokatu 2", "opening_hours": "Mo-Fr 06:30-22:00; Sa 08:00-22:00; Su 09:00-22:00"}, "geometry": {"type": "Point", "coordinates": [24.958777, 60.170883]}}, {"type": "Feature", "properties": {"name": "Alepa", "address": "Castréninkatu 9", "opening_hours": "Mo-Sa 06:30-23:00; Su 09:00-23:00"}, "geometry": {"type": "Point", "coordinates": [24.947098, 60.185097]}}, {"type": "Feature", "properties": {"name": "Alepa", "address": "Porvoonkatu 22", "opening_hours": "24/7"}, "geometry": {"type": "Point", "coordinates": [24.942865, 60.191738]}}, {"type": "Feature", "properties": {"name": "S-market", "address": "Hämeentie 111", "opening_hours": "Mo-Sa 07:00-22:00; Su 09:00-22:00"}, "geometry": {"type": "Point", "coordinates": [24.967695, 60.202906]}}, {"type": "Feature", "properties": {"name": "S-market", "address": "Meri-Rastilan kuja 2", "opening_hours": "Mo-Sa 07:00-22:00, Su 09:00-22:00"}, "geometry": {"type": "Point", "coordinates": [25.119191, 60.20408]}}, {"type": "Feature", "properties": {"name": "Alepa", "address": "Liisankatu 14", "opening_hours": "Mo-Sa 06:30-23:00; Su 09:00-23:00"}, "geometry": {"type": "Point", "coordinates": [24.954919, 60.174001]}}, {"type": "Feature", "properties": {"name": "Alepa", "address": "Munkkiniemen puistotie 20", "opening_hours": "Mo-Fr 06:30-23:00; Su 09:00-23:00; Sa 08:00-23:00"}, "geometry": {"type": "Point", "coordinates": [24.877306, 60.197663]}}, {"type": "Feature", "properties": {"name": "Alepa", "address": "Pakilantie 95", "opening_hours": "Mo-Sa 06:30-23:00; Sa 08:00-23:00; Su 09:00-23:00"}, "geometry": {"type": "Point", "coordinates": [24.923244, 60.247993]}}, {"type": "Feature", "properties": {"name": "S-market", "address": "Kivivuorentie 4", "opening_hours": "Mo-Sa 07:00-22:00; Su 09:00-22:00"}, "geometry": {"type": "Point", "coordinates": [24.853727, 60.278737]}}, {"type": "Feature", "properties": {"name": "S-market", "address": "Pornaistentie 2", "opening_hours": "Mo-Sa 06:00-23:00; Su 09:00-23:00"}, "geometry": {"type": "Point", "coordinates": [25.270858, 60.376739]}}, {"type": "Feature", "properties": {"name": "Alepa", "address": "Ulappasaarentie 2", "opening_hours": "Mo-Fr 06:30-22:00; Su 09:00-22:00; Sa 08:00-22:00"}, "geometry": {"type": "Point", "coordinates": [25.137485, 60.21001]}}, {"type": "Feature", "properties": {"name": "Prisma", "address": "Malmin kauppatie 18", "opening_hours": "Mo-Su 06:00-24:00"}, "geometry": {"type": "Point", "coordinates": [25.010354, 60.252097]}}, {"type": "Feature", "properties": {"name": "S-market", "address": "Hietalahdenranta 7", "opening_hours": "Mo-Sa 07:00-22:00; Su 09:00-22:00"}, "geometry": {"type": "Point", "coordinates": [24.930618, 60.16122]}}, {"type": "Feature", "properties": {"name": "Alepa", "address": "Leinikkitie 22", "opening_hours": "Mo-Fr 06:30-23:00; Sa 08:00-23:00; Su 09:00-23:00"}, "geometry": {"type": "Point", "coordinates": [25.031033, 60.310164]}}, {"type": "Feature", "properties": {"name": "Alepa", "address": "Kuusiniementie 1", "opening_hours": "24/7"}, "geometry": {"type": "Point", "coordinates": [24.740241, 60.226866]}}, {"type": "Feature", "properties": {"name": "S-market", "address": "Kannuskuja 2", "opening_hours": "Mo-Fr 07:00-22:00; Sa 07:00-22:00; Su 09:00-22:00"}, "geometry": {"type": "Point", "coordinates": [25.10946, 60.280031]}}, {"type": "Feature", "properties": {"name": "Alepa", "address": "Pursimiehenkatu 4", "opening_hours": "Mo-Sa 07:00-23:00; Su 10:00-23:00"}, "geometry": {"type": "Point", "coordinates": [24.940863, 60.160362]}}, {"type": "Feature", "properties": {"name": "Prisma", "address": "Leppävaarankatu 5", "opening_hours": "Mo-Su 06:00-24:00"}, "geometry": {"type": "Point", "coordinates": [24.809967, 60.218052]}}, {"type": "Feature", "properties": {"name": "Alepa", "address": "Laurintie 84", "opening_hours": "Mo-Fr 06:30-22:00; Su 09:00-22:00; Sa 08:00-22:00"}, "geometry": {"type": "Point", "coordinates": [25.09627, 60.327599]}}, {"type": "Feature", "properties": {"name": "Alepa", "address": "Pietarinkatu 12", "opening_hours": "Mo-Sa 6:30-23:00; Su 9:00-23:00; PH off"}, "geometry": {"type": "Point", "coordinates": [24.947618, 60.157157]}}, {"type": "Feature", "properties": {"name": "Alepa", "address": "Solnantie 35", "opening_hours": "Mo-Sa 06:30-23:00; Su 09:00-23:00"}, "geometry": {"type": "Point", "coordinates": [24.879987, 60.198277]}}, {"type": "Feature", "properties": {"name": "Alepa", "address": "Kilpakuja 1", "opening_hours": "Mo-Fr 06:30-22:00; Sa 08:00-22:00; Su 09:00-22:00"}, "geometry": {"type": "Point", "coordinates": [25.111362, 60.242532]}}, {"type": "Feature", "properties": {"name": "S-market", "address": "Raumantie 1", "opening_hours": "Mo-Sa 06:30-24:00; Su 09:00-24:00"}, "geometry": {"type": "Point", "coordinates": [24.878248, 60.206094]}}, {"type": "Feature", "properties": {"name": "Alepa", "address": "Nissaksentie 1", "opening_hours": "Mo-Fr 06:30-23:00; Sa 08:00-23:00; Su 09:00-23:00"}, "geometry": {"type": "Point", "coordinates": [25.12166, 60.284481]}}, {"type": "Feature", "properties": {"name": "S-market", "address": "Kaupintie 14", "opening_hours": "Mo-Sa 07:00-22:00; Su 09:00-22:00"}, "geometry": {"type": "Point", "coordinates": [24.882749, 60.230219]}}, {"type": "Feature", "properties": {"name": "S-market", "address": "Kylänvanhimmantie 29", "opening_hours": "Mo-Sa 06:30-22:00; Su 09:00-22:00"}, "geometry": {"type": "Point", "coordinates": [24.963235, 60.228605]}}, {"type": "Feature", "properties": {"name": "Alepa", "address": "Salomonkatu 19", "opening_hours": "Mo-Fr 06:30-23:00; Sa 08:00-23:00; Su 09:00-23:00"}, "geometry": {"type": "Point", "coordinates": [24.928006, 60.168255]}}, {"type": "Feature", "properties": {"name": "Alepa", "address": "Runeberginkatu 28", "opening_hours": "Mo-Sa 07:00-23:00; Su 10:00-23:00"}, "geometry": {"type": "Point", "coordinates": [24.921713, 60.174808]}}, {"type": "Feature", "properties": {"name": "S-market", "address": "Lähderanta 1", "opening_hours": "Mo-Sa 07:00-23:00; Su 09:00-23:00"}, "geometry": {"type": "Point", "coordinates": [24.74067, 60.24064]}}, {"type": "Feature", "properties": {"name": "S-market", "address": "Meripihkatie 3", "opening_hours": "Mo-Sa 07:00-22:00; Su 09:00-22:00"}, "geometry": {"type": "Point", "coordinates": [25.01124, 60.234285]}}, {"type": "Feature", "properties": {"name": "Alepa", "address": "Mannerheimintie 152", "opening_hours": "Mo-Fr 06:30-23:00; Su 09:00-23:00; Sa 08:00-23:00"}, "geometry": {"type": "Point", "coordinates": [24.901211, 60.195077]}}, {"type": "Feature", "properties": {"name": "S-market", "address": "Aleksis Kiven katu 11", "opening_hours": "Mo-Fr 06:30-24:00; Sa 07:00-24:00; Su 09:00-24:00"}, "geometry": {"type": "Point", "coordinates": [24.952478, 60.189846]}}, {"type": "Feature", "properties": {"name": "Prisma", "address": "Vantaanportinkatu 3", "opening_hours": "Mo-Su 07:00-23:00"}, "geometry": {"type": "Point", "coordinates": [24.965537, 60.291496]}}, {"type": "Feature", "properties": {"name": "S-market", "address": "Orpaanporras 1", "opening_hours": "Mo-Fr 06:30-22:00; Sa 07:00-22:00; Su 08:00-22:00"}, "geometry": {"type": "Point", "coordinates": [25.07412, 60.224192]}}, {"type": "Feature", "properties": {"name": "Alepa", "address": "Sturenkatu 40", "opening_hours": "Mo-Fr 06:30-23:00; Sa 08:00-23:00; Su 09:00-23:00"}, "geometry": {"type": "Point", "coordinates": [24.959703, 60.196066]}}, {"type": "Feature", "properties": {"name": "Alepa", "address": "Ruoholahdenkatu 23", "opening_hours": "Mo-Sa 07:00-23:00; Su 09:00-23:00"}, "geometry": {"type": "Point", "coordinates": [24.922841, 60.164124]}}, {"type": "Feature", "properties": {"name": "Sale", "address": "Kirkkotori 3", "opening_hours": "Mo-Fr 08:00-21:00; Sa 09:00-19:00; Su 10:00-18:00"}, "geometry": {"type": "Point", "coordinates": [24.437285, 60.125235]}}, {"type": "Feature", "properties": {"name": "Alepa", "address": "Klaavuntie 11", "opening_hours": "Mo-Fr 06:30-23:00; Sa 08:00-23:00; Su 09:00-23:00"}, "geometry": {"type": "Point", "coordinates": [25.096414, 60.212719]}}, {"type": "Feature", "properties": {"name": "Alepa", "address": "Mechelininkatu 5", "opening_hours": "24/7"}, "geometry": {"type": "Point", "coordinates": [24.921118, 60.170294]}}, {"type": "Feature", "properties": {"name": "S-market", "address": "Kirkonkyläntie 34", "opening_hours": "Mo-Sa 07:00-22:00; Su 09:00-22:00"}, "geometry": {"type": "Point", "coordinates": [24.998606, 60.256308]}}, {"type": "Feature", "properties": {"name": "Prisma", "address": "Kantelettarentie 1", "opening_hours": "24/7"}, "geometry": {"type": "Point", "coordinates": [24.892675, 60.236602]}}, {"type": "Feature", "properties": {"name": "Alepa", "address": "Rahtarinkatu 2", "opening_hours": "Mo-Sa 06:00-23:00; Su 09:00-23:00"}, "geometry": {"type": "Point", "coordinates": [25.16797, 60.225181]}}, {"type": "Feature", "properties": {"name": "S-market", "address": "Ratatie 11", "opening_hours": "Mo-Fr 06:30-22:00; Sa 07:00-22:00; Su 09:00-22:00"}, "geometry": {"type": "Point", "coordinates": [25.044115, 60.293495]}}, {"type": "Feature", "properties": {"name": "Alepa", "address": "Urho Kekkosen katu 1", "opening_hours": "Mo-Su 06:00-24:00"}, "geometry": {"type": "Point", "coordinates": [24.932101, 60.168901]}}, {"type": "Feature", "properties": {"name": "S-market", "address": "Hankasuontie 2", "opening_hours": "Mo-Sa 07:00-23:00; Su 09:00-23:00"}, "geometry": {"type": "Point", "coordinates": [24.846404, 60.244674]}}, {"type": "Feature", "properties": {"name": "Alepa", "address": "Merivirta 5", "opening_hours": "Mo-Fr 06:30-23:00; Sa 08:00-23:00; Su 09:00-23:00"}, "geometry": {"type": "Point", "coordinates": [24.636209, 60.154196]}}, {"type": "Feature", "properties": {"name": "Alepa", "address": "Aurinkolahden puistotie 2", "opening_hours": "Mo-Fr 06:30-23:00; Sa 08:00-23:00; Su 09:00-23:00"}, "geometry": {"type": "Point", "coordinates": [25.148588, 60.203995]}}, {"type": "Feature", "properties": {"name": "S-market", "address": "Tukholmankatu 2", "opening_hours": "Mo-Fr 06:00-23:00; Sa 06:30-23:00; Su 09:00-23:00"}, "geometry": {"type": "Point", "coordinates": [24.911645, 60.190876]}}, {"type": "Feature", "properties": {"name": "S-market", "address": "Torpparintie 38", "opening_hours": "Mo-Sa 07:00-21:00; Su 09:00-21:00"}, "geometry": {"type": "Point", "coordinates": [24.479699, 60.398791]}}, {"type": "Feature", "properties": {"name": "Alepa", "address": "Venuksentie 4", "opening_hours": "Mo-Fr 07:00-22:00; Sa 08:00-22:00; Su 09:00-22:00"}, "geometry": {"type": "Point", "coordinates": [25.096552, 60.341394]}}, {"type": "Feature", "properties": {"name": "Alepa", "address": "Lehtisaarentie 2", "opening_hours": "Mo-Fr 06:30-22:00; Sa 08:00-22:00; Su 09:00-22:00"}, "geometry": {"type": "Point", "coordinates": [24.850825, 60.181474]}}, {"type": "Feature", "properties": {"name": "S-market", "address": "Isoseppälä 14", "opening_hours": "Mo-Sa 07:00-22:00; Su 09:00-22:00"}, "geometry": {"type": "Point", "coordinates": [24.758782, 60.374444]}}, {"type": "Feature", "properties": {"name": "Alepa", "address": "Jalopeurantie 4", "opening_hours": "Mo-Fr 06:30-22:00; Sa 08:00-22:00; Su 09:00-22:00"}, "geometry": {"type": "Point", "coordinates": [24.989254, 60.275085]}}, {"type": "Feature", "properties": {"name": "S-market", "address": "Lauttasaarentie 28", "opening_hours": "Su 09:00-23:00; Mo-Sa 06:30-23:00"}, "geometry": {"type": "Point", "coordinates": [24.880887, 60.160067]}}, {"type": "Feature", "properties": {"name": "S-market", "address": "Amiraalintie 2", "opening_hours": "Mo-Fr 07:00-22:00; Sa 07:00-21:00; Su 10:00-21:00"}, "geometry": {"type": "Point", "coordinates": [25.331777, 60.297883]}}, {"type": "Feature", "properties": {"name": "Alepa", "address": "", "opening_hours": "Mo-Fr 06:30-23:00; Sa 08:00-23:00; Su 09:00-23:00"}, "geometry": {"type": "Point", "coordinates": [24.889042, 60.210205]}}, {"type": "Feature", "properties": {"name": "Alepa", "address": "Osmankäämintie 7", "opening_hours": "Mo-Fr 06:30-23:00; Su 09:00-22:00; Sa 08:00-22:00"}, "geometry": {"type": "Point", "coordinates": [25.01695, 60.291519]}}, {"type": "Feature", "properties": {"name": "Alepa", "address": "Välimerenkatu 6", "opening_hours": "24/7"}, "geometry": {"type": "Point", "coordinates": [24.918821, 60.159773]}}, {"type": "Feature", "properties": {"name": "Alepa", "address": "Kotinummentie 68", "opening_hours": "24/7"}, "geometry": {"type": "Point", "coordinates": [25.013997, 60.267453]}}, {"type": "Feature", "properties": {"name": "Alepa", "address": "Soukantie 4", "opening_hours": "Mo-Sa 06:30-23:00; Su 09:00-23:00"}, "geometry": {"type": "Point", "coordinates": [24.673007, 60.137649]}}, {"type": "Feature", "properties": {"name": "Alepa", "address": "Kuulakuja 5", "opening_hours": "24/7"}, "geometry": {"type": "Point", "coordinates": [25.10942, 60.244949]}}, {"type": "Feature", "properties": {"name": "Alepa", "address": "Primavera 4", "opening_hours": "24/7"}, "geometry": {"type": "Point", "coordinates": [25.037785, 60.323888]}}, {"type": "Feature", "properties": {"name": "Alepa", "address": "Otaniementie 12", "opening_hours": "Mo-Sa 06:00-24:00; Su 09:00-24:00"}, "geometry": {"type": "Point", "coordinates": [24.824698, 60.185102]}}, {"type": "Feature", "properties": {"name": "Alepa", "address": "Laajaniityntie 2", "opening_hours": "24/7"}, "geometry": {"type": "Point", "coordinates": [24.848562, 60.276933]}}, {"type": "Feature", "properties": {"name": "Alepa", "address": "Harjannetie 46", "opening_hours": "Mo-Fr 06:30-22:00; Sa 08:00-22:00; Su 09:00-22:00"}, "geometry": {"type": "Point", "coordinates": [24.988959, 60.223868]}}, {"type": "Feature", "properties": {"name": "Alepa", "address": "Mellunmäentie 12", "opening_hours": "Mo-Fr 06:30-23:00; Su 09:00-23:00; Sa 08:00-23:00"}, "geometry": {"type": "Point", "coordinates": [25.117851, 60.237132]}}, {"type": "Feature", "properties": {"name": "Alepa", "address": "Vanhaistentie 1", "opening_hours": "24/7"}, "geometry": {"type": "Point", "coordinates": [24.885068, 60.241578]}}, {"type": "Feature", "properties": {"name": "Alepa", "address": "Jousenpuistonkatu 2", "opening_hours": "24/7"}, "geometry": {"type": "Point", "coordinates": [24.780177, 60.174338]}}, {"type": "Feature", "properties": {"name": "Alepa", "address": "Koivukylänväylä 66", "opening_hours": "Mo-Fr 06:00-23:00; Sa 08:00-23:00; Su 09:00-23:00"}, "geometry": {"type": "Point", "coordinates": [25.024209, 60.323828]}}, {"type": "Feature", "properties": {"name": "Alepa", "address": "Henrik Borgströmin tie 2", "opening_hours": "Mo-Sa 06:30-22:00; Su 09:00-22:00"}, "geometry": {"type": "Point", "coordinates": [25.037878, 60.174789]}}, {"type": "Feature", "properties": {"name": "Prisma", "address": "Firdonkatu 2b", "opening_hours": "24/7"}, "geometry": {"type": "Point", "coordinates": [24.929911, 60.198457]}}, {"type": "Feature", "properties": {"name": "Alepa", "address": "Pasilan Asema-aukio 1", "opening_hours": "24/7"}, "geometry": {"type": "Point", "coordinates": [24.932694, 60.198457]}}, {"type": "Feature", "properties": {"name": "Prisma", "address": "Linnanrakentajantie 2", "opening_hours": "Mo-Su 06:00-00:00"}, "geometry": {"type": "Point", "coordinates": [25.034185, 60.194702]}}, {"type": "Feature", "properties": {"name": "Alepa", "address": "Kauppalantie 40", "opening_hours": "Mo-Fr 07:00-23:00; Sa, Su 08:00-23:00"}, "geometry": {"type": "Point", "coordinates": [24.898102, 60.215232]}}, {"type": "Feature", "properties": {"name": "Alepa", "address": "Ullanmäentie 12", "opening_hours": "Mo-Fr 07:00-22:00; Sa 08:00-22:00; Su 09:00-22:00"}, "geometry": {"type": "Point", "coordinates": [24.707507, 60.206097]}}, {"type": "Feature", "properties": {"name": "S-market", "address": "Kuriiritie 23-25", "opening_hours": "24/7"}, "geometry": {"type": "Point", "coordinates": [24.999467, 60.288282]}}, {"type": "Feature", "properties": {"name": "Alepa", "address": "Teerisuontie 27", "opening_hours": "Mo-Sa 06:30-23:00; Su 09:00-23:00"}, "geometry": {"type": "Point", "coordinates": [25.021446, 60.25362]}}, {"type": "Feature", "properties": {"name": "Alepa", "address": "Kiskontie 1", "opening_hours": "Mo-Fr 06:30-22:00; Sa 08:00-22:00; Su 09:00-22:00"}, "geometry": {"type": "Point", "coordinates": [24.902871, 60.198654]}}, {"type": "Feature", "properties": {"name": "Alepa", "address": "Matinkatu 22", "opening_hours": ""}, "geometry": {"type": "Point", "coordinates": [24.739729, 60.157831]}}, {"type": "Feature", "properties": {"name": "S-market", "address": "Eskolankaari 2", "opening_hours": "24/7"}, "geometry": {"type": "Point", "coordinates": [24.995501, 60.242422]}}, {"type": "Feature", "properties": {"name": "Alepa", "address": "Tatti 17", "opening_hours": "24/7"}, "geometry": {"type": "Point", "coordinates": [25.078698, 60.274918]}}, {"type": "Feature", "properties": {"name": "Alepa", "address": "Capellanranta 2", "opening_hours": "Mo-Fr 07:00-23:00; Sa 08:00-23:00; Su 10:00-23:00"}, "geometry": {"type": "Point", "coordinates": [24.982351, 60.187815]}}, {"type": "Feature", "properties": {"name": "Alepa", "address": "Rullakkokatu 1", "opening_hours": "Mo-Sa 06:30-23:00; Su 09:00-23:00"}, "geometry": {"type": "Point", "coordinates": [24.928694, 60.219689]}}, {"type": "Feature", "properties": {"name": "S-market", "address": "Torpparinmäentie 1a", "opening_hours": "Mo-Sa 07:00-22:00; Su 09:00-22:00"}, "geometry": {"type": "Point", "coordinates": [24.945876, 60.256893]}}, {"type": "Feature", "properties": {"name": "Alepa", "address": "", "opening_hours": "24/7"}, "geometry": {"type": "Point", "coordinates": [24.967672, 60.317418]}}, {"type": "Feature", "properties": {"name": "Prisma", "address": "Espoonlahdenkatu 8", "opening_hours": "Mo-Su 06:00-24:00"}, "geometry": {"type": "Point", "coordinates": [24.654438, 60.149859]}}, {"type": "Feature", "properties": {"name": "Alepa", "address": "Malminkaari 13-15", "opening_hours": "24/7"}, "geometry": {"type": "Point", "coordinates": [25.012508, 60.250812]}}, {"type": "Feature", "properties": {"name": "Alepa", "address": "Kruunuvuorenkatu 4", "opening_hours": "24/7"}, "geometry": {"type": "Point", "coordinates": [24.964861, 60.166664]}}, {"type": "Feature", "properties": {"name": "S-market", "address": "Siltasaarenkatu 6-10", "opening_hours": "Mo-Sa 07:00-22:00; Su 09:00-22:00"}, "geometry": {"type": "Point", "coordinates": [24.949672, 60.17796]}}, {"type": "Feature", "properties": {"name": "S-market", "address": "Hermannin rantatie 5", "opening_hours": "Mo-Sa 07:00-22:00; Su 09:00-22:00"}, "geometry": {"type": "Point", "coordinates": [24.978037, 60.18751]}}, {"type": "Feature", "properties": {"name": "S-market", "address": "Niinikuja 2", "opening_hours": "Mo-Sa 06:30-22:00; Su 09:00-22:00"}, "geometry": {"type": "Point", "coordinates": [25.055988, 60.323185]}}, {"type": "Feature", "properties": {"name": "S-market", "address": "Lepsämäntie 2", "opening_hours": "Mo-Sa 6:30-24:00; Su 9:00-24:00"}, "geometry": {"type": "Point", "coordinates": [24.748386, 60.381195]}}, {"type": "Feature", "properties": {"name": "Alepa", "address": "Keimolantie 12", "opening_hours": "24/7"}, "geometry": {"type": "Point", "coordinates": [24.84851, 60.315643]}}, {"type": "Feature", "properties": {"name": "Alepa", "address": "Westendintie 99", "opening_hours": "Mo-Fr 07:00-22:00; Sa 08:00-22:00; Su 09:00-22:00"}, "geometry": {"type": "Point", "coordinates": [24.790856, 60.163343]}}, {"type": "Feature", "properties": {"name": "S-market", "address": "Salpakuja 2", "opening_hours": "Mo-Sa 07:00-22:00; Su 09:00-22:00"}, "geometry": {"type": "Point", "coordinates": [25.081393, 60.281556]}}, {"type": "Feature", "properties": {"name": "Alepa", "address": "Jäkälätie 12", "opening_hours": "24/7"}, "geometry": {"type": "Point", "coordinates": [25.031281, 60.263841]}}, {"type": "Feature", "properties": {"name": "S-market", "address": "Länsituuli 7", "opening_hours": "Mo-Sa 07:00-22:00; Su 09:00-22:00"}, "geometry": {"type": "Point", "coordinates": [24.805393, 60.175601]}}, {"type": "Feature", "properties": {"name": "Alepa", "address": "Veräjänaukio 1", "opening_hours": "Mo-Fr 06:30-23:00; Sa 08:00-23:00; Su 09:00-23:00"}, "geometry": {"type": "Point", "coordinates": [24.968957, 60.22886]}}, {"type": "Feature", "properties": {"name": "S-market", "address": "Vantaankoskentie 69", "opening_hours": "Mo-Sa 07:00-22:00; Su 09:00-22:00"}, "geometry": {"type": "Point", "coordinates": [24.846577, 60.31332]}}, {"type": "Feature", "properties": {"name": "Prisma", "address": "Iskoskuja 3", "opening_hours": "Mo-Su 06:00-24:00"}, "geometry": {"type": "Point", "coordinates": [24.852862, 60.260278]}}, {"type": "Feature", "properties": {"name": "Alepa", "address": "Kotkapolku 9", "opening_hours": "Mo-Fr 06:30-22:00; Sa 08:00-22:00; Su 09:00-22:00"}, "geometry": {"type": "Point", "coordinates": [24.763846, 60.229087]}}, {"type": "Feature", "properties": {"name": "Alepa", "address": "", "opening_hours": "Mo-Fr 06:00-22:00; Sa 08:00-22:00; Su 09:00-22:00"}, "geometry": {"type": "Point", "coordinates": [24.813366, 60.218782]}}, {"type": "Feature", "properties": {"name": "Alepa", "address": "Ylästöntie 28", "opening_hours": "24/7"}, "geometry": {"type": "Point", "coordinates": [24.955812, 60.285226]}}, {"type": "Feature", "properties": {"name": "S-market", "address": "Henrik Forsiuksen tie 39", "opening_hours": "Mo-Sa 06:30-22:00; Su 09:00-22:00"}, "geometry": {"type": "Point", "coordinates": [25.02108, 60.27741]}}, {"type": "Feature", "properties": {"name": "S-market", "address": "Kutojantie 1", "opening_hours": "Mo-Sa 07:00-22:00, Su 09:00-22:00"}, "geometry": {"type": "Point", "coordinates": [24.755105, 60.209671]}}, {"type": "Feature", "properties": {"name": "Alepa", "address": "Maustetehtaankatu 2", "opening_hours": "24/7"}, "geometry": {"type": "Point", "coordinates": [25.151594, 60.206915]}}, {"type": "Feature", "properties": {"name": "Alepa", "address": "Jupperintulli 2", "opening_hours": "Mo-Fr 06:30-22:00; Sa 08:00-22:00; Su 09:00-22:00"}, "geometry": {"type": "Point", "coordinates": [24.775358, 60.253346]}}, {"type": "Feature", "properties": {"name": "S-market", "address": "Ukonkivenpolku 11", "opening_hours": "Mo-Sa 06:30-23:00; Su 09:00-23:00"}, "geometry": {"type": "Point", "coordinates": [24.870419, 60.262723]}}, {"type": "Feature", "properties": {"name": "Sale", "address": "Asematie 1", "opening_hours": "Mo-Fr 06:30-23:00, Sa-Su 09:00-21:00"}, "geometry": {"type": "Point", "coordinates": [24.727484, 60.212603]}}, {"type": "Feature", "properties": {"name": "S-market", "address": "Ulkoniitynkuja 4", "opening_hours": "24/7"}, "geometry": {"type": "Point", "coordinates": [24.810326, 60.264934]}}, {"type": "Feature", "properties": {"name": "Prisma", "address": "Vanhanlinnantie 1", "opening_hours": "24/7"}, "geometry": {"type": "Point", "coordinates": [25.087879, 60.213642]}}, {"type": "Feature", "properties": {"name": "Prisma", "address": "Viikintori 3", "opening_hours": "Mo-Su 06:00-24:00"}, "geometry": {"type": "Point", "coordinates": [25.008312, 60.227511]}}, {"type": "Feature", "properties": {"name": "Alepa", "address": "Kontulankaari 8", "opening_hours": "24/7"}, "geometry": {"type": "Point", "coordinates": [25.074039, 60.239923]}}, {"type": "Feature", "properties": {"name": "Prisma", "address": "Komeetankatu 2", "opening_hours": "24/7"}, "geometry": {"type": "Point", "coordinates": [24.734098, 60.166505]}}, {"type": "Feature", "properties": {"name": "S-market", "address": "Kalevalantie 3", "opening_hours": "24/7"}, "geometry": {"type": "Point", "coordinates": [24.807022, 60.185786]}}, {"type": "Feature", "properties": {"name": "Alepa", "address": "Wallininkuja 7", "opening_hours": "Mo-Sa 06:00-24:00; Su 09:00-24:00"}, "geometry": {"type": "Point", "coordinates": [24.944239, 60.185313]}}, {"type": "Feature", "properties": {"name": "S-market", "address": "Koskentie 2", "opening_hours": "Mo-Sa 07:00-22:00; Su 09:00-21:00"}, "geometry": {"type": "Point", "coordinates": [24.444725, 60.268561]}}, {"type": "Feature", "properties": {"name": "S-market", "address": "Pakilantie 61", "opening_hours": "Mo-Sa 07:00-22:00; Su 09:00-22:00"}, "geometry": {"type": "Point", "coordinates": [24.928978, 60.239638]}}, {"type": "Feature", "properties": {"name": "Alepa", "address": "Vartiokyläntie 3", "opening_hours": "24/7"}, "geometry": {"type": "Point", "coordinates": [25.10346, 60.218664]}}, {"type": "Feature", "properties": {"name": "Alepa", "address": "Antti Korpin tie 3", "opening_hours": "Su 09:00-23:00; Mo-Fr 06:30-23:00; Sa 08:00-23:00"}, "geometry": {"type": "Point", "coordinates": [24.967019, 60.218394]}}, {"type": "Feature", "properties": {"name": "Alepa", "address": "Ohrahuhdantie 8", "opening_hours": "Su 09:00-22:00; Mo-Fr 06:00-22:00; Sa 08:00-22:00; PH 09:00-22:00"}, "geometry": {"type": "Point", "coordinates": [24.95342, 60.254119]}}, {"type": "Feature", "properties": {"name": "Prisma", "address": "Unikkotie 13", "opening_hours": "Mo-Su 06:00-24:00"}, "geometry": {"type": "Point", "coordinates": [25.034171, 60.293141]}}, {"type": "Feature", "properties": {"name": "Alepa", "address": "Mankkaanaukio 2", "opening_hours": "Mo-Fr 06:30-22:00; Sa 08:00-22:00; Su 09:00-22:00"}, "geometry": {"type": "Point", "coordinates": [24.769052, 60.193793]}}, {"type": "Feature", "properties": {"name": "Alepa", "address": "Linnuntie 2", "opening_hours": "Mo-Sa 06:30-23:00, Su 09:00-23:00"}, "geometry": {"type": "Point", "coordinates": [24.814166, 60.234494]}}, {"type": "Feature", "properties": {"name": "Alepa", "address": "Ojaniituntie 1", "opening_hours": "Mo-Sa 06:30-23:00"}, "geometry": {"type": "Point", "coordinates": [24.752884, 60.399416]}}, {"type": "Feature", "properties": {"name": "Alepa", "address": "Joosepinkuja 1", "opening_hours": "24/7"}, "geometry": {"type": "Point", "coordinates": [24.745466, 60.155678]}}, {"type": "Feature", "properties": {"name": "S-market", "address": "Takomotie 33", "opening_hours": "Mo-Sa 07:00-22:00; Su 09:00-22:00"}, "geometry": {"type": "Point", "coordinates": [24.869476, 60.217942]}}, {"type": "Feature", "properties": {"name": "Alepa", "address": "Ruorimiehentie 33", "opening_hours": "Mo-Sa 06:00-24:00, Su 09:00-24:00"}, "geometry": {"type": "Point", "coordinates": [25.061978, 60.164262]}}, {"type": "Feature", "properties": {"name": "S-market", "address": "Maakotkantie 19", "opening_hours": "Mo-Sa 07:00-23:00; Su 09:00-23:00"}, "geometry": {"type": "Point", "coordinates": [25.075754, 60.348644]}}, {"type": "Feature", "properties": {"name": "Alepa", "address": "Norkkokuja 3", "opening_hours": "Mo-Fr 06:30-22:00; Sa 08:00-22:00; Su 09:00-22:00"}, "geometry": {"type": "Point", "coordinates": [25.027844, 60.227285]}}, {"type": "Feature", "properties": {"name": "S-market", "address": "Hitsaajankatu 16", "opening_hours": "24/7"}, "geometry": {"type": "Point", "coordinates": [25.031536, 60.193426]}}, {"type": "Feature", "properties": {"name": "S-market", "address": "Malminkorpi 1", "opening_hours": "Mo-Fr 07:00-22:00, Sa 07:00-22:00, Su 09:00-22:00"}, "geometry": {"type": "Point", "coordinates": [24.678816, 60.181046]}}, {"type": "Feature", "properties": {"name": "S-market", "address": "Juvankartanontie 33", "opening_hours": "Mo-Sa 06:30-22:00; Su 09:00-22:00"}, "geometry": {"type": "Point", "coordinates": [24.758813, 60.269371]}}, {"type": "Feature", "properties": {"name": "S-market", "address": "Metsäpurontie 2", "opening_hours": "Mo-Sa 06:30-23:00; Su 09:00-23:00"}, "geometry": {"type": "Point", "coordinates": [24.933903, 60.231076]}}, {"type": "Feature", "properties": {"name": "S-market", "address": "Karaniityntie 2", "opening_hours": "Mo-Sa 07:00-22:00; Su 09:00-22:00"}, "geometry": {"type": "Point", "coordinates": [24.760256, 60.225113]}}, {"type": "Feature", "properties": {"name": "S-market", "address": "Magneettikatu 2", "opening_hours": "Mo-Sa 07:00-23:00; Su 09:00-23:00"}, "geometry": {"type": "Point", "coordinates": [24.617328, 60.167759]}}, {"type": "Feature", "properties": {"name": "S-market", "address": "Mustalahdentie 2", "opening_hours": "Mo-Sa 07:00-22:00; Su 09:00-22:00"}, "geometry": {"type": "Point", "coordinates": [25.140435, 60.221305]}}, {"type": "Feature", "properties": {"name": "Alepa", "address": "Kannistontie 1", "opening_hours": "Mo-Fr 06:00-23:00; Sa 08:00-23:00; Su 09:00-23:00"}, "geometry": {"type": "Point", "coordinates": [24.841575, 60.32241]}}, {"type": "Feature", "properties": {"name": "Sale", "address": "Lindalintie 9", "opening_hours": "Mo-Fr 07:00-21:00; Sa 08:00-21:00; Su 09:00-21:00"}, "geometry": {"type": "Point", "coordinates": [24.425917, 60.130726]}}, {"type": "Feature", "properties": {"name": "Alepa", "address": "Pitkännotkontie 27", "opening_hours": "Mo-Fr 06:30-23:00; Sa 08:00-23:00; Su 09:00-23:00"}, "geometry": {"type": "Point", "coordinates": [24.696106, 60.20108]}}, {"type": "Feature", "properties": {"name": "S-market", "address": "Tinantori 1", "opening_hours": "Mo-Sa 07:00-22:00; Su 09:00-22:00"}, "geometry": {"type": "Point", "coordinates": [24.535998, 60.159577]}}, {"type": "Feature", "properties": {"name": "Alepa Kannisto", "address": "Kannistonkatu 2", "opening_hours": "24/7"}, "geometry": {"type": "Point", "coordinates": [25.098669, 60.390743]}}, {"type": "Feature", "properties": {"name": "S-market", "address": "Merituulentie 36", "opening_hours": "Mo-Fr 06:00-22:00; Sa 07:00-22:00; Su 09:00-22:00"}, "geometry": {"type": "Point", "coordinates": [24.764328, 60.169986]}}, {"type": "Feature", "properties": {"name": "Alepa", "address": "Lahelanpellontie 2", "opening_hours": "Mo-Fr 06:30-23:00; Sa 08:00-23:00; Su 09:00-22:00"}, "geometry": {"type": "Point", "coordinates": [24.988746, 60.39329]}}, {"type": "Feature", "properties": {"name": "Alepa", "address": "Kuninkaankartanontie 11", "opening_hours": "Mo-Sa 06:00-24:00; Su 09:00-24:00"}, "geometry": {"type": "Point", "coordinates": [24.601073, 60.194176]}}, {"type": "Feature", "properties": {"name": "S-market", "address": "Nöykkiönniitty 2", "opening_hours": "Mo-Sa 07:00-23:00, Su 09:00-23:00"}, "geometry": {"type": "Point", "coordinates": [24.661439, 60.168321]}}, {"type": "Feature", "properties": {"name": "Prisma", "address": "Piispansilta 11", "opening_hours": "Mo-Su 06:00-24:00"}, "geometry": {"type": "Point", "coordinates": [24.737124, 60.162405]}}, {"type": "Feature", "properties": {"name": "Prisma", "address": "Kauppakaari 2", "opening_hours": "24/7"}, "geometry": {"type": "Point", "coordinates": [25.103788, 60.401573]}}, {"type": "Feature", "properties": {"name": "Alepa", "address": "Lintulammenkatu 2", "opening_hours": "Mo-Fr 06:30-23:00; Su 09:00-23:00; Sa 08:00-23:00"}, "geometry": {"type": "Point", "coordinates": [25.109166, 60.400095]}}, {"type": "Feature", "properties": {"name": "S-market", "address": "Yliskylän puistokatu 4", "opening_hours": "Mo-Sa 06:30-23:00; Su 08:00-23:00"}, "geometry": {"type": "Point", "coordinates": [25.051821, 60.178899]}}, {"type": "Feature", "properties": {"name": "Alepa", "address": "Kerananpolku 1", "opening_hours": "Mo-Sa 06:30-23:00; Su 09:00-23:00"}, "geometry": {"type": "Point", "coordinates": [25.140639, 60.404064]}}]}